{"PERSONID": 22, "PLACENAME": "Locust Valley, N.Y."}
{"PERSONID": 23, "PLACENAME": "Philadelphia, Pa."}
{"PERSONID": 23, "PLACENAME": "Santa Fe, N.M."}
{"PERSONID": 66, "PLACENAME": "Detroit, Mich."}
{"PERSONID": 66, "PLACENAME": "Philadelphia, Pa."}
{"PERSONID": 67, "PLACENAME": "New York, N.Y."}
{"PERSONID": 68, "PLACENAME": "Pa."}
{"PERSONID": 68, "PLACENAME": "U.K."}
{"PERSONID": 69, "PLACENAME": "New York, N.Y."}
{"PERSONID": 70, "PLACENAME": "Catskill, N.Y."}
{"PERSONID": 70, "PLACENAME": "New York, N.Y."}
{"PERSONID": 71, "PLACENAME": "England"}
{"PERSONID": 71, "PLACENAME": "N.Y."}
{"PERSONID": 71, "PLACENAME": "New Haven, Conn."}
{"PERSONID": 72, "PLACENAME": "New York, N.Y."}
{"PERSONID": 73, "PLACENAME": "Cincinnati, Ohio"}
{"PERSONID": 75, "PLACENAME": "New York, N.Y."}
{"PERSONID": 76, "PLACENAME": "New York, N.Y."}
{"PERSONID": 77, "PLACENAME": "New York, N.Y."}
{"PERSONID": 78, "PLACENAME": "N.H."}
{"PERSONID": 79, "PLACENAME": "Philadelphia, Pa."}
{"PERSONID": 80, "PLACENAME": "Philadelphia, Pa."}
{"PERSONID": 81, "PLACENAME": "Europe"}
{"PERSONID": 81, "PLACENAME": "Japan"}
{"PERSONID": 81, "PLACENAME": "New York, N.Y."}
{"PERSONID": 83, "PLACENAME": "Boston, Mass."}
{"PERSONID": 83, "PLACENAME": "Giverny, France"}
{"PERSONID": 83, "PLACENAME": "N.H."}
{"PERSONID": 84, "PLACENAME": "New York, N.Y."}
{"PERSONID": 86, "PLACENAME": "New York, N.Y."}
{"PERSONID": 86, "PLACENAME": "Pa."}
{"PERSONID": 86, "PLACENAME": "Westport, Conn."}
{"PERSONID": 87, "PLACENAME": "Doylestown, Pa."}
{"PERSONID": 87, "PLACENAME": "Irvington, N.Y."}
{"PERSONID": 87, "PLACENAME": "Irvington-on-Hudson, N.Y."}
{"PERSONID": 87, "PLACENAME": "Mt. Vernon, N.Y."}
{"PERSONID": 87, "PLACENAME": "New York, N.Y."}
{"PERSONID": 88, "PLACENAME": "New York, N.Y."}
{"PERSONID": 90, "PLACENAME": "East Hampton, N.Y."}
{"PERSONID": 90, "PLACENAME": "New York, N.Y."}
{"PERSONID": 91, "PLACENAME": "New York, N.Y."}
{"PERSONID": 91, "PLACENAME": "Venice, Italy"}
{"PERSONID": 93, "PLACENAME": "Woodstock, N.Y."}
{"PERSONID": 95, "PLACENAME": "Flushing, N.Y."}
{"PERSONID": 96, "PLACENAME": "Tx."}
{"PERSONID": 97, "PLACENAME": "New York, N.Y."}
{"PERSONID": 99, "PLACENAME": "New York, N.Y."}
{"PERSONID": 101, "PLACENAME": "Chadsford, Pa."}
{"PERSONID": 102, "PLACENAME": "New York, N.Y."}
{"PERSONID": 103, "PLACENAME": "New York, N.Y."}
{"PERSONID": 104, "PLACENAME": "New York, N.Y."}
{"PERSONID": 105, "PLACENAME": "San Francisco, Calif."}
{"PERSONID": 106, "PLACENAME": "Los Angeles, Calif."}
{"PERSONID": 107, "PLACENAME": "Germany"}
{"PERSONID": 107, "PLACENAME": "N.J."}
{"PERSONID": 108, "PLACENAME": "Coconut Grove, Fla."}
{"PERSONID": 110, "PLACENAME": "Philadelphia, Pa."}
{"PERSONID": 112, "PLACENAME": "Braintree, Mass."}
{"PERSONID": 112, "PLACENAME": "Washington, D.C."}
{"PERSONID": 114, "PLACENAME": "Shepherdstown, Virginia"}
{"PERSONID": 114, "PLACENAME": "Washington, D.C."}
{"PERSONID": 115, "PLACENAME": "Pottsville, Pa."}
{"PERSONID": 116, "PLACENAME": "Summerville, Ga."}
{"PERSONID": 117, "PLACENAME": "Washington, D.C."}
{"PERSONID": 126, "PLACENAME": "Washington, D.C."}
{"PERSONID": 127, "PLACENAME": "New York, N.Y."}
{"PERSONID": 131, "PLACENAME": "New York, N.Y."}
{"PERSONID": 134, "PLACENAME": "Sarasota, Fla."}
{"PERSONID": 134, "PLACENAME": "Washington, D.C."}
{"PERSONID": 135, "PLACENAME": "Washington, D.C."}
{"PERSONID": 136, "PLACENAME": "Washington, D.C."}
{"PERSONID": 137, "PLACENAME": "Dublin, N.H."}
{"PERSONID": 137, "PLACENAME": "New York, N.Y."}
{"PERSONID": 140, "PLACENAME": "Washington, D.C."}
{"PERSONID": 141, "PLACENAME": "New York, N.Y."}
{"PERSONID": 142, "PLACENAME": "New York, N.Y."}
{"PERSONID": 143, "PLACENAME": "Boston, Mass."}
{"PERSONID": 143, "PLACENAME": "Chestnut Hill, Mass."}
{"PERSONID": 144, "PLACENAME": "Washington, D.C."}
{"PERSONID": 145, "PLACENAME": "New York, N.Y."}
{"PERSONID": 145, "PLACENAME": "Pecs, Hungary"}
{"PERSONID": 147, "PLACENAME": "Minn."}
{"PERSONID": 147, "PLACENAME": "Washington, D.C."}
{"PERSONID": 150, "PLACENAME": "Syracuse, N.Y."}
{"PERSONID": 151, "PLACENAME": "Bloomfield Hills, Mich."}
{"PERSONID": 151, "PLACENAME": "Wellfleet, Mass."}
{"PERSONID": 152, "PLACENAME": "Calif."}
{"PERSONID": 153, "PLACENAME": "Chicago, Ill."}
{"PERSONID": 154, "PLACENAME": "Mass."}
{"PERSONID": 156, "PLACENAME": "New York, N.Y."}
{"PERSONID": 159, "PLACENAME": "Freeland, Wash."}
{"PERSONID": 159, "PLACENAME": "Tucson, Ariz."}
{"PERSONID": 160, "PLACENAME": "Puget Sound, Wash."}
{"PERSONID": 161, "PLACENAME": "Me."}
{"PERSONID": 161, "PLACENAME": "Nigeria"}
{"PERSONID": 162, "PLACENAME": "Calif."}
{"PERSONID": 163, "PLACENAME": "Upper Nyack, N.Y."}
{"PERSONID": 164, "PLACENAME": "Berkeley, Calif."}
{"PERSONID": 166, "PLACENAME": "Spruce Pine, N.C."}
{"PERSONID": 168, "PLACENAME": "New York, N.Y."}
{"PERSONID": 169, "PLACENAME": "Calif."}
{"PERSONID": 172, "PLACENAME": "New Hope, Pa."}
{"PERSONID": 174, "PLACENAME": "Boston, Mass."}
{"PERSONID": 174, "PLACENAME": "New York, N.Y."}
{"PERSONID": 174, "PLACENAME": "West Newbury, Mass."}
{"PERSONID": 175, "PLACENAME": "Toledo, Ohio"}
{"PERSONID": 178, "PLACENAME": "Port Costa, Calf."}
{"PERSONID": 180, "PLACENAME": "New York, N.Y."}
{"PERSONID": 181, "PLACENAME": "Ill."}
{"PERSONID": 184, "PLACENAME": "Raleigh, N.C."}
{"PERSONID": 188, "PLACENAME": "Boston, Mass."}
{"PERSONID": 189, "PLACENAME": "San Antonio, Tex."}
{"PERSONID": 190, "PLACENAME": "Calif."}
{"PERSONID": 191, "PLACENAME": "Chicago, Ill."}
{"PERSONID": 192, "PLACENAME": "Bozeman, Mont."}
{"PERSONID": 194, "PLACENAME": "Chicago, Ill."}
{"PERSONID": 194, "PLACENAME": "New York, N.Y."}
{"PERSONID": 195, "PLACENAME": "New York, N.Y."}
{"PERSONID": 195, "PLACENAME": "San Francisco, Calif."}
{"PERSONID": 199, "PLACENAME": "Port Costa, Calf."}
{"PERSONID": 200, "PLACENAME": "Seattle, Wash."}
{"PERSONID": 202, "PLACENAME": "Wis."}
{"PERSONID": 210, "PLACENAME": "Chicago, Ill."}
{"PERSONID": 220, "PLACENAME": "N.Y."}
{"PERSONID": 221, "PLACENAME": "Rochester, N.Y"}
{"PERSONID": 222, "PLACENAME": "Rochester, N.Y"}
{"PERSONID": 223, "PLACENAME": "Stillwater, Minn."}
{"PERSONID": 230, "PLACENAME": "Dallas, Tex."}
{"PERSONID": 235, "PLACENAME": "Port Costa, Calf."}
{"PERSONID": 238, "PLACENAME": "Colo."}
{"PERSONID": 240, "PLACENAME": "N.Y."}
{"PERSONID": 240, "PLACENAME": "Ohio"}
{"PERSONID": 240, "PLACENAME": "Quakertown, N.J."}
{"PERSONID": 242, "PLACENAME": "Calif."}
{"PERSONID": 243, "PLACENAME": "New York, N.Y."}
{"PERSONID": 247, "PLACENAME": "Chicago, Ill."}
{"PERSONID": 247, "PLACENAME": "Mexico"}
{"PERSONID": 249, "PLACENAME": "New York, N.Y."}
{"PERSONID": 250, "PLACENAME": "San Francisco, Calif."}
{"PERSONID": 251, "PLACENAME": "New York, N.Y."}
{"PERSONID": 251, "PLACENAME": "Paris, France"}
{"PERSONID": 252, "PLACENAME": "San Francisco, Calif."}
{"PERSONID": 253, "PLACENAME": "Pecos, N.M."}
{"PERSONID": 281, "PLACENAME": "Manchester, England"}
{"PERSONID": 282, "PLACENAME": "New Bedford, Mass."}
{"PERSONID": 282, "PLACENAME": "New York, N.Y."}
{"PERSONID": 282, "PLACENAME": "San Francisco, Calif."}
{"PERSONID": 283, "PLACENAME": "Chicago, Ill."}
{"PERSONID": 283, "PLACENAME": "New York, N.Y."}
{"PERSONID": 285, "PLACENAME": "New York, N.Y."}
{"PERSONID": 286, "PLACENAME": "New York, N.Y."}
{"PERSONID": 286, "PLACENAME": "Provincetown, Mass."}
{"PERSONID": 288, "PLACENAME": "New York, N.Y."}
{"PERSONID": 292, "PLACENAME": "N.Y."}
{"PERSONID": 292, "PLACENAME": "R.I."}
{"PERSONID": 294, "PLACENAME": "New York, N.Y."}
{"PERSONID": 300, "PLACENAME": "New York, N.Y."}
{"PERSONID": 302, "PLACENAME": "New York, N.Y."}
{"PERSONID": 303, "PLACENAME": "Denver, Colo."}
{"PERSONID": 303, "PLACENAME": "New York, N.Y."}
{"PERSONID": 304, "PLACENAME": "New York, N.Y."}
{"PERSONID": 305, "PLACENAME": "Los Angeles, Calif."}
{"PERSONID": 307, "PLACENAME": "San Francisco, Calif."}
{"PERSONID": 310, "PLACENAME": "Madison, Wis."}
{"PERSONID": 312, "PLACENAME": "Black Mountain, N.C."}
{"PERSONID": 312, "PLACENAME": "Orange, Conn."}
{"PERSONID": 314, "PLACENAME": "London, England"}
{"PERSONID": 320, "PLACENAME": "New York, N.Y."}
{"PERSONID": 330, "PLACENAME": "Hilo, Hawaii"}
{"PERSONID": 332, "PLACENAME": "New York, N.Y."}
{"PERSONID": 334, "PLACENAME": "Mich."}
{"PERSONID": 337, "PLACENAME": "Kauai, Hawaii"}
{"PERSONID": 337, "PLACENAME": "South Pasadena, Calif."}
{"PERSONID": 339, "PLACENAME": "Los Angeles, Calif."}
{"PERSONID": 340, "PLACENAME": "Miami, Fla."}
{"PERSONID": 341, "PLACENAME": "Miami, Fla."}
{"PERSONID": 342, "PLACENAME": "Miami, Fla."}
{"PERSONID": 343, "PLACENAME": "Miami, Fla."}
{"PERSONID": 347, "PLACENAME": "San Francisco, Calif."}
{"PERSONID": 349, "PLACENAME": "Miami Beach, Fla."}
{"PERSONID": 352, "PLACENAME": "Miami, Fla."}
{"PERSONID": 365, "PLACENAME": "Miami, Fla."}
{"PERSONID": 366, "PLACENAME": "Miami, Fla."}
{"PERSONID": 367, "PLACENAME": "New York, N.Y."}
{"PERSONID": 405, "PLACENAME": "New York, N.Y."}
{"PERSONID": 409, "PLACENAME": "Taos, N.M."}
{"PERSONID": 416, "PLACENAME": "Washington, D.C."}
{"PERSONID": 417, "PLACENAME": "Chicago, Ill."}
{"PERSONID": 420, "PLACENAME": "Miami, Fla."}
{"PERSONID": 425, "PLACENAME": "Brooklyn, N.Y."}
{"PERSONID": 429, "PLACENAME": "Woodstock, N.Y."}
{"PERSONID": 434, "PLACENAME": "New York, N.Y."}
{"PERSONID": 435, "PLACENAME": "Miami, Fla."}
{"PERSONID": 439, "PLACENAME": "Woodstock, N.Y."}
{"PERSONID": 442, "PLACENAME": "Los Angeles, Calif."}
{"PERSONID": 446, "PLACENAME": "Los Angeles, Calif."}
{"PERSONID": 447, "PLACENAME": "Madrid, Spain"}
{"PERSONID": 447, "PLACENAME": "New York, N.Y."}
{"PERSONID": 449, "PLACENAME": "New York, N.Y."}
{"PERSONID": 451, "PLACENAME": "Hondo, N.M."}
{"PERSONID": 453, "PLACENAME": "Los Angeles, Calif."}
{"PERSONID": 456, "PLACENAME": "New York, N.Y."}
{"PERSONID": 457, "PLACENAME": "Iowa City, Iowa"}
{"PERSONID": 458, "PLACENAME": "San Francisco, Calif."}
{"PERSONID": 459, "PLACENAME": "Ann Arbor, Mich."}
{"PERSONID": 459, "PLACENAME": "San Diego, Calif."}
{"PERSONID": 462, "PLACENAME": "New York, N.Y."}
{"PERSONID": 464, "PLACENAME": "Piedmont, Calif."}
{"PERSONID": 465, "PLACENAME": "Los Angeles, Calif."}
{"PERSONID": 465, "PLACENAME": "New York, N.Y."}
{"PERSONID": 471, "PLACENAME": "New York, N.Y."}
{"PERSONID": 472, "PLACENAME": "New York, N.Y."}
{"PERSONID": 473, "PLACENAME": "New York, N.Y."}
{"PERSONID": 474, "PLACENAME": "Miami, Fla."}
{"PERSONID": 476, "PLACENAME": "New York, N.Y."}
{"PERSONID": 477, "PLACENAME": "New York, N.Y."}
{"PERSONID": 479, "PLACENAME": "San Francisco, Calif."}
{"PERSONID": 481, "PLACENAME": "New York, N.Y."}
{"PERSONID": 484, "PLACENAME": "Oakland, Calif."}
{"PERSONID": 488, "PLACENAME": "Miami, Fla."}
{"PERSONID": 489, "PLACENAME": "Santiago, Chile"}
{"PERSONID": 493, "PLACENAME": "Los Angeles, Calif."}
{"PERSONID": 494, "PLACENAME": "Tesuque, N.M."}
{"PERSONID": 495, "PLACENAME": "Tesuque, N.M."}
{"PERSONID": 496, "PLACENAME": "Barcelona, Spain"}
{"PERSONID": 496, "PLACENAME": "Miami, Fla."}
{"PERSONID": 504, "PLACENAME": "San Francisco, Calif."}
{"PERSONID": 506, "PLACENAME": "Los Angeles, Calif."}
{"PERSONID": 511, "PLACENAME": "Los Angeles, Calif."}
{"PERSONID": 512, "PLACENAME": "New York, N.Y."}
{"PERSONID": 513, "PLACENAME": "San Antonio, Tex."}
{"PERSONID": 514, "PLACENAME": "San Francisco, Calif."}
{"PERSONID": 516, "PLACENAME": "New York, N.Y."}
{"PERSONID": 516, "PLACENAME": "San Antonio, Tex."}
{"PERSONID": 529, "PLACENAME": "New York, N.Y."}
{"PERSONID": 530, "PLACENAME": "Petaluma, Calif."}
{"PERSONID": 530, "PLACENAME": "San Francisco, Calif."}
{"PERSONID": 531, "PLACENAME": "Clinton, N.Y."}
{"PERSONID": 536, "PLACENAME": "New York, N.Y."}
{"PERSONID": 538, "PLACENAME": "New York, N.Y."}
{"PERSONID": 547, "PLACENAME": "Bronxville, N.Y."}
{"PERSONID": 547, "PLACENAME": "Provincetown, Mass."}
{"PERSONID": 549, "PLACENAME": "New York, N.Y."}
{"PERSONID": 551, "PLACENAME": "New York, N.Y."}
{"PERSONID": 565, "PLACENAME": "Havana, Cuba"}
{"PERSONID": 565, "PLACENAME": "Mexico"}
{"PERSONID": 576, "PLACENAME": "Santa Fe, N.M."}
{"PERSONID": 600, "PLACENAME": "Philadelphia, Pa."}
{"PERSONID": 616, "PLACENAME": "Miami, Fla."}
{"PERSONID": 617, "PLACENAME": "Detroit, Mich."}
{"PERSONID": 617, "PLACENAME": "New York, N.Y."}
{"PERSONID": 618, "PLACENAME": "Guantanamo, Cuba"}
{"PERSONID": 619, "PLACENAME": "Buenos Aires, Argentina"}
{"PERSONID": 631, "PLACENAME": "Hollywood, Calif."}
{"PERSONID": 635, "PLACENAME": "Alfred Station, N.Y."}
{"PERSONID": 635, "PLACENAME": "Washington, D.C."}
{"PERSONID": 637, "PLACENAME": "New York, N.Y."}
{"PERSONID": 644, "PLACENAME": "Arlington, Tex."}
{"PERSONID": 670, "PLACENAME": "Los Angeles, Calif."}
{"PERSONID": 671, "PLACENAME": "Alfred Station, N.Y."}
{"PERSONID": 672, "PLACENAME": "Rockville, Md."}
{"PERSONID": 674, "PLACENAME": "San Francisco, Calif."}
{"PERSONID": 675, "PLACENAME": "Ojai, Calif."}
{"PERSONID": 676, "PLACENAME": "Ojai, Calif."}
{"PERSONID": 677, "PLACENAME": "Elkins Park, Pa."}
{"PERSONID": 679, "PLACENAME": "Montana"}
{"PERSONID": 684, "PLACENAME": "Oakland, Calif."}
{"PERSONID": 686, "PLACENAME": "San Francisco, Calif."}
{"PERSONID": 690, "PLACENAME": "Mo."}
{"PERSONID": 691, "PLACENAME": "Omaha, Neb."}
{"PERSONID": 692, "PLACENAME": "Alfred Station, N.Y."}
{"PERSONID": 694, "PLACENAME": "New York, N.Y."}
{"PERSONID": 697, "PLACENAME": "Philadelphia, Pa."}
{"PERSONID": 699, "PLACENAME": "New York, N.Y."}
{"PERSONID": 699, "PLACENAME": "Paris, France"}
{"PERSONID": 700, "PLACENAME": "New York, N.Y."}
{"PERSONID": 701, "PLACENAME": "Bloomfield Hills, Mich."}
{"PERSONID": 702, "PLACENAME": "Bloomfield Hills, Mich."}
{"PERSONID": 703, "PLACENAME": "New York, N.Y."}
{"PERSONID": 704, "PLACENAME": "Philadelphia, Pa."}
{"PERSONID": 705, "PLACENAME": "Philadelphia, Pa."}
{"PERSONID": 708, "PLACENAME": "North Brunswick, N.J."}
{"PERSONID": 710, "PLACENAME": "San Francisco, Calif."}
{"PERSONID": 711, "PLACENAME": "New York, N.Y."}
{"PERSONID": 712, "PLACENAME": "Calif."}
{"PERSONID": 712, "PLACENAME": "N.M."}
{"PERSONID": 715, "PLACENAME": "New York, N.Y."}
{"PERSONID": 721, "PLACENAME": "Berlin, Germany"}
{"PERSONID": 721, "PLACENAME": "New York, N.Y."}
{"PERSONID": 722, "PLACENAME": "Berlin, Germany"}
{"PERSONID": 722, "PLACENAME": "Chicago, Ill."}
{"PERSONID": 722, "PLACENAME": "New York, N.Y."}
{"PERSONID": 723, "PLACENAME": "Santa Fe, N.M."}
{"PERSONID": 726, "PLACENAME": "New York, N.Y."}
{"PERSONID": 729, "PLACENAME": "New York, N.Y."}
{"PERSONID": 731, "PLACENAME": "Me."}
{"PERSONID": 732, "PLACENAME": "New York, N.Y."}
{"PERSONID": 737, "PLACENAME": "New York, N.Y."}
{"PERSONID": 739, "PLACENAME": "Rochester, N.Y"}
{"PERSONID": 741, "PLACENAME": "N.Y."}
{"PERSONID": 743, "PLACENAME": "New York, N.Y."}
{"PERSONID": 744, "PLACENAME": "N.Y."}
{"PERSONID": 745, "PLACENAME": "New York, N.Y."}
{"PERSONID": 745, "PLACENAME": "Wayne, N.J."}
{"PERSONID": 746, "PLACENAME": "New York, N.Y."}
{"PERSONID": 747, "PLACENAME": "New York, N.Y."}
{"PERSONID": 748, "PLACENAME": "New York, N.Y."}
{"PERSONID": 748, "PLACENAME": "Washington, D.C."}
{"PERSONID": 750, "PLACENAME": "New York, N.Y."}
{"PERSONID": 751, "PLACENAME": "Taos, N.M."}
{"PERSONID": 752, "PLACENAME": "New York, N.Y."}
{"PERSONID": 753, "PLACENAME": "Long Island, N.Y."}
{"PERSONID": 755, "PLACENAME": "New York, N.Y."}
{"PERSONID": 759, "PLACENAME": "Me."}
{"PERSONID": 760, "PLACENAME": "New York, N.Y."}
{"PERSONID": 761, "PLACENAME": "New York, N.Y."}
{"PERSONID": 762, "PLACENAME": "New York, N.Y."}
{"PERSONID": 763, "PLACENAME": "Atlanta, Ga."}
{"PERSONID": 763, "PLACENAME": "Philadelphia, Pa."}
{"PERSONID": 764, "PLACENAME": "Stanford, Calif."}
{"PERSONID": 765, "PLACENAME": "New York, N.Y."}
{"PERSONID": 766, "PLACENAME": "New Haven, Conn."}
{"PERSONID": 766, "PLACENAME": "New York, N.Y."}
{"PERSONID": 767, "PLACENAME": "New York, N.Y."}
{"PERSONID": 770, "PLACENAME": "Pelham Manor, N.Y."}
{"PERSONID": 771, "PLACENAME": "New York, N.Y."}
{"PERSONID": 771, "PLACENAME": "Torre Gentile di Todi, Italy"}
{"PERSONID": 772, "PLACENAME": "N.Y."}
{"PERSONID": 773, "PLACENAME": "Taos, N.M."}
{"PERSONID": 774, "PLACENAME": "Cambridge, Mass."}
{"PERSONID": 774, "PLACENAME": "Dusseldorf, Germany"}
{"PERSONID": 776, "PLACENAME": "N.Y."}
{"PERSONID": 776, "PLACENAME": "Washington, D.C."}
{"PERSONID": 777, "PLACENAME": "New York, N.Y."}
{"PERSONID": 779, "PLACENAME": "France"}
{"PERSONID": 779, "PLACENAME": "West Chester, Pa."}
{"PERSONID": 782, "PLACENAME": "New York, N.Y."}
{"PERSONID": 783, "PLACENAME": "New York, N.Y."}
{"PERSONID": 784, "PLACENAME": "New York, N.Y."}
{"PERSONID": 786, "PLACENAME": "Los Angeles, Calif."}
{"PERSONID": 788, "PLACENAME": "New York, N.Y."}
{"PERSONID": 791, "PLACENAME": "New York, N.Y."}
{"PERSONID": 795, "PLACENAME": "Princeton, N.J."}
{"PERSONID": 800, "PLACENAME": "Los Angeles, Calif."}
{"PERSONID": 801, "PLACENAME": "New York, N.Y."}
{"PERSONID": 803, "PLACENAME": "Cedar Rapids, Ia."}
{"PERSONID": 804, "PLACENAME": "New York, N.Y."}
{"PERSONID": 804, "PLACENAME": "Robinhood, Me."}
{"PERSONID": 806, "PLACENAME": "R.S.F.S.R."}
{"PERSONID": 806, "PLACENAME": "Woodbury, Conn."}
{"PERSONID": 813, "PLACENAME": "New York, N.Y."}
{"PERSONID": 816, "PLACENAME": "New York, N.Y."}
{"PERSONID": 817, "PLACENAME": "Los Angeles, Calif."}
{"PERSONID": 818, "PLACENAME": "New York, N.Y."}
{"PERSONID": 818, "PLACENAME": "San Francisco, Calif."}
{"PERSONID": 819, "PLACENAME": "New York, N.Y."}
{"PERSONID": 820, "PLACENAME": "Williamstown, Mass."}
{"PERSONID": 822, "PLACENAME": "New York, N.Y."}
{"PERSONID": 825, "PLACENAME": "Brooklyn, N.Y."}
{"PERSONID": 827, "PLACENAME": "London, Ohio"}
{"PERSONID": 827, "PLACENAME": "Mass."}
{"PERSONID": 827, "PLACENAME": "New York, N.Y."}
{"PERSONID": 827, "PLACENAME": "Paris, France"}
{"PERSONID": 828, "PLACENAME": "New York, N.Y."}
{"PERSONID": 829, "PLACENAME": "Cape Porpoise, Me."}
{"PERSONID": 829, "PLACENAME": "Cross River, N.Y."}
{"PERSONID": 831, "PLACENAME": "Suffern, N.Y."}
{"PERSONID": 832, "PLACENAME": "New York, N.Y."}
{"PERSONID": 834, "PLACENAME": "Ogunquit, Me."}
{"PERSONID": 836, "PLACENAME": "New York, N.Y."}
{"PERSONID": 838, "PLACENAME": "Pa."}
{"PERSONID": 840, "PLACENAME": "Dublin, Ireland"}
{"PERSONID": 843, "PLACENAME": "Hamptenbays, N.Y."}
{"PERSONID": 843, "PLACENAME": "New York, N.Y."}
{"PERSONID": 844, "PLACENAME": "New York, N.Y."}
{"PERSONID": 848, "PLACENAME": "Majorca, Spain"}
{"PERSONID": 848, "PLACENAME": "New York, N.Y."}
{"PERSONID": 849, "PLACENAME": "Los Angeles, Calif."}
{"PERSONID": 851, "PLACENAME": "New York, N.Y."}
{"PERSONID": 852, "PLACENAME": "New York, N.Y."}
{"PERSONID": 852, "PLACENAME": "Paris, France"}
{"PERSONID": 853, "PLACENAME": "Paris, France"}
{"PERSONID": 853, "PLACENAME": "Philadelphia, Pa."}
{"PERSONID": 853, "PLACENAME": "Provincetown, Mass."}
{"PERSONID": 855, "PLACENAME": "N.J."}
{"PERSONID": 855, "PLACENAME": "New York, N.Y."}
{"PERSONID": 858, "PLACENAME": "Greenwich, Conn."}
{"PERSONID": 859, "PLACENAME": "Boston, Mass."}
{"PERSONID": 859, "PLACENAME": "Lenox, Mass."}
{"PERSONID": 860, "PLACENAME": "Berkeley, Calif."}
{"PERSONID": 860, "PLACENAME": "Los Angeles, Calif."}
{"PERSONID": 861, "PLACENAME": "Boston, Mass."}
{"PERSONID": 861, "PLACENAME": "New York, N.Y."}
{"PERSONID": 868, "PLACENAME": "Ariz."}
{"PERSONID": 868, "PLACENAME": "Calif."}
{"PERSONID": 873, "PLACENAME": "Me."}
{"PERSONID": 873, "PLACENAME": "N.Y."}
{"PERSONID": 874, "PLACENAME": "New York, N.Y."}
{"PERSONID": 874, "PLACENAME": "Roosevelt, N.J."}
{"PERSONID": 876, "PLACENAME": "New York, N.Y."}
{"PERSONID": 878, "PLACENAME": "New York, N.Y."}
{"PERSONID": 879, "PLACENAME": "San Patricio, N.M."}
{"PERSONID": 881, "PLACENAME": "New York, N.Y."}
{"PERSONID": 882, "PLACENAME": "New York, N.Y."}
{"PERSONID": 883, "PLACENAME": "N.H."}
{"PERSONID": 883, "PLACENAME": "N.Y."}
{"PERSONID": 884, "PLACENAME": "Washington, D.C."}
{"PERSONID": 885, "PLACENAME": "Ithaca, N.Y."}
{"PERSONID": 890, "PLACENAME": "New York, N.Y."}
{"PERSONID": 891, "PLACENAME": "Mass."}
{"PERSONID": 892, "PLACENAME": "Pittsburgh, Pa."}
{"PERSONID": 893, "PLACENAME": "New York, N.Y."}
{"PERSONID": 894, "PLACENAME": "Albany, N.Y."}
{"PERSONID": 895, "PLACENAME": "New York, N.Y."}
{"PERSONID": 895, "PLACENAME": "Provincetown, Mass."}
{"PERSONID": 896, "PLACENAME": "New York, N.Y."}
{"PERSONID": 897, "PLACENAME": "New York, N.Y."}
{"PERSONID": 898, "PLACENAME": "Berlin, Germany"}
{"PERSONID": 898, "PLACENAME": "New York, N.Y."}
{"PERSONID": 899, "PLACENAME": "New York, N.Y."}
{"PERSONID": 901, "PLACENAME": "New York, N.Y."}
{"PERSONID": 903, "PLACENAME": "New York, N.Y."}
{"PERSONID": 904, "PLACENAME": "New York, N.Y."}
{"PERSONID": 905, "PLACENAME": "Paris, France"}
{"PERSONID": 907, "PLACENAME": "New York, N.Y."}
{"PERSONID": 908, "PLACENAME": "New York, N.Y."}
{"PERSONID": 909, "PLACENAME": "Calif."}
{"PERSONID": 910, "PLACENAME": "New York, N.Y."}
{"PERSONID": 910, "PLACENAME": "Paris, France"}
{"PERSONID": 915, "PLACENAME": "New York, N.Y."}
{"PERSONID": 916, "PLACENAME": "New York, N.Y."}
{"PERSONID": 916, "PLACENAME": "Seattle, Wash."}
{"PERSONID": 919, "PLACENAME": "Philadelphia, Pa."}
{"PERSONID": 921, "PLACENAME": "New York, N.Y."}
{"PERSONID": 922, "PLACENAME": "Marblehead, Mass."}
{"PERSONID": 923, "PLACENAME": "Stanford, Calif."}
{"PERSONID": 925, "PLACENAME": "Cozad, Neb."}
{"PERSONID": 925, "PLACENAME": "New York, N.Y."}
{"PERSONID": 925, "PLACENAME": "Paris, France"}
{"PERSONID": 926, "PLACENAME": "Boston, Mass."}
{"PERSONID": 926, "PLACENAME": "New York, N.Y."}
{"PERSONID": 928, "PLACENAME": "Calif."}
{"PERSONID": 929, "PLACENAME": "Kansas City, Mo."}
{"PERSONID": 929, "PLACENAME": "New York, N.Y."}
{"PERSONID": 931, "PLACENAME": "New York, N.Y."}
{"PERSONID": 932, "PLACENAME": "New York, N.Y."}
{"PERSONID": 935, "PLACENAME": "New York, N.Y."}
{"PERSONID": 940, "PLACENAME": "New York, N.Y."}
{"PERSONID": 941, "PLACENAME": "Cliffside, N.J."}
{"PERSONID": 941, "PLACENAME": "Paris, France"}
{"PERSONID": 942, "PLACENAME": "Taos, N.M."}
{"PERSONID": 943, "PLACENAME": "Roosevelt, N.J."}
{"PERSONID": 944, "PLACENAME": "New York, N.Y."}
{"PERSONID": 946, "PLACENAME": "New York, N.Y."}
{"PERSONID": 949, "PLACENAME": "New York, N.Y."}
{"PERSONID": 949, "PLACENAME": "Provincetown, Mass."}
{"PERSONID": 950, "PLACENAME": "New York, N.Y."}
{"PERSONID": 950, "PLACENAME": "Wilkes Barre, N.Y."}
{"PERSONID": 952, "PLACENAME": "El Paso, Tex."}
{"PERSONID": 953, "PLACENAME": "New York, N.Y."}
{"PERSONID": 954, "PLACENAME": "New York, N.Y."}
{"PERSONID": 955, "PLACENAME": "England"}
{"PERSONID": 957, "PLACENAME": "New York, N.Y."}
{"PERSONID": 960, "PLACENAME": "Port Washington, N.Y."}
{"PERSONID": 961, "PLACENAME": "New York, N.Y."}
{"PERSONID": 962, "PLACENAME": "New York, N.Y."}
{"PERSONID": 963, "PLACENAME": "Cambridge, Mass."}
{"PERSONID": 964, "PLACENAME": "France"}
{"PERSONID": 966, "PLACENAME": "Newport, R.I."}
{"PERSONID": 966, "PLACENAME": "Philadelphia, Pa."}
{"PERSONID": 968, "PLACENAME": "Boston, Mass."}
{"PERSONID": 969, "PLACENAME": "Orlando, Fl."}
{"PERSONID": 970, "PLACENAME": "New York, N.Y."}
{"PERSONID": 970, "PLACENAME": "Washington, D.C."}
{"PERSONID": 971, "PLACENAME": "France"}
{"PERSONID": 971, "PLACENAME": "New York, N.Y."}
{"PERSONID": 972, "PLACENAME": "St. Paul, Minn."}
{"PERSONID": 973, "PLACENAME": "New York, N.Y."}
{"PERSONID": 975, "PLACENAME": "New York, N.Y."}
{"PERSONID": 977, "PLACENAME": "New York, N.Y."}
{"PERSONID": 978, "PLACENAME": "New York, N.Y."}
{"PERSONID": 980, "PLACENAME": "New York, N.Y."}
{"PERSONID": 981, "PLACENAME": "Woodbury, Conn."}
{"PERSONID": 982, "PLACENAME": "Albany, N.Y."}
{"PERSONID": 984, "PLACENAME": "Boston, Mass."}
{"PERSONID": 984, "PLACENAME": "New York, N.Y."}
{"PERSONID": 985, "PLACENAME": "New York, N.Y."}
{"PERSONID": 986, "PLACENAME": "New York, N.Y."}
{"PERSONID": 987, "PLACENAME": "Salisbury, Conn."}
{"PERSONID": 988, "PLACENAME": "Princeton, N.J."}
{"PERSONID": 989, "PLACENAME": "New York, N.Y."}
{"PERSONID": 989, "PLACENAME": "Paris, France"}
{"PERSONID": 990, "PLACENAME": "New York, N.Y."}
{"PERSONID": 991, "PLACENAME": "New York, N.Y."}
{"PERSONID": 993, "PLACENAME": "New York, N.Y."}
{"PERSONID": 997, "PLACENAME": "New York, N.Y."}
{"PERSONID": 998, "PLACENAME": "Los Angeles, Calif."}
{"PERSONID": 1000, "PLACENAME": "New York, N.Y."}
{"PERSONID": 1000, "PLACENAME": "Paris, France"}
{"PERSONID": 1001, "PLACENAME": "Cape Cod, Mass."}
{"PERSONID": 1001, "PLACENAME": "Chicago, Ill."}
{"PERSONID": 1001, "PLACENAME": "Provincetown, Mass."}
{"PERSONID": 1002, "PLACENAME": "New York, N.Y."}
{"PERSONID": 1006, "PLACENAME": "New York, N.Y."}
{"PERSONID": 1007, "PLACENAME": "New York, N.Y."}
{"PERSONID": 1012, "PLACENAME": "France"}
{"PERSONID": 1013, "PLACENAME": "Suffern, N.Y."}
{"PERSONID": 1019, "PLACENAME": "New Hope, Pa."}
{"PERSONID": 1019, "PLACENAME": "New York, N.Y."}
{"PERSONID": 1024, "PLACENAME": "Calif."}
{"PERSONID": 1028, "PLACENAME": "Pa."}
{"PERSONID": 1039, "PLACENAME": "Hollywood, Calif."}
{"PERSONID": 1039, "PLACENAME": "New York, N.Y."}
{"PERSONID": 1042, "PLACENAME": "Glenside, Pa."}
{"PERSONID": 1050, "PLACENAME": "Galisteo, N.M."}
{"PERSONID": 1055, "PLACENAME": "New York, N.Y."}
{"PERSONID": 1057, "PLACENAME": "New York, N.Y."}
{"PERSONID": 1060, "PLACENAME": "New York, N.Y."}
{"PERSONID": 1061, "PLACENAME": "Calif."}
{"PERSONID": 1061, "PLACENAME": "N.Y."}
{"PERSONID": 1062, "PLACENAME": "New York, N.Y."}
{"PERSONID": 1069, "PLACENAME": "Md."}
{"PERSONID": 1070, "PLACENAME": "Paris, France"}
{"PERSONID": 1070, "PLACENAME": "Philadelphia, Pa."}
{"PERSONID": 1075, "PLACENAME": "Rochester, N.Y"}
{"PERSONID": 1076, "PLACENAME": "Baltimore, Md."}
{"PERSONID": 1076, "PLACENAME": "Washington, D.C."}
{"PERSONID": 1080, "PLACENAME": "Paris, France"}
{"PERSONID": 1081, "PLACENAME": "New York, N.Y."}
{"PERSONID": 1082, "PLACENAME": "New York, N.Y."}
{"PERSONID": 1087, "PLACENAME": "East Hampton, N.Y."}
{"PERSONID": 1089, "PLACENAME": "New Rochelle, N.Y."}
{"PERSONID": 1089, "PLACENAME": "Ridgefield, Conn."}
{"PERSONID": 1091, "PLACENAME": "New York, N.Y."}
{"PERSONID": 1096, "PLACENAME": "Barcelona, Spain"}
{"PERSONID": 1101, "PLACENAME": "Boston, Mass."}
{"PERSONID": 1101, "PLACENAME": "New York, N.Y."}
{"PERSONID": 1102, "PLACENAME": "Calif."}
{"PERSONID": 1102, "PLACENAME": "New York, N.Y."}
{"PERSONID": 1103, "PLACENAME": "New York, N.Y."}
{"PERSONID": 1105, "PLACENAME": "Me."}
{"PERSONID": 1105, "PLACENAME": "New York, N.Y."}
{"PERSONID": 1106, "PLACENAME": "New York, N.Y."}
{"PERSONID": 1107, "PLACENAME": "Los Angeles, Calif."}
{"PERSONID": 1107, "PLACENAME": "New York, N.Y."}
{"PERSONID": 1107, "PLACENAME": "San Diego, Calif."}
{"PERSONID": 1108, "PLACENAME": "Athens, Ga."}
{"PERSONID": 1110, "PLACENAME": "Los Angeles, Calif."}
{"PERSONID": 1111, "PLACENAME": "London, England"}
{"PERSONID": 1111, "PLACENAME": "Mass."}
{"PERSONID": 1111, "PLACENAME": "Paris, France"}
{"PERSONID": 1113, "PLACENAME": "Ariz."}
{"PERSONID": 1113, "PLACENAME": "Ill."}
{"PERSONID": 1113, "PLACENAME": "Wis."}
{"PERSONID": 1115, "PLACENAME": "Sarasota, Fla."}
{"PERSONID": 1122, "PLACENAME": "New York, N.Y."}
{"PERSONID": 1123, "PLACENAME": "Ellsworth, Me."}
{"PERSONID": 1123, "PLACENAME": "New York, N.Y."}
{"PERSONID": 1124, "PLACENAME": "Boston, Mass."}
{"PERSONID": 1124, "PLACENAME": "New York, N.Y."}
{"PERSONID": 1126, "PLACENAME": "New York, N.Y."}
{"PERSONID": 1129, "PLACENAME": "Gainesville, Fla."}
{"PERSONID": 1130, "PLACENAME": "Mass."}
{"PERSONID": 1131, "PLACENAME": "Woodstock, N.Y."}
{"PERSONID": 1131, "PLACENAME": "Worcester, Mass."}
{"PERSONID": 1132, "PLACENAME": "New York, N.Y."}
{"PERSONID": 1133, "PLACENAME": "Chadsford, Pa."}
{"PERSONID": 1133, "PLACENAME": "Port Clyde, Me."}
{"PERSONID": 1135, "PLACENAME": "Kansas City, Mo."}
{"PERSONID": 1136, "PLACENAME": "San Francisco, Calif."}
{"PERSONID": 1137, "PLACENAME": "San Francisco, Calif."}
{"PERSONID": 1138, "PLACENAME": "Oberlin, OH"}
{"PERSONID": 1139, "PLACENAME": "Washington, D.C."}
{"PERSONID": 1142, "PLACENAME": "Carmel, Calif."}
{"PERSONID": 1145, "PLACENAME": "Calif."}
{"PERSONID": 1145, "PLACENAME": "N.Y."}
{"PERSONID": 1148, "PLACENAME": "Claymount, Del."}
{"PERSONID": 1148, "PLACENAME": "New York, N.Y."}
{"PERSONID": 1154, "PLACENAME": "England"}
{"PERSONID": 1155, "PLACENAME": "New York, N.Y."}
{"PERSONID": 1156, "PLACENAME": "Galisteo, N.M."}
{"PERSONID": 1156, "PLACENAME": "New York, N.Y."}
{"PERSONID": 1157, "PLACENAME": "England"}
{"PERSONID": 1157, "PLACENAME": "Holland"}
{"PERSONID": 1157, "PLACENAME": "New York, N.Y."}
{"PERSONID": 1158, "PLACENAME": "New York, N.Y."}
{"PERSONID": 1159, "PLACENAME": "Boston, Mass."}
{"PERSONID": 1159, "PLACENAME": "New York, N.Y."}
{"PERSONID": 1163, "PLACENAME": "New York, N.Y."}
{"PERSONID": 1167, "PLACENAME": "New York, N.Y."}
{"PERSONID": 1168, "PLACENAME": "Mass."}
{"PERSONID": 1172, "PLACENAME": "Indianapolis, Ind."}
{"PERSONID": 1174, "PLACENAME": "New York, N.Y."}
{"PERSONID": 1175, "PLACENAME": "Bronxville, N.Y."}
{"PERSONID": 1178, "PLACENAME": "Wilmington, Del."}
{"PERSONID": 1182, "PLACENAME": "Washington, D.C."}
{"PERSONID": 1187, "PLACENAME": "New York, N.Y."}
{"PERSONID": 1190, "PLACENAME": "New York, N.Y."}
{"PERSONID": 1192, "PLACENAME": "N.J."}
{"PERSONID": 1192, "PLACENAME": "N.Y."}
{"PERSONID": 1196, "PLACENAME": "Chicago, Ill."}
{"PERSONID": 1196, "PLACENAME": "New York, N.Y."}
{"PERSONID": 1196, "PLACENAME": "Woodstock, Vt."}
{"PERSONID": 1200, "PLACENAME": "England"}
{"PERSONID": 1201, "PLACENAME": "Boston, Mass."}
{"PERSONID": 1202, "PLACENAME": "Baltimore, Md."}
{"PERSONID": 1202, "PLACENAME": "New York, N.Y."}
{"PERSONID": 1203, "PLACENAME": "New York, N.Y."}
{"PERSONID": 1204, "PLACENAME": "New York, N.Y."}
{"PERSONID": 1207, "PLACENAME": "New York, N.Y."}
{"PERSONID": 1208, "PLACENAME": "New York, N.Y."}
{"PERSONID": 1211, "PLACENAME": "Calif."}
{"PERSONID": 1211, "PLACENAME": "New York, N.Y."}
{"PERSONID": 1212, "PLACENAME": "Calif."}
{"PERSONID": 1213, "PLACENAME": "New York, N.Y."}
{"PERSONID": 1214, "PLACENAME": "San Francisco, Calif."}
{"PERSONID": 1219, "PLACENAME": "Kiev, Ukraine"}
{"PERSONID": 1219, "PLACENAME": "New York, N.Y."}
{"PERSONID": 1220, "PLACENAME": "Cornish, N.H."}
{"PERSONID": 1220, "PLACENAME": "Philadelphia, Pa."}
{"PERSONID": 1220, "PLACENAME": "Windsor, Vt."}
{"PERSONID": 1223, "PLACENAME": "New York, N.Y."}
{"PERSONID": 1230, "PLACENAME": "New York, N.Y."}
{"PERSONID": 1231, "PLACENAME": "New York, N.Y."}
{"PERSONID": 1232, "PLACENAME": "N.Y."}
{"PERSONID": 1236, "PLACENAME": "Egypt"}
{"PERSONID": 1236, "PLACENAME": "England"}
{"PERSONID": 1236, "PLACENAME": "France"}
{"PERSONID": 1236, "PLACENAME": "New York, N.Y."}
{"PERSONID": 1236, "PLACENAME": "Spain"}
{"PERSONID": 1237, "PLACENAME": "New York, N.Y."}
{"PERSONID": 1237, "PLACENAME": "Rome, Italy"}
{"PERSONID": 1238, "PLACENAME": "Glen Ellen, Calif."}
{"PERSONID": 1239, "PLACENAME": "New York, N.Y."}
{"PERSONID": 1240, "PLACENAME": "New York, N.Y."}
{"PERSONID": 1243, "PLACENAME": "Fla."}
{"PERSONID": 1243, "PLACENAME": "New York, N.Y."}
{"PERSONID": 1244, "PLACENAME": "New York, N.Y."}
{"PERSONID": 1248, "PLACENAME": "San Francisco, Calif."}
{"PERSONID": 1249, "PLACENAME": "New York, N.Y."}
{"PERSONID": 1250, "PLACENAME": "Chicago, Ill."}
{"PERSONID": 1251, "PLACENAME": "New York, N.Y."}
{"PERSONID": 1252, "PLACENAME": "Chicago, Ill."}
{"PERSONID": 1252, "PLACENAME": "England"}
{"PERSONID": 1252, "PLACENAME": "New York, N.Y."}
{"PERSONID": 1252, "PLACENAME": "Paris, France"}
{"PERSONID": 1252, "PLACENAME": "Seattle, Wash."}
{"PERSONID": 1252, "PLACENAME": "Switzerland"}
{"PERSONID": 1253, "PLACENAME": "Detroit, Mich."}
{"PERSONID": 1253, "PLACENAME": "New York, N.Y."}
{"PERSONID": 1254, "PLACENAME": "Charlottesville, Va."}
{"PERSONID": 1255, "PLACENAME": "New York, N.Y."}
{"PERSONID": 1255, "PLACENAME": "Strasbourg, France"}
{"PERSONID": 1256, "PLACENAME": "Buffalo, N.Y."}
{"PERSONID": 1256, "PLACENAME": "Cleveland, Ohio"}
{"PERSONID": 1256, "PLACENAME": "Salem, O.H."}
{"PERSONID": 1259, "PLACENAME": "Berkeley, Calif."}
{"PERSONID": 1259, "PLACENAME": "Germany"}
{"PERSONID": 1262, "PLACENAME": "Boston, Mass."}
{"PERSONID": 1263, "PLACENAME": "Lancaster, Pa."}
{"PERSONID": 1264, "PLACENAME": "Canaan, Conn."}
{"PERSONID": 1265, "PLACENAME": "New York, N.Y."}
{"PERSONID": 1266, "PLACENAME": "Calif."}
{"PERSONID": 1266, "PLACENAME": "Great Falls, Mont."}
{"PERSONID": 1267, "PLACENAME": "Tenants Harbor, Me."}
{"PERSONID": 1269, "PLACENAME": "New York, N.Y."}
{"PERSONID": 1270, "PLACENAME": "Paris, France"}
{"PERSONID": 1272, "PLACENAME": "New York, N.Y."}
{"PERSONID": 1273, "PLACENAME": "New York, N.Y."}
{"PERSONID": 1276, "PLACENAME": "N.Y."}
{"PERSONID": 1279, "PLACENAME": "New York, N.Y."}
{"PERSONID": 1280, "PLACENAME": "Montreal, Canada"}
{"PERSONID": 1280, "PLACENAME": "Toronto, Canada"}
{"PERSONID": 1281, "PLACENAME": "New York, N.Y."}
{"PERSONID": 1281, "PLACENAME": "Williamsburg, Va."}
{"PERSONID": 1282, "PLACENAME": "Sharon, Conn."}
{"PERSONID": 1284, "PLACENAME": "Boston, Mass."}
{"PERSONID": 1284, "PLACENAME": "Newport, R.I."}
{"PERSONID": 1286, "PLACENAME": "New York, N.Y."}
{"PERSONID": 1288, "PLACENAME": "Los Angeles, Calif."}
{"PERSONID": 1288, "PLACENAME": "New York, N.Y."}
{"PERSONID": 1291, "PLACENAME": "Pa."}
{"PERSONID": 1292, "PLACENAME": "Long Island City, N.Y."}
{"PERSONID": 1293, "PLACENAME": "New York, N.Y."}
{"PERSONID": 1294, "PLACENAME": "Boston, Mass."}
{"PERSONID": 1296, "PLACENAME": "New York, N.Y."}
{"PERSONID": 1298, "PLACENAME": "New York, N.Y."}
{"PERSONID": 1298, "PLACENAME": "Washington, D.C."}
{"PERSONID": 1299, "PLACENAME": "Los Angeles, Calif."}
{"PERSONID": 1301, "PLACENAME": "Minn."}
{"PERSONID": 1302, "PLACENAME": "Kiev, Ukraine"}
{"PERSONID": 1302, "PLACENAME": "New York, N.Y."}
{"PERSONID": 1302, "PLACENAME": "Paris, France"}
{"PERSONID": 1304, "PLACENAME": "N.Y."}
{"PERSONID": 1306, "PLACENAME": "France"}
{"PERSONID": 1306, "PLACENAME": "New York, N.Y."}
{"PERSONID": 1307, "PLACENAME": "Amagansett, N.Y."}
{"PERSONID": 1308, "PLACENAME": "New York, N.Y."}
{"PERSONID": 1309, "PLACENAME": "Santa Monica, Calif."}
{"PERSONID": 1311, "PLACENAME": "Philadelphia, Pa."}
{"PERSONID": 1312, "PLACENAME": "Hancock, Mich."}
{"PERSONID": 1312, "PLACENAME": "New York, N.Y."}
{"PERSONID": 1320, "PLACENAME": "Mich."}
{"PERSONID": 1320, "PLACENAME": "Minneapolis, Minn."}
{"PERSONID": 1320, "PLACENAME": "New York, N.Y."}
{"PERSONID": 1325, "PLACENAME": "New York, N.Y."}
{"PERSONID": 1326, "PLACENAME": "New York, N.Y."}
{"PERSONID": 1327, "PLACENAME": "New York, N.Y."}
{"PERSONID": 1328, "PLACENAME": "New York, N.Y."}
{"PERSONID": 1329, "PLACENAME": "Santa Barbara, Calif."}
{"PERSONID": 1331, "PLACENAME": "N.J."}
{"PERSONID": 1332, "PLACENAME": "New York, N.Y."}
{"PERSONID": 1335, "PLACENAME": "Torrance, California"}
{"PERSONID": 1342, "PLACENAME": "Gloucester, Mass."}
{"PERSONID": 1342, "PLACENAME": "New York, N.Y."}
{"PERSONID": 1343, "PLACENAME": "Philadelphia, Pa."}
{"PERSONID": 1345, "PLACENAME": "Madison, Wis."}
{"PERSONID": 1351, "PLACENAME": "Black Mountain, N.C."}
{"PERSONID": 1351, "PLACENAME": "Orange, Conn."}
{"PERSONID": 1352, "PLACENAME": "New York, N.Y."}
{"PERSONID": 1352, "PLACENAME": "Pecs, Hungary"}
{"PERSONID": 1353, "PLACENAME": "Newark, De."}
{"PERSONID": 1355, "PLACENAME": "Croton-on-Hudson, N.Y."}
{"PERSONID": 1355, "PLACENAME": "New Brunswick, N.J."}
{"PERSONID": 1358, "PLACENAME": "New York, N.Y."}
{"PERSONID": 1361, "PLACENAME": "New York, N.Y."}
{"PERSONID": 1362, "PLACENAME": "New York, N.Y."}
{"PERSONID": 1363, "PLACENAME": "San Francisco, Calif."}
{"PERSONID": 1364, "PLACENAME": "N.Y."}
{"PERSONID": 1365, "PLACENAME": "Cambridge, Mass."}
{"PERSONID": 1365, "PLACENAME": "Munich, Germany"}
{"PERSONID": 1368, "PLACENAME": "Houston, Tex."}
{"PERSONID": 1369, "PLACENAME": "N.Y."}
{"PERSONID": 1372, "PLACENAME": "New York, N.Y."}
{"PERSONID": 1379, "PLACENAME": "New York, N.Y."}
{"PERSONID": 1379, "PLACENAME": "Wellfleet, Mass."}
{"PERSONID": 1380, "PLACENAME": "New York, N.Y."}
{"PERSONID": 1387, "PLACENAME": "Philadelphia, Pa."}
{"PERSONID": 1390, "PLACENAME": "Stamford, Conn."}
{"PERSONID": 1392, "PLACENAME": "Calif."}
{"PERSONID": 1393, "PLACENAME": "Los Angeles, Calif."}
{"PERSONID": 1395, "PLACENAME": "Boston, Mass."}
{"PERSONID": 1395, "PLACENAME": "Dorchester, Mass."}
{"PERSONID": 1397, "PLACENAME": "Salem, Mass."}
{"PERSONID": 1399, "PLACENAME": "New York, N.Y."}
{"PERSONID": 1405, "PLACENAME": "New York, N.Y."}
{"PERSONID": 1410, "PLACENAME": "France"}
{"PERSONID": 1410, "PLACENAME": "Mass."}
{"PERSONID": 1414, "PLACENAME": "New York, N.Y."}
{"PERSONID": 1415, "PLACENAME": "Charlottesville, Va."}
{"PERSONID": 1415, "PLACENAME": "Europe"}
{"PERSONID": 1418, "PLACENAME": "New York, N.Y."}
{"PERSONID": 1422, "PLACENAME": "Bloomfield Hills, Mich."}
{"PERSONID": 1423, "PLACENAME": "Calif."}
{"PERSONID": 1424, "PLACENAME": "Los Angeles, Calif."}
{"PERSONID": 1425, "PLACENAME": "New York, N.Y."}
{"PERSONID": 1428, "PLACENAME": "Cambridge, Mass."}
{"PERSONID": 1428, "PLACENAME": "Undine, Italy"}
{"PERSONID": 1433, "PLACENAME": "New York, N.Y."}
{"PERSONID": 1434, "PLACENAME": "New York, N.Y."}
{"PERSONID": 1435, "PLACENAME": "Conn."}
{"PERSONID": 1436, "PLACENAME": "New York, N.Y."}
{"PERSONID": 1438, "PLACENAME": "Benicia, Calif."}
{"PERSONID": 1445, "PLACENAME": "Southampton, N.Y."}
{"PERSONID": 1447, "PLACENAME": "New York, N.Y."}
{"PERSONID": 1448, "PLACENAME": "New York, N.Y."}
{"PERSONID": 1453, "PLACENAME": "Chicago, Ill."}
{"PERSONID": 1453, "PLACENAME": "Orl\u00e9ans, France"}
{"PERSONID": 1453, "PLACENAME": "Paris, France"}
{"PERSONID": 1457, "PLACENAME": "New York, N.Y."}
{"PERSONID": 1459, "PLACENAME": "New York, N.Y."}
{"PERSONID": 1460, "PLACENAME": "Geneva, N.Y."}
{"PERSONID": 1461, "PLACENAME": "Cleveland, Ohio"}
{"PERSONID": 1461, "PLACENAME": "New York, N.Y."}
{"PERSONID": 1463, "PLACENAME": "Hawaii"}
{"PERSONID": 1463, "PLACENAME": "Venice, Calif."}
{"PERSONID": 1465, "PLACENAME": "New York, N.Y."}
{"PERSONID": 1467, "PLACENAME": "Syracuse, N.Y."}
{"PERSONID": 1470, "PLACENAME": "New York, N.Y."}
{"PERSONID": 1472, "PLACENAME": "Mass."}
{"PERSONID": 1472, "PLACENAME": "N.Y."}
{"PERSONID": 1473, "PLACENAME": "Calif."}
{"PERSONID": 1478, "PLACENAME": "San Francisco, Calif."}
{"PERSONID": 1480, "PLACENAME": "New York, N.Y."}
{"PERSONID": 1480, "PLACENAME": "Southbury, Conn."}
{"PERSONID": 1485, "PLACENAME": "Chicago, Ill."}
{"PERSONID": 1486, "PLACENAME": "New York, N.Y."}
{"PERSONID": 1488, "PLACENAME": "New York, N.Y."}
{"PERSONID": 1488, "PLACENAME": "Princeton, N.J."}
{"PERSONID": 1490, "PLACENAME": "Calif."}
{"PERSONID": 1490, "PLACENAME": "N.J."}
{"PERSONID": 1492, "PLACENAME": "Calif."}
{"PERSONID": 1494, "PLACENAME": "Taos, N.M."}
{"PERSONID": 1496, "PLACENAME": "Santa Barbara, Calif."}
{"PERSONID": 1497, "PLACENAME": "New York, N.Y."}
{"PERSONID": 1499, "PLACENAME": "New York, N.Y."}
{"PERSONID": 1500, "PLACENAME": "Austin, Tex."}
{"PERSONID": 1502, "PLACENAME": "Inverness, Calif."}
{"PERSONID": 1503, "PLACENAME": "New York, N.Y."}
{"PERSONID": 1505, "PLACENAME": "New York, N.Y."}
{"PERSONID": 1506, "PLACENAME": "New York, N.Y."}
{"PERSONID": 1508, "PLACENAME": "Santa Fe, N.M."}
{"PERSONID": 1509, "PLACENAME": "Columbus, Ga."}
{"PERSONID": 1509, "PLACENAME": "Washington, D.C."}
{"PERSONID": 1510, "PLACENAME": "New York, N.Y."}
{"PERSONID": 1512, "PLACENAME": "Mich."}
{"PERSONID": 1513, "PLACENAME": "Chicago, Ill."}
{"PERSONID": 1520, "PLACENAME": "New York, N.Y."}
{"PERSONID": 1522, "PLACENAME": "Madison, Wis."}
{"PERSONID": 1522, "PLACENAME": "Philadelphia, Pa."}
{"PERSONID": 1522, "PLACENAME": "Washington, D.C."}
{"PERSONID": 1523, "PLACENAME": "New York, N.Y."}
{"PERSONID": 1524, "PLACENAME": "New York, N.Y."}
{"PERSONID": 1525, "PLACENAME": "New York, N.Y."}
{"PERSONID": 1528, "PLACENAME": "Taos, N.M."}
{"PERSONID": 1531, "PLACENAME": "New York, N.Y."}
{"PERSONID": 1532, "PLACENAME": "New York, N.Y."}
{"PERSONID": 1536, "PLACENAME": "New York, N.Y."}
{"PERSONID": 1537, "PLACENAME": "New York, N.Y."}
{"PERSONID": 1538, "PLACENAME": "Ithaca, N.Y."}
{"PERSONID": 1540, "PLACENAME": "Ky."}
{"PERSONID": 1541, "PLACENAME": "New York, N.Y."}
{"PERSONID": 1542, "PLACENAME": "Washington, D.C."}
{"PERSONID": 1543, "PLACENAME": "San Francisco, Calif."}
{"PERSONID": 1545, "PLACENAME": "Clinton, N.Y."}
{"PERSONID": 1549, "PLACENAME": "New York, N.Y."}
{"PERSONID": 1550, "PLACENAME": "Ala."}
{"PERSONID": 1550, "PLACENAME": "New York, N.Y."}
{"PERSONID": 1552, "PLACENAME": "Newton Centre, Mass."}
{"PERSONID": 1553, "PLACENAME": "New York, N.Y."}
{"PERSONID": 1553, "PLACENAME": "San Francisco, Calif."}
{"PERSONID": 1555, "PLACENAME": "Mass."}
{"PERSONID": 1555, "PLACENAME": "New York, N.Y."}
{"PERSONID": 1558, "PLACENAME": "Washington, D.C."}
{"PERSONID": 1562, "PLACENAME": "Los Angeles, Calif."}
{"PERSONID": 1565, "PLACENAME": "Liverpool, England"}
{"PERSONID": 1565, "PLACENAME": "Venice, Calif."}
{"PERSONID": 1566, "PLACENAME": "Albany, N.Y."}
{"PERSONID": 1571, "PLACENAME": "Arkville, N.Y."}
{"PERSONID": 1571, "PLACENAME": "New York, N.Y."}
{"PERSONID": 1576, "PLACENAME": "Brooklyn, N.Y."}
{"PERSONID": 1576, "PLACENAME": "Chicago, Ill."}
{"PERSONID": 1580, "PLACENAME": "New York, N.Y."}
{"PERSONID": 1581, "PLACENAME": "Germany"}
{"PERSONID": 1581, "PLACENAME": "Philadelphia, Pa."}
{"PERSONID": 1583, "PLACENAME": "New York, N.Y."}
{"PERSONID": 1586, "PLACENAME": "New York, N.Y."}
{"PERSONID": 1586, "PLACENAME": "Staten Island, N.Y."}
{"PERSONID": 1588, "PLACENAME": "N.Y."}
{"PERSONID": 1589, "PLACENAME": "Pa."}
{"PERSONID": 1592, "PLACENAME": "Washington, D.C."}
{"PERSONID": 1593, "PLACENAME": "New York, N.Y."}
{"PERSONID": 1594, "PLACENAME": "Fair Haven, Conn."}
{"PERSONID": 1598, "PLACENAME": "Rochester, N.Y"}
{"PERSONID": 1599, "PLACENAME": "Conn."}
{"PERSONID": 1603, "PLACENAME": "New York, N.Y."}
{"PERSONID": 1604, "PLACENAME": "New York, N.Y."}
{"PERSONID": 1607, "PLACENAME": "Andover, Mass."}
{"PERSONID": 1607, "PLACENAME": "Rome, Italy"}
{"PERSONID": 1609, "PLACENAME": "Colo."}
{"PERSONID": 1609, "PLACENAME": "N.Y."}
{"PERSONID": 1611, "PLACENAME": "New York, N.Y."}
{"PERSONID": 1612, "PLACENAME": "New York, N.Y."}
{"PERSONID": 1612, "PLACENAME": "Rockport, Mass."}
{"PERSONID": 1614, "PLACENAME": "Milan, Italy"}
{"PERSONID": 1617, "PLACENAME": "Los Angeles, Calif."}
{"PERSONID": 1618, "PLACENAME": "Calif."}
{"PERSONID": 1618, "PLACENAME": "New York, N.Y."}
{"PERSONID": 1619, "PLACENAME": "New York, N.Y."}
{"PERSONID": 1621, "PLACENAME": "Conn."}
{"PERSONID": 1625, "PLACENAME": "Mt. Kisco, N.Y."}
{"PERSONID": 1625, "PLACENAME": "Philadelphia, Pa."}
{"PERSONID": 1626, "PLACENAME": "New York, N.Y."}
{"PERSONID": 1627, "PLACENAME": "Little Compton, R.I."}
{"PERSONID": 1627, "PLACENAME": "New York, N.Y."}
{"PERSONID": 1628, "PLACENAME": "New York, N.Y."}
{"PERSONID": 1630, "PLACENAME": "New York, N.Y."}
{"PERSONID": 1631, "PLACENAME": "New Canaan, Conn."}
{"PERSONID": 1631, "PLACENAME": "New York, N.Y."}
{"PERSONID": 1633, "PLACENAME": "Cleveland, Ohio"}
{"PERSONID": 1637, "PLACENAME": "Calif."}
{"PERSONID": 1638, "PLACENAME": "Mass."}
{"PERSONID": 1640, "PLACENAME": "Washingtonville, N.Y."}
{"PERSONID": 1642, "PLACENAME": "Calif."}
{"PERSONID": 1642, "PLACENAME": "New Hope, Pa."}
{"PERSONID": 1644, "PLACENAME": "New York, N.Y."}
{"PERSONID": 1644, "PLACENAME": "Woodstock, N.Y."}
{"PERSONID": 1645, "PLACENAME": "New York, N.Y."}
{"PERSONID": 1646, "PLACENAME": "New York, N.Y."}
{"PERSONID": 1648, "PLACENAME": "New York, N.Y."}
{"PERSONID": 1653, "PLACENAME": "New York, N.Y."}
{"PERSONID": 1656, "PLACENAME": "Calif."}
{"PERSONID": 1656, "PLACENAME": "N.M."}
{"PERSONID": 1658, "PLACENAME": "Weston, Conn."}
{"PERSONID": 1659, "PLACENAME": "Chicago, Ill."}
{"PERSONID": 1661, "PLACENAME": "New York, N.Y."}
{"PERSONID": 1665, "PLACENAME": "Sarasota, Fla."}
{"PERSONID": 1666, "PLACENAME": "Detroit, Mich."}
{"PERSONID": 1667, "PLACENAME": "France"}
{"PERSONID": 1667, "PLACENAME": "New York, N.Y."}
{"PERSONID": 1670, "PLACENAME": "Wash."}
{"PERSONID": 1673, "PLACENAME": "New York, N.Y."}
{"PERSONID": 1676, "PLACENAME": "Madison, Wis."}
{"PERSONID": 1677, "PLACENAME": "Evansville, WI"}
{"PERSONID": 1681, "PLACENAME": "Chicago, Ill."}
{"PERSONID": 1681, "PLACENAME": "New York, N.Y."}
{"PERSONID": 1682, "PLACENAME": "New York, N.Y."}
{"PERSONID": 1683, "PLACENAME": "New York, N.Y."}
{"PERSONID": 1685, "PLACENAME": "New York, N.Y."}
{"PERSONID": 1686, "PLACENAME": "France"}
{"PERSONID": 1688, "PLACENAME": "Provincetown, Mass."}
{"PERSONID": 1692, "PLACENAME": "New York, N.Y."}
{"PERSONID": 1692, "PLACENAME": "Seattle, Wash."}
{"PERSONID": 1694, "PLACENAME": "N.Y."}
{"PERSONID": 1695, "PLACENAME": "Cornish, N.H."}
{"PERSONID": 1696, "PLACENAME": "New York, N.Y."}
{"PERSONID": 1697, "PLACENAME": "New York, N.Y."}
{"PERSONID": 1699, "PLACENAME": "New York, N.Y."}
{"PERSONID": 1700, "PLACENAME": "Boston, Mass."}
{"PERSONID": 1701, "PLACENAME": "Cleveland, Ohio"}
{"PERSONID": 1701, "PLACENAME": "New York, N.Y."}
{"PERSONID": 1704, "PLACENAME": "Provincetown, Mass."}
{"PERSONID": 1706, "PLACENAME": "New York, N.Y."}
{"PERSONID": 1709, "PLACENAME": "San Francisco, Calif."}
{"PERSONID": 1710, "PLACENAME": "Boston, Mass."}
{"PERSONID": 1716, "PLACENAME": "Stamford, Conn."}
{"PERSONID": 1717, "PLACENAME": "New York, N.Y."}
{"PERSONID": 1721, "PLACENAME": "Superior, Wis."}
{"PERSONID": 1723, "PLACENAME": "N.Y."}
{"PERSONID": 1725, "PLACENAME": "New York, N.Y."}
{"PERSONID": 1728, "PLACENAME": "New York, N.Y."}
{"PERSONID": 1729, "PLACENAME": "Calif."}
{"PERSONID": 1729, "PLACENAME": "R.I."}
{"PERSONID": 1729, "PLACENAME": "Rome, Italy"}
{"PERSONID": 1730, "PLACENAME": "Falmouth, Va."}
{"PERSONID": 1730, "PLACENAME": "Paris, France"}
{"PERSONID": 1731, "PLACENAME": "Philadelphia, Pa."}
{"PERSONID": 1732, "PLACENAME": "New York, N.Y."}
{"PERSONID": 1734, "PLACENAME": "Philadelphia, Pa."}
{"PERSONID": 1735, "PLACENAME": "New York, N.Y."}
{"PERSONID": 1739, "PLACENAME": "Pa."}
{"PERSONID": 1740, "PLACENAME": "San Francisco, Calif."}
{"PERSONID": 1741, "PLACENAME": "Ipswich, Mass."}
{"PERSONID": 1741, "PLACENAME": "New York, N.Y."}
{"PERSONID": 1743, "PLACENAME": "Woodstock, N.Y."}
{"PERSONID": 1744, "PLACENAME": "New York, N.Y."}
{"PERSONID": 1745, "PLACENAME": "New York, N.Y."}
{"PERSONID": 1750, "PLACENAME": "Boston, Mass."}
{"PERSONID": 1754, "PLACENAME": "New York, N.Y."}
{"PERSONID": 1755, "PLACENAME": "San Francisco, Calif."}
{"PERSONID": 1757, "PLACENAME": "New York, N.Y."}
{"PERSONID": 1757, "PLACENAME": "Washington, D.C."}
{"PERSONID": 1758, "PLACENAME": "Boston, Mass."}
{"PERSONID": 1760, "PLACENAME": "Detroit, Mich."}
{"PERSONID": 1762, "PLACENAME": "Calif."}
{"PERSONID": 1762, "PLACENAME": "Wyo."}
{"PERSONID": 1764, "PLACENAME": "Washington, D.C."}
{"PERSONID": 1765, "PLACENAME": "New York, N.Y."}
{"PERSONID": 1767, "PLACENAME": "New York, N.Y."}
{"PERSONID": 1771, "PLACENAME": "Tex."}
{"PERSONID": 1776, "PLACENAME": "New Bedford, Mass."}
{"PERSONID": 1777, "PLACENAME": "Ariz."}
{"PERSONID": 1777, "PLACENAME": "N.M."}
{"PERSONID": 1779, "PLACENAME": "France"}
{"PERSONID": 1779, "PLACENAME": "New York, N.Y."}
{"PERSONID": 1781, "PLACENAME": "New York, N.Y."}
{"PERSONID": 1781, "PLACENAME": "Washington, D.C."}
{"PERSONID": 1782, "PLACENAME": "Coral Gables, Fla."}
{"PERSONID": 1782, "PLACENAME": "Vt."}
{"PERSONID": 1784, "PLACENAME": "Fla."}
{"PERSONID": 1785, "PLACENAME": "New York, N.Y."}
{"PERSONID": 1788, "PLACENAME": "Dubois, Wyo."}
{"PERSONID": 1788, "PLACENAME": "New York, N.Y."}
{"PERSONID": 1789, "PLACENAME": "New York, N.Y."}
{"PERSONID": 1789, "PLACENAME": "Rhinebeck, N.Y."}
{"PERSONID": 1790, "PLACENAME": "Ohio"}
{"PERSONID": 1793, "PLACENAME": "Provincetown, Mass."}
{"PERSONID": 1797, "PLACENAME": "N.Y."}
{"PERSONID": 1798, "PLACENAME": "New York, N.Y."}
{"PERSONID": 1800, "PLACENAME": "New York, N.Y."}
{"PERSONID": 1800, "PLACENAME": "Stonington, Conn."}
{"PERSONID": 1801, "PLACENAME": "Philadelphia, Pa."}
{"PERSONID": 1804, "PLACENAME": "Calif."}
{"PERSONID": 1804, "PLACENAME": "New York, N.Y."}
{"PERSONID": 1805, "PLACENAME": "New York, N.Y."}
{"PERSONID": 1809, "PLACENAME": "Philadelphia, Pa."}
{"PERSONID": 1810, "PLACENAME": "New York, N.Y."}
{"PERSONID": 1810, "PLACENAME": "Provincetown, Mass."}
{"PERSONID": 1811, "PLACENAME": "New York, N.Y."}
{"PERSONID": 1813, "PLACENAME": "Pa."}
{"PERSONID": 1817, "PLACENAME": "Chicago, Ill."}
{"PERSONID": 1817, "PLACENAME": "Neb."}
{"PERSONID": 1818, "PLACENAME": "Philadelphia, Pa."}
{"PERSONID": 1819, "PLACENAME": "New York, N.Y."}
{"PERSONID": 1822, "PLACENAME": "New York, N.Y."}
{"PERSONID": 1822, "PLACENAME": "Sarasota, Fla."}
{"PERSONID": 1829, "PLACENAME": "New York, N.Y."}
{"PERSONID": 1829, "PLACENAME": "Vt."}
{"PERSONID": 1830, "PLACENAME": "New York, N.Y."}
{"PERSONID": 1830, "PLACENAME": "Union City, N.J."}
{"PERSONID": 1832, "PLACENAME": "Calif."}
{"PERSONID": 1834, "PLACENAME": "Mass."}
{"PERSONID": 1837, "PLACENAME": "Calif."}
{"PERSONID": 1837, "PLACENAME": "N.H."}
{"PERSONID": 1841, "PLACENAME": "Los Angeles, Calif."}
{"PERSONID": 1847, "PLACENAME": "Doylestown, Pa."}
{"PERSONID": 1848, "PLACENAME": "New York, N.Y."}
{"PERSONID": 1849, "PLACENAME": "Cuernavaca, Mexico"}
{"PERSONID": 1851, "PLACENAME": "Los Angeles, Calif."}
{"PERSONID": 1854, "PLACENAME": "New York, N.Y."}
{"PERSONID": 1857, "PLACENAME": "New York, N.Y."}
{"PERSONID": 1859, "PLACENAME": "New York, N.Y."}
{"PERSONID": 1860, "PLACENAME": "New York, N.Y."}
{"PERSONID": 1861, "PLACENAME": "New York, N.Y."}
{"PERSONID": 1864, "PLACENAME": "Conn."}
{"PERSONID": 1864, "PLACENAME": "N.Y."}
{"PERSONID": 1865, "PLACENAME": "Philadelphia, Pa."}
{"PERSONID": 1867, "PLACENAME": "New York, N.Y."}
{"PERSONID": 1868, "PLACENAME": "Mass."}
{"PERSONID": 1872, "PLACENAME": "New York, N.Y."}
{"PERSONID": 1875, "PLACENAME": "Ga."}
{"PERSONID": 1875, "PLACENAME": "N.Y."}
{"PERSONID": 1876, "PLACENAME": "Santa Monica, Calif."}
{"PERSONID": 1877, "PLACENAME": "New York, N.Y."}
{"PERSONID": 1878, "PLACENAME": "New York, N.Y."}
{"PERSONID": 1879, "PLACENAME": "New York, N.Y."}
{"PERSONID": 1880, "PLACENAME": "San Francisco, Calif."}
{"PERSONID": 1883, "PLACENAME": "New York, N.Y."}
{"PERSONID": 1886, "PLACENAME": "New York, N.Y."}
{"PERSONID": 1892, "PLACENAME": "New York, N.Y."}
{"PERSONID": 1895, "PLACENAME": "New York, N.Y."}
{"PERSONID": 1896, "PLACENAME": "Europe"}
{"PERSONID": 1899, "PLACENAME": "New York, N.Y."}
{"PERSONID": 1899, "PLACENAME": "Paris, France"}
{"PERSONID": 1900, "PLACENAME": "New York, N.Y."}
{"PERSONID": 1901, "PLACENAME": "Philadelphia, Pa."}
{"PERSONID": 1903, "PLACENAME": "New York, N.Y."}
{"PERSONID": 1904, "PLACENAME": "Philadelphia, Pa."}
{"PERSONID": 1906, "PLACENAME": "New York, N.Y."}
{"PERSONID": 1909, "PLACENAME": "New York, N.Y."}
{"PERSONID": 1909, "PLACENAME": "San Francisco, Calif."}
{"PERSONID": 1910, "PLACENAME": "New York, N.Y."}
{"PERSONID": 1911, "PLACENAME": "New York, N.Y."}
{"PERSONID": 1912, "PLACENAME": "Arlington, Vermont"}
{"PERSONID": 1912, "PLACENAME": "Columbus, Ohio"}
{"PERSONID": 1912, "PLACENAME": "Coral Gables, Fla."}
{"PERSONID": 1914, "PLACENAME": "Okla."}
{"PERSONID": 1915, "PLACENAME": "New Haven, Conn."}
{"PERSONID": 1916, "PLACENAME": "Mass."}
{"PERSONID": 1916, "PLACENAME": "Washington, D.C."}
{"PERSONID": 1917, "PLACENAME": "New York, N.Y."}
{"PERSONID": 1919, "PLACENAME": "New York, N.Y."}
{"PERSONID": 1921, "PLACENAME": "Atlanta, Ga."}
{"PERSONID": 1921, "PLACENAME": "New York, N.Y."}
{"PERSONID": 1922, "PLACENAME": "San Francisco, Calif."}
{"PERSONID": 1924, "PLACENAME": "New York, N.Y."}
{"PERSONID": 1925, "PLACENAME": "Washington, D.C."}
{"PERSONID": 1927, "PLACENAME": "Washington, D.C."}
{"PERSONID": 1928, "PLACENAME": "New York, N.Y."}
{"PERSONID": 1928, "PLACENAME": "Provincetown, Mass."}
{"PERSONID": 1929, "PLACENAME": "New York, N.Y."}
{"PERSONID": 1931, "PLACENAME": "New York, N.Y."}
{"PERSONID": 1932, "PLACENAME": "Mass."}
{"PERSONID": 1936, "PLACENAME": "Calif."}
{"PERSONID": 1937, "PLACENAME": "New York, N.Y."}
{"PERSONID": 1937, "PLACENAME": "Paris, France"}
{"PERSONID": 1938, "PLACENAME": "New York, N.Y."}
{"PERSONID": 1940, "PLACENAME": "Minneapolis, Minn."}
{"PERSONID": 1940, "PLACENAME": "New York, N.Y."}
{"PERSONID": 1940, "PLACENAME": "Provincetown, Mass."}
{"PERSONID": 1946, "PLACENAME": "New York, N.Y."}
{"PERSONID": 1946, "PLACENAME": "Paris, France"}
{"PERSONID": 1946, "PLACENAME": "Vienna, Austria"}
{"PERSONID": 1947, "PLACENAME": "East Hampton, N.Y."}
{"PERSONID": 1948, "PLACENAME": "Berkeley, Calif."}
{"PERSONID": 1948, "PLACENAME": "Minneapolis, Minn."}
{"PERSONID": 1950, "PLACENAME": "Taos, N.M."}
{"PERSONID": 1951, "PLACENAME": "Albany, N.Y."}
{"PERSONID": 1952, "PLACENAME": "New York, N.Y."}
{"PERSONID": 1953, "PLACENAME": "France"}
{"PERSONID": 1953, "PLACENAME": "New York, N.Y."}
{"PERSONID": 1954, "PLACENAME": "Chicago, Ill."}
{"PERSONID": 1954, "PLACENAME": "Ludington, Mich."}
{"PERSONID": 1954, "PLACENAME": "Milwaukee, Wis."}
{"PERSONID": 1956, "PLACENAME": "Chicago, Ill."}
{"PERSONID": 1957, "PLACENAME": "New York, N.Y."}
{"PERSONID": 1958, "PLACENAME": "Venice, Calif."}
{"PERSONID": 1961, "PLACENAME": "Ill."}
{"PERSONID": 1961, "PLACENAME": "New York, N.Y."}
{"PERSONID": 1962, "PLACENAME": "Cambridge, Mass."}
{"PERSONID": 1962, "PLACENAME": "Cornish, N.H."}
{"PERSONID": 1962, "PLACENAME": "Lyme, Conn."}
{"PERSONID": 1962, "PLACENAME": "New York, N.Y."}
{"PERSONID": 1964, "PLACENAME": "Bavaria, Germany"}
{"PERSONID": 1964, "PLACENAME": "Munich, Ind"}
{"PERSONID": 1965, "PLACENAME": "New York, N.Y."}
{"PERSONID": 1966, "PLACENAME": "San Francisco, Calif."}
{"PERSONID": 1969, "PLACENAME": "New York, N.Y."}
{"PERSONID": 1971, "PLACENAME": "Cedar Rapids, Ia."}
{"PERSONID": 1973, "PLACENAME": "Pa."}
{"PERSONID": 1977, "PLACENAME": "London, England"}
{"PERSONID": 1978, "PLACENAME": "Pa."}
{"PERSONID": 1979, "PLACENAME": "Boston, Mass."}
{"PERSONID": 1980, "PLACENAME": "New York, N.Y."}
{"PERSONID": 1981, "PLACENAME": "New York, N.Y."}
{"PERSONID": 1982, "PLACENAME": "N.J."}
{"PERSONID": 1988, "PLACENAME": "Watertown, Mass."}
{"PERSONID": 1992, "PLACENAME": "Cincinnati, Ohio"}
{"PERSONID": 1993, "PLACENAME": "New York, N.Y."}
{"PERSONID": 1997, "PLACENAME": "Philadelphia, Pa."}
{"PERSONID": 1998, "PLACENAME": "New York, N.Y."}
{"PERSONID": 2002, "PLACENAME": "New York, N.Y."}
{"PERSONID": 2003, "PLACENAME": "New York, N.Y."}
{"PERSONID": 2004, "PLACENAME": "Tx."}
{"PERSONID": 2005, "PLACENAME": "New York, N.Y."}
{"PERSONID": 2006, "PLACENAME": "Washington, D.C."}
{"PERSONID": 2008, "PLACENAME": "Bellefonte, Pa."}
{"PERSONID": 2008, "PLACENAME": "New York, N.Y."}
{"PERSONID": 2009, "PLACENAME": "Dublin, N.H."}
{"PERSONID": 2009, "PLACENAME": "New York, N.Y."}
{"PERSONID": 2010, "PLACENAME": "Boston, Mass."}
{"PERSONID": 2010, "PLACENAME": "New York, N.Y."}
{"PERSONID": 2012, "PLACENAME": "New York, N.Y."}
{"PERSONID": 2014, "PLACENAME": "Philadelphia, Pa."}
{"PERSONID": 2015, "PLACENAME": "New York, N.Y."}
{"PERSONID": 2015, "PLACENAME": "Washington, D.C."}
{"PERSONID": 2020, "PLACENAME": "Brooklyn, N.Y."}
{"PERSONID": 2021, "PLACENAME": "Palo Alto, Calif."}
{"PERSONID": 2022, "PLACENAME": "Chicago, Ill."}
{"PERSONID": 2024, "PLACENAME": "Los Angeles, Calif."}
{"PERSONID": 2027, "PLACENAME": "Houston, Tex."}
{"PERSONID": 2028, "PLACENAME": "N.Y."}
{"PERSONID": 2029, "PLACENAME": "New York, N.Y."}
{"PERSONID": 2031, "PLACENAME": "Philadelphia, Pa."}
{"PERSONID": 2033, "PLACENAME": "New York, N.Y."}
{"PERSONID": 2035, "PLACENAME": "Washington, D.C."}
{"PERSONID": 2039, "PLACENAME": "New York, N.Y."}
{"PERSONID": 2040, "PLACENAME": "Troy, Mich."}
{"PERSONID": 2043, "PLACENAME": "New York, N.Y."}
{"PERSONID": 2044, "PLACENAME": "Boston, Mass."}
{"PERSONID": 2045, "PLACENAME": "Newport, Ky."}
{"PERSONID": 2045, "PLACENAME": "Philadelphia, Pa."}
{"PERSONID": 2046, "PLACENAME": "New York, N.Y."}
{"PERSONID": 2048, "PLACENAME": "New York, N.Y."}
{"PERSONID": 2057, "PLACENAME": "New York, N.Y."}
{"PERSONID": 2062, "PLACENAME": "New York, N.Y."}
{"PERSONID": 2062, "PLACENAME": "Paris, France"}
{"PERSONID": 2066, "PLACENAME": "Mass."}
{"PERSONID": 2069, "PLACENAME": "Searsport, Me."}
{"PERSONID": 2078, "PLACENAME": "Seattle, Wash."}
{"PERSONID": 2080, "PLACENAME": "Los Angeles, Calif."}
{"PERSONID": 2081, "PLACENAME": "Pa."}
{"PERSONID": 2083, "PLACENAME": "New York, N.Y."}
{"PERSONID": 2083, "PLACENAME": "Utica, N.Y."}
{"PERSONID": 2090, "PLACENAME": "Calif."}
{"PERSONID": 2091, "PLACENAME": "Detroit, Mich."}
{"PERSONID": 2091, "PLACENAME": "New York, N.Y."}
{"PERSONID": 2093, "PLACENAME": "Macedonia, Oh."}
{"PERSONID": 2095, "PLACENAME": "Gaylordsville, Conn."}
{"PERSONID": 2095, "PLACENAME": "New York, N.Y."}
{"PERSONID": 2095, "PLACENAME": "Sherman, Conn."}
{"PERSONID": 2100, "PLACENAME": "New York, N.Y."}
{"PERSONID": 2101, "PLACENAME": "New York, N.Y."}
{"PERSONID": 2103, "PLACENAME": "New Hope, Pa."}
{"PERSONID": 2104, "PLACENAME": "Philadelphia, Pa."}
{"PERSONID": 2108, "PLACENAME": "Houston, Tex."}
{"PERSONID": 2109, "PLACENAME": "Los Angeles, Calif."}
{"PERSONID": 2112, "PLACENAME": "New York, N.Y."}
{"PERSONID": 2115, "PLACENAME": "New York, N.Y."}
{"PERSONID": 2118, "PLACENAME": "Buskirk, N.Y."}
{"PERSONID": 2121, "PLACENAME": "Mass."}
{"PERSONID": 2121, "PLACENAME": "New York, N.Y."}
{"PERSONID": 2124, "PLACENAME": "Mass."}
{"PERSONID": 2124, "PLACENAME": "Me."}
{"PERSONID": 2125, "PLACENAME": "Hyannis Port, Mass."}
{"PERSONID": 2125, "PLACENAME": "New York, N.Y."}
{"PERSONID": 2126, "PLACENAME": "Boston, Mass."}
{"PERSONID": 2126, "PLACENAME": "Me."}
{"PERSONID": 2127, "PLACENAME": "New York, N.Y."}
{"PERSONID": 2132, "PLACENAME": "La."}
{"PERSONID": 2132, "PLACENAME": "N.J."}
{"PERSONID": 2133, "PLACENAME": "Palestine, Tex."}
{"PERSONID": 2134, "PLACENAME": "New York, N.Y."}
{"PERSONID": 2135, "PLACENAME": "New York, N.Y."}
{"PERSONID": 2139, "PLACENAME": "New York, N.Y."}
{"PERSONID": 2140, "PLACENAME": "Santa Fe, N.M."}
{"PERSONID": 2142, "PLACENAME": "New York, N.Y."}
{"PERSONID": 2142, "PLACENAME": "Nova Scotia, Canada"}
{"PERSONID": 2143, "PLACENAME": "New York, N.Y."}
{"PERSONID": 2143, "PLACENAME": "Taos, N.M."}
{"PERSONID": 2144, "PLACENAME": "Cambridge, Mass."}
{"PERSONID": 2145, "PLACENAME": "San Francisco, Calif."}
{"PERSONID": 2148, "PLACENAME": "Cincinnati, Ohio"}
{"PERSONID": 2148, "PLACENAME": "New York, N.Y."}
{"PERSONID": 2149, "PLACENAME": "New York, N.Y."}
{"PERSONID": 2151, "PLACENAME": "New York, N.Y."}
{"PERSONID": 2153, "PLACENAME": "New York, N.Y."}
{"PERSONID": 2154, "PLACENAME": "Me."}
{"PERSONID": 2154, "PLACENAME": "Pa."}
{"PERSONID": 2155, "PLACENAME": "East Hampton, N.Y."}
{"PERSONID": 2161, "PLACENAME": "Calif."}
{"PERSONID": 2161, "PLACENAME": "Mass."}
{"PERSONID": 2165, "PLACENAME": "New York, N.Y."}
{"PERSONID": 2166, "PLACENAME": "N.Y."}
{"PERSONID": 2169, "PLACENAME": "San Francisco, Calif."}
{"PERSONID": 2171, "PLACENAME": "Calif."}
{"PERSONID": 2171, "PLACENAME": "Woodstock, N.Y."}
{"PERSONID": 2173, "PLACENAME": "Calif."}
{"PERSONID": 2173, "PLACENAME": "Ill."}
{"PERSONID": 2175, "PLACENAME": "Oakland, Calif."}
{"PERSONID": 2175, "PLACENAME": "San Francisco, Calif."}
{"PERSONID": 2178, "PLACENAME": "New York, N.Y."}
{"PERSONID": 2180, "PLACENAME": "N.J."}
{"PERSONID": 2181, "PLACENAME": "New York, N.Y."}
{"PERSONID": 2183, "PLACENAME": "Boston, Mass."}
{"PERSONID": 2184, "PLACENAME": "Conn."}
{"PERSONID": 2184, "PLACENAME": "N.H."}
{"PERSONID": 2185, "PLACENAME": "Rome, Italy"}
{"PERSONID": 2188, "PLACENAME": "San Francisco, Calif."}
{"PERSONID": 2191, "PLACENAME": "New York, N.Y."}
{"PERSONID": 2192, "PLACENAME": "New York, N.Y."}
{"PERSONID": 2192, "PLACENAME": "Woodstock, N.Y."}
{"PERSONID": 2193, "PLACENAME": "New York, N.Y."}
{"PERSONID": 2197, "PLACENAME": "Seattle, Wash."}
{"PERSONID": 2205, "PLACENAME": "Europe"}
{"PERSONID": 2205, "PLACENAME": "N.Y."}
{"PERSONID": 2207, "PLACENAME": "New York, N.Y."}
{"PERSONID": 2210, "PLACENAME": "Washington, D.C."}
{"PERSONID": 2211, "PLACENAME": "Boston, Mass."}
{"PERSONID": 2211, "PLACENAME": "France"}
{"PERSONID": 2212, "PLACENAME": "New York, N.Y."}
{"PERSONID": 2213, "PLACENAME": "N.Y."}
{"PERSONID": 2217, "PLACENAME": "Mass."}
{"PERSONID": 2218, "PLACENAME": "Santa Fe, N.M."}
{"PERSONID": 2219, "PLACENAME": "N.H."}
{"PERSONID": 2219, "PLACENAME": "St. Louis, Mo."}
{"PERSONID": 2219, "PLACENAME": "Washington, D.C."}
{"PERSONID": 2221, "PLACENAME": "Memphis, Tenn."}
{"PERSONID": 2222, "PLACENAME": "Athens, Ohio"}
{"PERSONID": 2222, "PLACENAME": "Washington, D.C."}
{"PERSONID": 2223, "PLACENAME": "Woodstock, N.Y."}
{"PERSONID": 2224, "PLACENAME": "Chicago, Ill."}
{"PERSONID": 2225, "PLACENAME": "N.Y."}
{"PERSONID": 2227, "PLACENAME": "Calif."}
{"PERSONID": 2228, "PLACENAME": "Ellensville, N.Y."}
{"PERSONID": 2228, "PLACENAME": "New York, N.Y."}
{"PERSONID": 2231, "PLACENAME": "Calif."}
{"PERSONID": 2233, "PLACENAME": "New York, N.Y."}
{"PERSONID": 2234, "PLACENAME": "New York, N.Y."}
{"PERSONID": 2235, "PLACENAME": "Chicago, Ill."}
{"PERSONID": 2238, "PLACENAME": "N.Y."}
{"PERSONID": 2240, "PLACENAME": "Mass."}
{"PERSONID": 2241, "PLACENAME": "New York, N.Y."}
{"PERSONID": 2243, "PLACENAME": "New York, N.Y."}
{"PERSONID": 2244, "PLACENAME": "Chicago, Ill."}
{"PERSONID": 2247, "PLACENAME": "St. Louis, Mo."}
{"PERSONID": 2251, "PLACENAME": "New York, N.Y."}
{"PERSONID": 2252, "PLACENAME": "New York, N.Y."}
{"PERSONID": 2255, "PLACENAME": "San Francisco, Calif."}
{"PERSONID": 2256, "PLACENAME": "San Francisco, Calif."}
{"PERSONID": 2257, "PLACENAME": "New York, N.Y."}
{"PERSONID": 2258, "PLACENAME": "Petaluma, Calif."}
{"PERSONID": 2265, "PLACENAME": "Calif."}
{"PERSONID": 2265, "PLACENAME": "France"}
{"PERSONID": 2268, "PLACENAME": "Berkeley, Calif."}
{"PERSONID": 2268, "PLACENAME": "San Francisco, Calif."}
{"PERSONID": 2270, "PLACENAME": "N.Y."}
{"PERSONID": 2270, "PLACENAME": "New Bedford, Mass."}
{"PERSONID": 2271, "PLACENAME": "Detroit, Mich."}
{"PERSONID": 2276, "PLACENAME": "New York, N.Y."}
{"PERSONID": 2280, "PLACENAME": "Cedar Rapids, Ia."}
{"PERSONID": 2280, "PLACENAME": "Falls Church, Va."}
{"PERSONID": 2282, "PLACENAME": "New York, N.Y."}
{"PERSONID": 2283, "PLACENAME": "Europe"}
{"PERSONID": 2283, "PLACENAME": "New York, N.Y."}
{"PERSONID": 2288, "PLACENAME": "Calif."}
{"PERSONID": 2288, "PLACENAME": "New York, N.Y."}
{"PERSONID": 2289, "PLACENAME": "Conn."}
{"PERSONID": 2292, "PLACENAME": "Boston, Mass."}
{"PERSONID": 2292, "PLACENAME": "Manchester, Mass."}
{"PERSONID": 2292, "PLACENAME": "Paris, France"}
{"PERSONID": 2294, "PLACENAME": "New York, N.Y."}
{"PERSONID": 2295, "PLACENAME": "Cragsmoor, N.Y."}
{"PERSONID": 2295, "PLACENAME": "New York, N.Y."}
{"PERSONID": 2297, "PLACENAME": "New York, N.Y."}
{"PERSONID": 2298, "PLACENAME": "New York, N.Y."}
{"PERSONID": 2306, "PLACENAME": "New York, N.Y."}
{"PERSONID": 2309, "PLACENAME": "N.Y."}
{"PERSONID": 2310, "PLACENAME": "Calif."}
{"PERSONID": 2310, "PLACENAME": "France"}
{"PERSONID": 2311, "PLACENAME": "New York, N.Y."}
{"PERSONID": 2312, "PLACENAME": "New York, N.Y."}
{"PERSONID": 2312, "PLACENAME": "Pittsburgh, Pa."}
{"PERSONID": 2317, "PLACENAME": "Larchmont, N.Y."}
{"PERSONID": 2318, "PLACENAME": "Cincinnati, Ohio"}
{"PERSONID": 2319, "PLACENAME": "Cragsmoor, N.Y."}
{"PERSONID": 2319, "PLACENAME": "Mount Vernon, N.Y."}
{"PERSONID": 2319, "PLACENAME": "New York, N.Y."}
{"PERSONID": 2320, "PLACENAME": "New York, N.Y."}
{"PERSONID": 2326, "PLACENAME": "Washington, D.C."}
{"PERSONID": 2333, "PLACENAME": "N.Y."}
{"PERSONID": 2336, "PLACENAME": "Hadley, Mass."}
{"PERSONID": 2336, "PLACENAME": "New York, N.Y."}
{"PERSONID": 2337, "PLACENAME": "N.Y."}
{"PERSONID": 2343, "PLACENAME": "Taos, N.M."}
{"PERSONID": 2343, "PLACENAME": "Venice, Calif."}
{"PERSONID": 2346, "PLACENAME": "Santa Fe, N.M."}
{"PERSONID": 2348, "PLACENAME": "New York, N.Y."}
{"PERSONID": 2348, "PLACENAME": "Paris, France"}
{"PERSONID": 2348, "PLACENAME": "San Francisco, Calif."}
{"PERSONID": 2349, "PLACENAME": "New York, N.Y."}
{"PERSONID": 2349, "PLACENAME": "Paris, France"}
{"PERSONID": 2351, "PLACENAME": "San Diego, Calif."}
{"PERSONID": 2355, "PLACENAME": "Houston, Tex."}
{"PERSONID": 2356, "PLACENAME": "New York, N.Y."}
{"PERSONID": 2359, "PLACENAME": "New York, N.Y."}
{"PERSONID": 2371, "PLACENAME": "Calif."}
{"PERSONID": 2371, "PLACENAME": "England"}
{"PERSONID": 2372, "PLACENAME": "New York, N.Y."}
{"PERSONID": 2373, "PLACENAME": "N.Y."}
{"PERSONID": 2374, "PLACENAME": "New York, N.Y."}
{"PERSONID": 2374, "PLACENAME": "Old Chatham, N.Y."}
{"PERSONID": 2375, "PLACENAME": "Atlanta, Ga."}
{"PERSONID": 2379, "PLACENAME": "New York, N.Y."}
{"PERSONID": 2380, "PLACENAME": "Boston, Mass."}
{"PERSONID": 2381, "PLACENAME": "New York, N.Y."}
{"PERSONID": 2382, "PLACENAME": "Pittsburgh, Pa."}
{"PERSONID": 2387, "PLACENAME": "Boston, Mass."}
{"PERSONID": 2387, "PLACENAME": "Paris, France"}
{"PERSONID": 2387, "PLACENAME": "Washington, D.C."}
{"PERSONID": 2392, "PLACENAME": "New York, N.Y."}
{"PERSONID": 2393, "PLACENAME": "New York, N.Y."}
{"PERSONID": 2394, "PLACENAME": "Pa."}
{"PERSONID": 2398, "PLACENAME": "Urbana, Ill."}
{"PERSONID": 2401, "PLACENAME": "N.Y."}
{"PERSONID": 2405, "PLACENAME": "Conn."}
{"PERSONID": 2405, "PLACENAME": "N.Y."}
{"PERSONID": 2406, "PLACENAME": "Chicago, Ill."}
{"PERSONID": 2406, "PLACENAME": "New York, N.Y."}
{"PERSONID": 2408, "PLACENAME": "Washington, D.C."}
{"PERSONID": 2409, "PLACENAME": "New York, N.Y."}
{"PERSONID": 2411, "PLACENAME": "Charleston, S.C."}
{"PERSONID": 2412, "PLACENAME": "Tx."}
{"PERSONID": 2413, "PLACENAME": "Brookline, Mass."}
{"PERSONID": 2414, "PLACENAME": "New York, N.Y."}
{"PERSONID": 2415, "PLACENAME": "Boston, Mass."}
{"PERSONID": 2418, "PLACENAME": "Provincetown, Mass."}
{"PERSONID": 2419, "PLACENAME": "New York, N.Y."}
{"PERSONID": 2420, "PLACENAME": "New York, N.Y."}
{"PERSONID": 2429, "PLACENAME": "Glencove, N.Y."}
{"PERSONID": 2430, "PLACENAME": "Pa."}
{"PERSONID": 2441, "PLACENAME": "Hudson, N.Y."}
{"PERSONID": 2442, "PLACENAME": "Boston, Mass."}
{"PERSONID": 2442, "PLACENAME": "Florence, Italy"}
{"PERSONID": 2444, "PLACENAME": "Washington, D.C."}
{"PERSONID": 2445, "PLACENAME": "New York, N.Y."}
{"PERSONID": 2446, "PLACENAME": "New York, N.Y."}
{"PERSONID": 2449, "PLACENAME": "New York, N.Y."}
{"PERSONID": 2450, "PLACENAME": "Lockport, N.Y."}
{"PERSONID": 2453, "PLACENAME": "Keene, N.H."}
{"PERSONID": 2454, "PLACENAME": "Chicago, Ill."}
{"PERSONID": 2454, "PLACENAME": "Syracuse, N.Y."}
{"PERSONID": 2459, "PLACENAME": "Chicago, Ill."}
{"PERSONID": 2459, "PLACENAME": "New York, N.Y."}
{"PERSONID": 2460, "PLACENAME": "Chicago, Ill."}
{"PERSONID": 2460, "PLACENAME": "Willmette, Ill."}
{"PERSONID": 2463, "PLACENAME": "Brooklyn, N.Y."}
{"PERSONID": 2467, "PLACENAME": "Essex, Conn."}
{"PERSONID": 2471, "PLACENAME": "New York, N.Y."}
{"PERSONID": 2474, "PLACENAME": "New York, N.Y."}
{"PERSONID": 2475, "PLACENAME": "Washington, D.C."}
{"PERSONID": 2476, "PLACENAME": "New York, N.Y."}
{"PERSONID": 2477, "PLACENAME": "San Geronimo, Calif."}
{"PERSONID": 2479, "PLACENAME": "New York, N.Y."}
{"PERSONID": 2481, "PLACENAME": "Cathedral City, Calif."}
{"PERSONID": 2483, "PLACENAME": "Czechoslovakia"}
{"PERSONID": 2483, "PLACENAME": "New York, N.Y."}
{"PERSONID": 2490, "PLACENAME": "R.I."}
{"PERSONID": 2492, "PLACENAME": "San Francisco, Calif."}
{"PERSONID": 2498, "PLACENAME": "New York, N.Y."}
{"PERSONID": 2501, "PLACENAME": "Mich."}
{"PERSONID": 2501, "PLACENAME": "Ont."}
{"PERSONID": 2503, "PLACENAME": "New York, N.Y."}
{"PERSONID": 2509, "PLACENAME": "Calif."}
{"PERSONID": 2509, "PLACENAME": "New York, N.Y."}
{"PERSONID": 2514, "PLACENAME": "Berkeley, Calif."}
{"PERSONID": 2515, "PLACENAME": "New York, N.Y."}
{"PERSONID": 2516, "PLACENAME": "Pa."}
{"PERSONID": 2517, "PLACENAME": "Amherst, Mass."}
{"PERSONID": 2517, "PLACENAME": "Baltimore, Md."}
{"PERSONID": 2517, "PLACENAME": "Europe"}
{"PERSONID": 2517, "PLACENAME": "Washington, D.C."}
{"PERSONID": 2518, "PLACENAME": "Bucks County, Pa."}
{"PERSONID": 2519, "PLACENAME": "Rome, Italy"}
{"PERSONID": 2519, "PLACENAME": "Woodbury, Conn."}
{"PERSONID": 2522, "PLACENAME": "Chicago, Ill."}
{"PERSONID": 2522, "PLACENAME": "New York, N.Y."}
{"PERSONID": 2522, "PLACENAME": "Toronto, Canada"}
{"PERSONID": 2525, "PLACENAME": "Monhegan Island, Me."}
{"PERSONID": 2526, "PLACENAME": "New York, N.Y."}
{"PERSONID": 2529, "PLACENAME": "New York, N.Y."}
{"PERSONID": 2531, "PLACENAME": "New York, N.Y."}
{"PERSONID": 2531, "PLACENAME": "Sag Harbor, N.Y."}
{"PERSONID": 2531, "PLACENAME": "Savannah, Ga."}
{"PERSONID": 2531, "PLACENAME": "Woodstock, N.Y."}
{"PERSONID": 2532, "PLACENAME": "New Orleans, La."}
{"PERSONID": 2536, "PLACENAME": "Beaumont le Roger Eure, France"}
{"PERSONID": 2536, "PLACENAME": "Paris, France"}
{"PERSONID": 2538, "PLACENAME": "London, England"}
{"PERSONID": 2538, "PLACENAME": "New York, N.Y."}
{"PERSONID": 2539, "PLACENAME": "Chicago, Ill."}
{"PERSONID": 2541, "PLACENAME": "New York, N.Y."}
{"PERSONID": 2541, "PLACENAME": "Port Clyde, Me."}
{"PERSONID": 2543, "PLACENAME": "Deerfield, Mass."}
{"PERSONID": 2544, "PLACENAME": "New York, N.Y."}
{"PERSONID": 2546, "PLACENAME": "Chicago, Ill."}
{"PERSONID": 2546, "PLACENAME": "New York, N.Y."}
{"PERSONID": 2547, "PLACENAME": "New York, N.Y."}
{"PERSONID": 2553, "PLACENAME": "Bronxville, N.Y."}
{"PERSONID": 2553, "PLACENAME": "Provincetown, Mass."}
{"PERSONID": 2555, "PLACENAME": "N.Y."}
{"PERSONID": 2557, "PLACENAME": "New York, N.Y."}
{"PERSONID": 2557, "PLACENAME": "Pa."}
{"PERSONID": 2558, "PLACENAME": "Santa Barbara, Calif."}
{"PERSONID": 2559, "PLACENAME": "New York, N.Y."}
{"PERSONID": 2561, "PLACENAME": "New York, N.Y."}
{"PERSONID": 2562, "PLACENAME": "New York, N.Y."}
{"PERSONID": 2564, "PLACENAME": "Philadelphia, Pa."}
{"PERSONID": 2565, "PLACENAME": "New York, N.Y."}
{"PERSONID": 2565, "PLACENAME": "Paris, France"}
{"PERSONID": 2565, "PLACENAME": "Vt."}
{"PERSONID": 2566, "PLACENAME": "Calif."}
{"PERSONID": 2566, "PLACENAME": "N.Y."}
{"PERSONID": 2567, "PLACENAME": "Giverny, France"}
{"PERSONID": 2567, "PLACENAME": "New York, N.Y."}
{"PERSONID": 2569, "PLACENAME": "New York, N.Y."}
{"PERSONID": 2569, "PLACENAME": "Ohio"}
{"PERSONID": 2570, "PLACENAME": "Boston, Mass."}
{"PERSONID": 2570, "PLACENAME": "New York, N.Y."}
{"PERSONID": 2575, "PLACENAME": "East Hampton, N.Y."}
{"PERSONID": 2577, "PLACENAME": "New York, N.Y."}
{"PERSONID": 2587, "PLACENAME": "New York, N.Y."}
{"PERSONID": 2588, "PLACENAME": "New York, N.Y."}
{"PERSONID": 2592, "PLACENAME": "Munich, Germany"}
{"PERSONID": 2592, "PLACENAME": "New York, N.Y."}
{"PERSONID": 2592, "PLACENAME": "Paris, France"}
{"PERSONID": 2593, "PLACENAME": "New York, N.Y."}
{"PERSONID": 2596, "PLACENAME": "New York, N.Y."}
{"PERSONID": 2596, "PLACENAME": "Paris, France"}
{"PERSONID": 2596, "PLACENAME": "Philadelphia, Pa."}
{"PERSONID": 2599, "PLACENAME": "New York, N.Y."}
{"PERSONID": 2603, "PLACENAME": "New York, N.Y."}
{"PERSONID": 2605, "PLACENAME": "New York, N.Y."}
{"PERSONID": 2606, "PLACENAME": "New York, N.Y."}
{"PERSONID": 2607, "PLACENAME": "Old Lyme, Conn."}
{"PERSONID": 2608, "PLACENAME": "New York, N.Y."}
{"PERSONID": 2609, "PLACENAME": "Ill."}
{"PERSONID": 2609, "PLACENAME": "Me."}
{"PERSONID": 2611, "PLACENAME": "New York, N.Y."}
{"PERSONID": 2612, "PLACENAME": "New York, N.Y."}
{"PERSONID": 2613, "PLACENAME": "New York, N.Y."}
{"PERSONID": 2614, "PLACENAME": "Cos Cob, Conn."}
{"PERSONID": 2614, "PLACENAME": "New York, N.Y."}
{"PERSONID": 2615, "PLACENAME": "New York, N.Y."}
{"PERSONID": 2618, "PLACENAME": "New York, N.Y."}
{"PERSONID": 2618, "PLACENAME": "Princeton, N.J."}
{"PERSONID": 2621, "PLACENAME": "N.Y."}
{"PERSONID": 2626, "PLACENAME": "New York, N.Y."}
{"PERSONID": 2629, "PLACENAME": "Wis."}
{"PERSONID": 2631, "PLACENAME": "San Francisco, Calif."}
{"PERSONID": 2633, "PLACENAME": "Paris, France"}
{"PERSONID": 2634, "PLACENAME": "New York, N.Y."}
{"PERSONID": 2638, "PLACENAME": "Calif."}
{"PERSONID": 2638, "PLACENAME": "N.Y."}
{"PERSONID": 2639, "PLACENAME": "New York, N.Y."}
{"PERSONID": 2642, "PLACENAME": "New York, N.Y."}
{"PERSONID": 2645, "PLACENAME": "New York, N.Y."}
{"PERSONID": 2647, "PLACENAME": "Los Angeles, Calif."}
{"PERSONID": 2651, "PLACENAME": "New York, N.Y."}
{"PERSONID": 2651, "PLACENAME": "Weston, Conn."}
{"PERSONID": 2652, "PLACENAME": "New York, N.Y."}
{"PERSONID": 2653, "PLACENAME": "New York, N.Y."}
{"PERSONID": 2654, "PLACENAME": "New York, N.Y."}
{"PERSONID": 2655, "PLACENAME": "New York, N.Y."}
{"PERSONID": 2656, "PLACENAME": "Me."}
{"PERSONID": 2656, "PLACENAME": "N.Y."}
{"PERSONID": 2659, "PLACENAME": "New York, N.Y."}
{"PERSONID": 2661, "PLACENAME": "Portland, Or."}
{"PERSONID": 2667, "PLACENAME": "New York, N.Y."}
{"PERSONID": 2668, "PLACENAME": "Cologne, Germany"}
{"PERSONID": 2668, "PLACENAME": "New York, N.Y."}
{"PERSONID": 2673, "PLACENAME": "Mass."}
{"PERSONID": 2694, "PLACENAME": "New York, N.Y."}
{"PERSONID": 2702, "PLACENAME": "Venice, Calif."}
{"PERSONID": 2703, "PLACENAME": "Calif."}
{"PERSONID": 2711, "PLACENAME": "Fla."}
{"PERSONID": 2711, "PLACENAME": "New York, N.Y."}
{"PERSONID": 2712, "PLACENAME": "New York, N.Y."}
{"PERSONID": 2714, "PLACENAME": "Claremont, Calif."}
{"PERSONID": 2715, "PLACENAME": "Calif."}
{"PERSONID": 2716, "PLACENAME": "Ill."}
{"PERSONID": 2716, "PLACENAME": "New York, N.Y."}
{"PERSONID": 2724, "PLACENAME": "Los Angeles, Calif."}
{"PERSONID": 2727, "PLACENAME": "New York, N.Y."}
{"PERSONID": 2735, "PLACENAME": "San Francisco, Calif."}
{"PERSONID": 2737, "PLACENAME": "Calif."}
{"PERSONID": 2738, "PLACENAME": "Calif."}
{"PERSONID": 2740, "PLACENAME": "New York, N.Y."}
{"PERSONID": 2746, "PLACENAME": "Ill."}
{"PERSONID": 2752, "PLACENAME": "Chappequa, N.Y."}
{"PERSONID": 2752, "PLACENAME": "Chicago, Ill."}
{"PERSONID": 2754, "PLACENAME": "Wis."}
{"PERSONID": 2755, "PLACENAME": "New York, N.Y."}
{"PERSONID": 2761, "PLACENAME": "France"}
{"PERSONID": 2761, "PLACENAME": "Haverhill, Mass."}
{"PERSONID": 2762, "PLACENAME": "Washington, D.C."}
{"PERSONID": 2766, "PLACENAME": "Miraflores, Lima"}
{"PERSONID": 2767, "PLACENAME": "Miraflores, Lima"}
{"PERSONID": 2769, "PLACENAME": "New York, N.Y."}
{"PERSONID": 2774, "PLACENAME": "Newark, N.J."}
{"PERSONID": 2775, "PLACENAME": "New York, N.Y."}
{"PERSONID": 2776, "PLACENAME": "New York, N.Y."}
{"PERSONID": 2780, "PLACENAME": "New York, N.Y."}
{"PERSONID": 2781, "PLACENAME": "Calif."}
{"PERSONID": 2781, "PLACENAME": "New York, N.Y."}
{"PERSONID": 2783, "PLACENAME": "Fayette, Me."}
{"PERSONID": 2783, "PLACENAME": "New York, N.Y."}
{"PERSONID": 2791, "PLACENAME": "Portland, Or."}
{"PERSONID": 2797, "PLACENAME": "N.Y."}
{"PERSONID": 2799, "PLACENAME": "Cincinnati, Ohio"}
{"PERSONID": 2801, "PLACENAME": "New York, N.Y."}
{"PERSONID": 2808, "PLACENAME": "New York, N.Y."}
{"PERSONID": 2808, "PLACENAME": "Pasadena, Calif."}
{"PERSONID": 2812, "PLACENAME": "New York, N.Y."}
{"PERSONID": 2813, "PLACENAME": "New York, N.Y."}
{"PERSONID": 2816, "PLACENAME": "Ill."}
{"PERSONID": 2822, "PLACENAME": "New York, N.Y."}
{"PERSONID": 2823, "PLACENAME": "New York, N.Y."}
{"PERSONID": 2825, "PLACENAME": "New York, N.Y."}
{"PERSONID": 2827, "PLACENAME": "Santa Barbara, Calif."}
{"PERSONID": 2828, "PLACENAME": "Pittsburgh, Pa."}
{"PERSONID": 2828, "PLACENAME": "Plymouth, Mass."}
{"PERSONID": 2830, "PLACENAME": "New York, N.Y."}
{"PERSONID": 2832, "PLACENAME": "New York, N.Y."}
{"PERSONID": 2836, "PLACENAME": "N.Y."}
{"PERSONID": 2849, "PLACENAME": "N.Y."}
{"PERSONID": 2850, "PLACENAME": "Grand Rapids, Mich."}
{"PERSONID": 2850, "PLACENAME": "Truro, Mass."}
{"PERSONID": 2857, "PLACENAME": "Philadelphia, Pa."}
{"PERSONID": 2860, "PLACENAME": "New York, N.Y."}
{"PERSONID": 2861, "PLACENAME": "Ill."}
{"PERSONID": 2867, "PLACENAME": "Chicago, Ill."}
{"PERSONID": 2868, "PLACENAME": "Woodstock, N.Y."}
{"PERSONID": 2870, "PLACENAME": "Detroit, Mich."}
{"PERSONID": 2871, "PLACENAME": "New York, N.Y."}
{"PERSONID": 2872, "PLACENAME": "Chicago, Ill."}
{"PERSONID": 2872, "PLACENAME": "Falls Church, Va."}
{"PERSONID": 2872, "PLACENAME": "New York, N.Y."}
{"PERSONID": 2873, "PLACENAME": "Chicago, Ill."}
{"PERSONID": 2873, "PLACENAME": "New York, N.Y."}
{"PERSONID": 2876, "PLACENAME": "Bronxville, N.Y."}
{"PERSONID": 2878, "PLACENAME": "Calif."}
{"PERSONID": 2884, "PLACENAME": "New York, N.Y."}
{"PERSONID": 2889, "PLACENAME": "San Antonio, Tex."}
{"PERSONID": 2891, "PLACENAME": "New York, N.Y."}
{"PERSONID": 2892, "PLACENAME": "Chicago, Ill."}
{"PERSONID": 2898, "PLACENAME": "Woodstock, N.Y."}
{"PERSONID": 2904, "PLACENAME": "Philadelphia, Pa."}
{"PERSONID": 2905, "PLACENAME": "New York, N.Y."}
{"PERSONID": 2906, "PLACENAME": "New York, N.Y."}
{"PERSONID": 2910, "PLACENAME": "New York, N.Y."}
{"PERSONID": 2911, "PLACENAME": "Ill."}
{"PERSONID": 2911, "PLACENAME": "Poughkeepsie, N.Y."}
{"PERSONID": 2915, "PLACENAME": "Baltimore, Md."}
{"PERSONID": 2917, "PLACENAME": "New York, N.Y."}
{"PERSONID": 2918, "PLACENAME": "New York, N.Y."}
{"PERSONID": 2921, "PLACENAME": "Mineapolis, Minn."}
{"PERSONID": 2928, "PLACENAME": "Wilton, Conn."}
{"PERSONID": 2931, "PLACENAME": "N.Y."}
{"PERSONID": 2932, "PLACENAME": "New York, N.Y."}
{"PERSONID": 2935, "PLACENAME": "New York, N.Y."}
{"PERSONID": 2936, "PLACENAME": "Europe"}
{"PERSONID": 2937, "PLACENAME": "Brooklyn, N.Y."}
{"PERSONID": 2938, "PLACENAME": "Exeter, N.H."}
{"PERSONID": 2938, "PLACENAME": "Paris, France"}
{"PERSONID": 2944, "PLACENAME": "Dublin, N.H."}
{"PERSONID": 2947, "PLACENAME": "Blountville, Tenn."}
{"PERSONID": 2958, "PLACENAME": "Mt. Vernon, N.Y."}
{"PERSONID": 2963, "PLACENAME": "Los Angeles, Calif."}
{"PERSONID": 2964, "PLACENAME": "New York, N.Y."}
{"PERSONID": 2968, "PLACENAME": "New York, N.Y."}
{"PERSONID": 2974, "PLACENAME": "Chicago, Ill."}
{"PERSONID": 2974, "PLACENAME": "Colorado Springs, Colo."}
{"PERSONID": 2975, "PLACENAME": "Hartford, Conn."}
{"PERSONID": 2975, "PLACENAME": "New York, N.Y."}
{"PERSONID": 2977, "PLACENAME": "Colorado Springs, Colo."}
{"PERSONID": 2982, "PLACENAME": "Brownsville, Vt."}
{"PERSONID": 2983, "PLACENAME": "Philadelphia, Pa."}
{"PERSONID": 2986, "PLACENAME": "Calif."}
{"PERSONID": 2988, "PLACENAME": "Philadelphia, Pa."}
{"PERSONID": 2994, "PLACENAME": "Washington, D.C."}
{"PERSONID": 3003, "PLACENAME": "Chicago, Ill."}
{"PERSONID": 3003, "PLACENAME": "Giverny, France"}
{"PERSONID": 3008, "PLACENAME": "Hartford, Conn."}
{"PERSONID": 3008, "PLACENAME": "New York, N.Y."}
{"PERSONID": 3010, "PLACENAME": "Iowa"}
{"PERSONID": 3010, "PLACENAME": "Miss."}
{"PERSONID": 3019, "PLACENAME": "Boston, Mass."}
{"PERSONID": 3019, "PLACENAME": "Wakefield, Mass."}
{"PERSONID": 3026, "PLACENAME": "Minneapolis, Minn."}
{"PERSONID": 3040, "PLACENAME": "San Francisco, Calif."}
{"PERSONID": 3041, "PLACENAME": "Glencoe, Ill."}
{"PERSONID": 3041, "PLACENAME": "New York, N.Y."}
{"PERSONID": 3047, "PLACENAME": "Chicago, Ill."}
{"PERSONID": 3049, "PLACENAME": "New York, N.Y."}
{"PERSONID": 3059, "PLACENAME": "N.Y."}
{"PERSONID": 3066, "PLACENAME": "Philadelphia, Pa."}
{"PERSONID": 3068, "PLACENAME": "San Francisco, Calif."}
{"PERSONID": 3069, "PLACENAME": "Woods Hole, Mass."}
{"PERSONID": 3072, "PLACENAME": "East Chatham, N.Y."}
{"PERSONID": 3090, "PLACENAME": "New York, N.Y."}
{"PERSONID": 3094, "PLACENAME": "New York, N.Y."}
{"PERSONID": 3099, "PLACENAME": "Calif."}
{"PERSONID": 3100, "PLACENAME": "New York, N.Y."}
{"PERSONID": 3101, "PLACENAME": "Chicago, Ill."}
{"PERSONID": 3102, "PLACENAME": "New York, N.Y."}
{"PERSONID": 3105, "PLACENAME": "Boston, Mass."}
{"PERSONID": 3106, "PLACENAME": "Poughkeepsie, N.Y."}
{"PERSONID": 3110, "PLACENAME": "Manchester, Conn."}
{"PERSONID": 3112, "PLACENAME": "N.Y."}
{"PERSONID": 3113, "PLACENAME": "New York, N.Y."}
{"PERSONID": 3115, "PLACENAME": "New York, N.Y."}
{"PERSONID": 3116, "PLACENAME": "Tex."}
{"PERSONID": 3121, "PLACENAME": "Glendale, Calif."}
{"PERSONID": 3121, "PLACENAME": "New York, N.Y."}
{"PERSONID": 3124, "PLACENAME": "Hartland, Vt."}
{"PERSONID": 3127, "PLACENAME": "New York, N.Y."}
{"PERSONID": 3131, "PLACENAME": "New York, N.Y."}
{"PERSONID": 3133, "PLACENAME": "Ohio"}
{"PERSONID": 3134, "PLACENAME": "New York, N.Y."}
{"PERSONID": 3142, "PLACENAME": "Paris, France"}
{"PERSONID": 3142, "PLACENAME": "Pasadena, Calif."}
{"PERSONID": 3145, "PLACENAME": "New York, N.Y."}
{"PERSONID": 3146, "PLACENAME": "Paris, France"}
{"PERSONID": 3149, "PLACENAME": "Gloucester, Mass."}
{"PERSONID": 3162, "PLACENAME": "New York, N.Y."}
{"PERSONID": 3169, "PLACENAME": "Longbeach, N.Y."}
{"PERSONID": 3169, "PLACENAME": "New York, N.Y."}
{"PERSONID": 3174, "PLACENAME": "Boston, Mass."}
{"PERSONID": 3174, "PLACENAME": "Buffalo, N.Y."}
{"PERSONID": 3174, "PLACENAME": "San Francisco, Calif."}
{"PERSONID": 3176, "PLACENAME": "Houston, Tex."}
{"PERSONID": 3177, "PLACENAME": "New York, N.Y."}
{"PERSONID": 3180, "PLACENAME": "New York, N.Y."}
{"PERSONID": 3183, "PLACENAME": "N.Y."}
{"PERSONID": 3185, "PLACENAME": "Boston, Mass."}
{"PERSONID": 3187, "PLACENAME": "New York, N.Y."}
{"PERSONID": 3191, "PLACENAME": "New York, N.Y."}
{"PERSONID": 3199, "PLACENAME": "New York, N.Y."}
{"PERSONID": 3204, "PLACENAME": "New York, N.Y."}
{"PERSONID": 3206, "PLACENAME": "San Francisco, Calif."}
{"PERSONID": 3217, "PLACENAME": "Ohio"}
{"PERSONID": 3217, "PLACENAME": "Washington, D.C."}
{"PERSONID": 3218, "PLACENAME": "Lyme, N.Y."}
{"PERSONID": 3218, "PLACENAME": "New York, N.Y."}
{"PERSONID": 3224, "PLACENAME": "New York, N.Y."}
{"PERSONID": 3225, "PLACENAME": "New York, N.Y."}
{"PERSONID": 3225, "PLACENAME": "Rome, Italy"}
{"PERSONID": 3225, "PLACENAME": "Washington, D.C."}
{"PERSONID": 3226, "PLACENAME": "Calif."}
{"PERSONID": 3227, "PLACENAME": "New York, N.Y."}
{"PERSONID": 3229, "PLACENAME": "New York, N.Y."}
{"PERSONID": 3235, "PLACENAME": "New York, N.Y."}
{"PERSONID": 3241, "PLACENAME": "New York, N.Y."}
{"PERSONID": 3242, "PLACENAME": "Skowegan, Me."}
{"PERSONID": 3252, "PLACENAME": "New York, N.Y."}
{"PERSONID": 3257, "PLACENAME": "Pebble Beach, Calif."}
{"PERSONID": 3257, "PLACENAME": "San Francisco, Calif."}
{"PERSONID": 3263, "PLACENAME": "San Diego, Calif."}
{"PERSONID": 3267, "PLACENAME": "New York, N.Y."}
{"PERSONID": 3268, "PLACENAME": "Calif."}
{"PERSONID": 3271, "PLACENAME": "Paris, France"}
{"PERSONID": 3272, "PLACENAME": "New York, N.Y."}
{"PERSONID": 3274, "PLACENAME": "New York, N.Y."}
{"PERSONID": 3275, "PLACENAME": "Calif."}
{"PERSONID": 3278, "PLACENAME": "New York, N.Y."}
{"PERSONID": 3279, "PLACENAME": "New York, N.Y."}
{"PERSONID": 3283, "PLACENAME": "Salisbury, N.C."}
{"PERSONID": 3283, "PLACENAME": "Staunton, Va."}
{"PERSONID": 3284, "PLACENAME": "Va."}
{"PERSONID": 3285, "PLACENAME": "Montclair, N.J."}
{"PERSONID": 3291, "PLACENAME": "Pa."}
{"PERSONID": 3292, "PLACENAME": "Boston, Mass."}
{"PERSONID": 3292, "PLACENAME": "Cincinnati, Ohio"}
{"PERSONID": 3292, "PLACENAME": "New York, N.Y."}
{"PERSONID": 3300, "PLACENAME": "New York, N.Y."}
{"PERSONID": 3301, "PLACENAME": "Mich."}
{"PERSONID": 3315, "PLACENAME": "New York, N.Y."}
{"PERSONID": 3318, "PLACENAME": "New York, N.Y."}
{"PERSONID": 3319, "PLACENAME": "New York, N.Y."}
{"PERSONID": 3321, "PLACENAME": "Washington, D.C."}
{"PERSONID": 3332, "PLACENAME": "Lyme, Conn."}
{"PERSONID": 3337, "PLACENAME": "New York, N.Y."}
{"PERSONID": 3339, "PLACENAME": "Washington, D.C."}
{"PERSONID": 3343, "PLACENAME": "New York, N.Y."}
{"PERSONID": 3350, "PLACENAME": "New York, N.Y."}
{"PERSONID": 3353, "PLACENAME": "San Francisco, Calif."}
{"PERSONID": 3355, "PLACENAME": "New York, N.Y."}
{"PERSONID": 3359, "PLACENAME": "New York, N.Y."}
{"PERSONID": 3362, "PLACENAME": "Detroit, Mich."}
{"PERSONID": 3365, "PLACENAME": "Kenosha, Wisc."}
{"PERSONID": 3365, "PLACENAME": "Washington, D.C."}
{"PERSONID": 3370, "PLACENAME": "New York, N.Y."}
{"PERSONID": 3374, "PLACENAME": "Provincetown, Mass."}
{"PERSONID": 3374, "PLACENAME": "Va."}
{"PERSONID": 3374, "PLACENAME": "Washington, D.C."}
{"PERSONID": 3375, "PLACENAME": "Louisiana, Mo."}
{"PERSONID": 3375, "PLACENAME": "N.Y."}
{"PERSONID": 3378, "PLACENAME": "Brooklyn, N.Y."}
{"PERSONID": 3378, "PLACENAME": "Germany"}
{"PERSONID": 3378, "PLACENAME": "Holland"}
{"PERSONID": 3389, "PLACENAME": "New York, N.Y."}
{"PERSONID": 3393, "PLACENAME": "New York, N.Y."}
{"PERSONID": 3394, "PLACENAME": "Chicago, Ill."}
{"PERSONID": 3397, "PLACENAME": "New Haven, Conn."}
{"PERSONID": 3398, "PLACENAME": "Los Angeles, Calif."}
{"PERSONID": 3400, "PLACENAME": "New York, N.Y."}
{"PERSONID": 3403, "PLACENAME": "Ohio"}
{"PERSONID": 3416, "PLACENAME": "Detroit, Mich."}
{"PERSONID": 3416, "PLACENAME": "New York, N.Y."}
{"PERSONID": 3417, "PLACENAME": "New York, N.Y."}
{"PERSONID": 3417, "PLACENAME": "Wilmington, Del."}
{"PERSONID": 3422, "PLACENAME": "San Francisco, Calif."}
{"PERSONID": 3426, "PLACENAME": "New York, N.Y."}
{"PERSONID": 3426, "PLACENAME": "Springfield, Vt."}
{"PERSONID": 3427, "PLACENAME": "New York, N.Y."}
{"PERSONID": 3432, "PLACENAME": "Dekalb, Ill."}
{"PERSONID": 3436, "PLACENAME": "Paris, France"}
{"PERSONID": 3436, "PLACENAME": "Rome, Italy"}
{"PERSONID": 3436, "PLACENAME": "Westport, Conn."}
{"PERSONID": 3437, "PLACENAME": "Pa."}
{"PERSONID": 3444, "PLACENAME": "Pa."}
{"PERSONID": 3445, "PLACENAME": "Madison, Wis."}
{"PERSONID": 3445, "PLACENAME": "Stockton, Calif."}
{"PERSONID": 3446, "PLACENAME": "New York, N.Y."}
{"PERSONID": 3453, "PLACENAME": "Me."}
{"PERSONID": 3454, "PLACENAME": "Mass."}
{"PERSONID": 3454, "PLACENAME": "Washington, D.C."}
{"PERSONID": 3459, "PLACENAME": "New York, N.Y."}
{"PERSONID": 3468, "PLACENAME": "Calif."}
{"PERSONID": 3472, "PLACENAME": "New York, N.Y."}
{"PERSONID": 3476, "PLACENAME": "North Truro, Mass."}
{"PERSONID": 3476, "PLACENAME": "Washington, D.C."}
{"PERSONID": 3479, "PLACENAME": "New York, N.Y."}
{"PERSONID": 3481, "PLACENAME": "N.Y."}
{"PERSONID": 3485, "PLACENAME": "New Orleans, La."}
{"PERSONID": 3491, "PLACENAME": "Europe"}
{"PERSONID": 3491, "PLACENAME": "N.Y."}
{"PERSONID": 3496, "PLACENAME": "San Diego, Calif."}
{"PERSONID": 3497, "PLACENAME": "New York, N.Y."}
{"PERSONID": 3499, "PLACENAME": "New York, N.Y."}
{"PERSONID": 3500, "PLACENAME": "Woodstock, N.Y."}
{"PERSONID": 3501, "PLACENAME": "Mass."}
{"PERSONID": 3504, "PLACENAME": "New York, N.Y."}
{"PERSONID": 3505, "PLACENAME": "Los Angeles, Calif."}
{"PERSONID": 3507, "PLACENAME": "Nunspeet, Holland"}
{"PERSONID": 3511, "PLACENAME": "New York, N.Y."}
{"PERSONID": 3514, "PLACENAME": "Conn."}
{"PERSONID": 3527, "PLACENAME": "N.Y."}
{"PERSONID": 3536, "PLACENAME": "Calif."}
{"PERSONID": 3541, "PLACENAME": "Westport, Conn."}
{"PERSONID": 3543, "PLACENAME": "New York, N.Y."}
{"PERSONID": 3546, "PLACENAME": "R.I."}
{"PERSONID": 3547, "PLACENAME": "Birmingham, Mich."}
{"PERSONID": 3547, "PLACENAME": "Cleveland, Ohio"}
{"PERSONID": 3550, "PLACENAME": "New York, N.Y."}
{"PERSONID": 3551, "PLACENAME": "N.Y."}
{"PERSONID": 3551, "PLACENAME": "Rome, Italy"}
{"PERSONID": 3556, "PLACENAME": "Jackson Heights, N.Y."}
{"PERSONID": 3556, "PLACENAME": "New York, N.Y."}
{"PERSONID": 3558, "PLACENAME": "New York, N.Y."}
{"PERSONID": 3570, "PLACENAME": "Los Angeles, Calif."}
{"PERSONID": 3571, "PLACENAME": "New York, N.Y."}
{"PERSONID": 3578, "PLACENAME": "N.Y."}
{"PERSONID": 3583, "PLACENAME": "Cleveland, Ohio"}
{"PERSONID": 3591, "PLACENAME": "Detroit, Mich."}
{"PERSONID": 3594, "PLACENAME": "Calif."}
{"PERSONID": 3594, "PLACENAME": "New York, N.Y."}
{"PERSONID": 3594, "PLACENAME": "Pasadena, Calif."}
{"PERSONID": 3594, "PLACENAME": "Washington, D.C."}
{"PERSONID": 3598, "PLACENAME": "Chicago, Ill."}
{"PERSONID": 3599, "PLACENAME": "Calif."}
{"PERSONID": 3599, "PLACENAME": "New York, N.Y."}
{"PERSONID": 3603, "PLACENAME": "Washington, D.C."}
{"PERSONID": 3604, "PLACENAME": "Washington, D.C."}
{"PERSONID": 3606, "PLACENAME": "New York, N.Y."}
{"PERSONID": 3609, "PLACENAME": "New York, N.Y."}
{"PERSONID": 3615, "PLACENAME": "Chicago, Ill."}
{"PERSONID": 3615, "PLACENAME": "France"}
{"PERSONID": 3615, "PLACENAME": "New York, N.Y."}
{"PERSONID": 3616, "PLACENAME": "Providence, R.I."}
{"PERSONID": 3617, "PLACENAME": "Malmo, Sweden"}
{"PERSONID": 3617, "PLACENAME": "New York, N.Y."}
{"PERSONID": 3621, "PLACENAME": "New York, N.Y."}
{"PERSONID": 3625, "PLACENAME": "New York, N.Y."}
{"PERSONID": 3625, "PLACENAME": "Woodstock, N.Y."}
{"PERSONID": 3628, "PLACENAME": "Boston, Mass."}
{"PERSONID": 3628, "PLACENAME": "Brewster, Mass."}
{"PERSONID": 3631, "PLACENAME": "New York, N.Y."}
{"PERSONID": 3643, "PLACENAME": "New York, N.Y."}
{"PERSONID": 3644, "PLACENAME": "Rome, Italy"}
{"PERSONID": 3644, "PLACENAME": "Sunnyside, N.Y."}
{"PERSONID": 3646, "PLACENAME": "New York, N.Y."}
{"PERSONID": 3649, "PLACENAME": "New York, N.Y."}
{"PERSONID": 3649, "PLACENAME": "Tex."}
{"PERSONID": 3657, "PLACENAME": "New York, N.Y."}
{"PERSONID": 3661, "PLACENAME": "New York, N.Y."}
{"PERSONID": 3663, "PLACENAME": "New York, N.Y."}
{"PERSONID": 3680, "PLACENAME": "New York, N.Y."}
{"PERSONID": 3684, "PLACENAME": "San Francisco, Calif."}
{"PERSONID": 3689, "PLACENAME": "New York, N.Y."}
{"PERSONID": 3689, "PLACENAME": "Woodstock, N.Y."}
{"PERSONID": 3690, "PLACENAME": "Staunton, Va."}
{"PERSONID": 3693, "PLACENAME": "Bound Brook, N.J."}
{"PERSONID": 3693, "PLACENAME": "Cleveland, Ohio"}
{"PERSONID": 3694, "PLACENAME": "Chicago, Ill."}
{"PERSONID": 3701, "PLACENAME": "New York, N.Y."}
{"PERSONID": 3701, "PLACENAME": "Newton, Mass."}
{"PERSONID": 3703, "PLACENAME": "New York, N.Y."}
{"PERSONID": 3704, "PLACENAME": "N.J."}
{"PERSONID": 3704, "PLACENAME": "N.Y."}
{"PERSONID": 3706, "PLACENAME": "Mass."}
{"PERSONID": 3709, "PLACENAME": "New York, N.Y."}
{"PERSONID": 3710, "PLACENAME": "New York, N.Y."}
{"PERSONID": 3721, "PLACENAME": "New York, N.Y."}
{"PERSONID": 3725, "PLACENAME": "Brooklyn, N.Y."}
{"PERSONID": 3725, "PLACENAME": "Mentone, France"}
{"PERSONID": 3725, "PLACENAME": "Nice, France"}
{"PERSONID": 3725, "PLACENAME": "Paris, France"}
{"PERSONID": 3729, "PLACENAME": "New York, N.Y."}
{"PERSONID": 3740, "PLACENAME": "Calif."}
{"PERSONID": 3746, "PLACENAME": "Wellfleet, Mass."}
{"PERSONID": 3747, "PLACENAME": "Los Angeles, Calif."}
{"PERSONID": 3754, "PLACENAME": "New York, N.Y."}
{"PERSONID": 3755, "PLACENAME": "Wynnewood, Pa."}
{"PERSONID": 3757, "PLACENAME": "New York, N.Y."}
{"PERSONID": 3759, "PLACENAME": "N.J."}
{"PERSONID": 3763, "PLACENAME": "New York, N.Y."}
{"PERSONID": 3764, "PLACENAME": "New York, N.Y."}
{"PERSONID": 3766, "PLACENAME": "New York, N.Y."}
{"PERSONID": 3768, "PLACENAME": "Me."}
{"PERSONID": 3774, "PLACENAME": "Paris, France"}
{"PERSONID": 3777, "PLACENAME": "New York, N.Y."}
{"PERSONID": 3777, "PLACENAME": "Washington, D.C."}
{"PERSONID": 3786, "PLACENAME": "San Francisco, Calif."}
{"PERSONID": 3794, "PLACENAME": "Detroit, Mich."}
{"PERSONID": 3795, "PLACENAME": "San Francisco, Calif."}
{"PERSONID": 3799, "PLACENAME": "Marlboro, Vt."}
{"PERSONID": 3807, "PLACENAME": "New York, N.Y."}
{"PERSONID": 3813, "PLACENAME": "Athens, Ga."}
{"PERSONID": 3815, "PLACENAME": "New York, N.Y."}
{"PERSONID": 3825, "PLACENAME": "Pa."}
{"PERSONID": 3830, "PLACENAME": "Europe"}
{"PERSONID": 3830, "PLACENAME": "Rockport, Mass."}
{"PERSONID": 3833, "PLACENAME": "Pittsburgh, Pa."}
{"PERSONID": 3845, "PLACENAME": "France"}
{"PERSONID": 3845, "PLACENAME": "New York, N.Y."}
{"PERSONID": 3850, "PLACENAME": "Mass."}
{"PERSONID": 3853, "PLACENAME": "Los Angeles, Calif."}
{"PERSONID": 3853, "PLACENAME": "New York, N.Y."}
{"PERSONID": 3859, "PLACENAME": "Detroit, Mich."}
{"PERSONID": 3862, "PLACENAME": "San Diego, Calif."}
{"PERSONID": 3865, "PLACENAME": "New York, N.Y."}
{"PERSONID": 3866, "PLACENAME": "New York, N.Y."}
{"PERSONID": 3871, "PLACENAME": "New York, N.Y."}
{"PERSONID": 3872, "PLACENAME": "New York, N.Y."}
{"PERSONID": 3875, "PLACENAME": "Calif."}
{"PERSONID": 3877, "PLACENAME": "Bronxville, N.Y."}
{"PERSONID": 3877, "PLACENAME": "Paris, France"}
{"PERSONID": 3877, "PLACENAME": "St. Louis, Mo."}
{"PERSONID": 3878, "PLACENAME": "Woodstock, N.Y."}
{"PERSONID": 3883, "PLACENAME": "N.Y."}
{"PERSONID": 3884, "PLACENAME": "Santa Fe, N.M."}
{"PERSONID": 3885, "PLACENAME": "Boston, Mass."}
{"PERSONID": 3886, "PLACENAME": "Dorset, Vt."}
{"PERSONID": 3889, "PLACENAME": "New York, N.Y."}
{"PERSONID": 3890, "PLACENAME": "Provincetown, Mass."}
{"PERSONID": 3891, "PLACENAME": "Boston, Mass."}
{"PERSONID": 3903, "PLACENAME": "Los Angeles, Calif."}
{"PERSONID": 3905, "PLACENAME": "Miami, Fla."}
{"PERSONID": 3907, "PLACENAME": "Calif."}
{"PERSONID": 3909, "PLACENAME": "Philadelphia, Pa."}
{"PERSONID": 3914, "PLACENAME": "New York, N.Y."}
{"PERSONID": 3915, "PLACENAME": "New York, N.Y."}
{"PERSONID": 3921, "PLACENAME": "Cody, Wyo."}
{"PERSONID": 3926, "PLACENAME": "Austin, Tex."}
{"PERSONID": 3927, "PLACENAME": "Cambridge, Mass."}
{"PERSONID": 3928, "PLACENAME": "Richmond, Va."}
{"PERSONID": 3928, "PLACENAME": "Salisbury, Vt."}
{"PERSONID": 3932, "PLACENAME": "New York, N.Y."}
{"PERSONID": 3933, "PLACENAME": "Milwaukee, Wis."}
{"PERSONID": 3935, "PLACENAME": "New York, N.Y."}
{"PERSONID": 3936, "PLACENAME": "Sonoma, Calif."}
{"PERSONID": 3939, "PLACENAME": "Washington, D.C."}
{"PERSONID": 3948, "PLACENAME": "San Francisco, Calif."}
{"PERSONID": 3964, "PLACENAME": "San Francisco, Calif."}
{"PERSONID": 3970, "PLACENAME": "New York, N.Y."}
{"PERSONID": 3970, "PLACENAME": "Provincetown, Mass."}
{"PERSONID": 3979, "PLACENAME": "Chicago, Ill."}
{"PERSONID": 3985, "PLACENAME": "N.Y."}
{"PERSONID": 3987, "PLACENAME": "Montague, Mass."}
{"PERSONID": 3988, "PLACENAME": "New York, N.Y."}
{"PERSONID": 3988, "PLACENAME": "Provincetown, Mass."}
{"PERSONID": 3991, "PLACENAME": "Irvington-on-Hudson, N.Y."}
{"PERSONID": 3992, "PLACENAME": "New York, N.Y."}
{"PERSONID": 3996, "PLACENAME": "New York, N.Y."}
{"PERSONID": 3997, "PLACENAME": "New York, N.Y."}
{"PERSONID": 3998, "PLACENAME": "Temple Terrace, Fla."}
{"PERSONID": 4004, "PLACENAME": "New York, N.Y."}
{"PERSONID": 4005, "PLACENAME": "New York, N.Y."}
{"PERSONID": 4010, "PLACENAME": "New York, N.Y."}
{"PERSONID": 4012, "PLACENAME": "Carmel, N.Y."}
{"PERSONID": 4014, "PLACENAME": "Oakland, Calif."}
{"PERSONID": 4016, "PLACENAME": "Dallas, Tex."}
{"PERSONID": 4018, "PLACENAME": "New York, N.Y."}
{"PERSONID": 4028, "PLACENAME": "New York, N.Y."}
{"PERSONID": 4039, "PLACENAME": "Cleveland, Ohio"}
{"PERSONID": 4042, "PLACENAME": "Mass."}
{"PERSONID": 4044, "PLACENAME": "Buffalo, N.Y."}
{"PERSONID": 4044, "PLACENAME": "New York, N.Y."}
{"PERSONID": 4044, "PLACENAME": "Philadelphia, Pa."}
{"PERSONID": 4045, "PLACENAME": "Honolulu"}
{"PERSONID": 4045, "PLACENAME": "New York, N.Y."}
{"PERSONID": 4047, "PLACENAME": "New York, N.Y."}
{"PERSONID": 4052, "PLACENAME": "Minneapolis, Minn."}
{"PERSONID": 4052, "PLACENAME": "New York, N.Y."}
{"PERSONID": 4055, "PLACENAME": "Boston, Mass."}
{"PERSONID": 4057, "PLACENAME": "New York, N.Y."}
{"PERSONID": 4058, "PLACENAME": "Bearsville, N.Y."}
{"PERSONID": 4058, "PLACENAME": "New York, N.Y."}
{"PERSONID": 4059, "PLACENAME": "New York, N.Y."}
{"PERSONID": 4064, "PLACENAME": "New York, N.Y."}
{"PERSONID": 4074, "PLACENAME": "Yonkers, N.Y."}
{"PERSONID": 4076, "PLACENAME": "New York, N.Y."}
{"PERSONID": 4076, "PLACENAME": "Paris, France"}
{"PERSONID": 4078, "PLACENAME": "New York, N.Y."}
{"PERSONID": 4079, "PLACENAME": "New York, N.Y."}
{"PERSONID": 4082, "PLACENAME": "New York, N.Y."}
{"PERSONID": 4083, "PLACENAME": "Los Angeles, Calif."}
{"PERSONID": 4083, "PLACENAME": "New York, N.Y."}
{"PERSONID": 4084, "PLACENAME": "Park Ridge, N.J."}
{"PERSONID": 4087, "PLACENAME": "Detroit, Mich."}
{"PERSONID": 4089, "PLACENAME": "Cincinnati, Ohio"}
{"PERSONID": 4089, "PLACENAME": "New York, N.Y."}
{"PERSONID": 4093, "PLACENAME": "New York, N.Y."}
{"PERSONID": 4095, "PLACENAME": "Detroit, Mich."}
{"PERSONID": 4099, "PLACENAME": "New York, N.Y."}
{"PERSONID": 4099, "PLACENAME": "Rockport, Mass."}
{"PERSONID": 4101, "PLACENAME": "Bermuda"}
{"PERSONID": 4101, "PLACENAME": "New York, N.Y."}
{"PERSONID": 4101, "PLACENAME": "Quebec, Canada"}
{"PERSONID": 4101, "PLACENAME": "Washington, D.C."}
{"PERSONID": 4104, "PLACENAME": "Newton Centre, Mass."}
{"PERSONID": 4110, "PLACENAME": "Calif."}
{"PERSONID": 4111, "PLACENAME": "San Francisco, Calif."}
{"PERSONID": 4113, "PLACENAME": "Miami, Fla."}
{"PERSONID": 4116, "PLACENAME": "Detroit, Mich."}
{"PERSONID": 4123, "PLACENAME": "Boston, Mass."}
{"PERSONID": 4124, "PLACENAME": "Pa."}
{"PERSONID": 4126, "PLACENAME": "New York, N.Y."}
{"PERSONID": 4128, "PLACENAME": "New York, N.Y."}
{"PERSONID": 4128, "PLACENAME": "Washington, D.C."}
{"PERSONID": 4131, "PLACENAME": "New York, N.Y."}
{"PERSONID": 4132, "PLACENAME": "Los Angeles, Calif."}
{"PERSONID": 4142, "PLACENAME": "Ind."}
{"PERSONID": 4142, "PLACENAME": "New York, N.Y."}
{"PERSONID": 4150, "PLACENAME": "Buckhannon, W.V."}
{"PERSONID": 4150, "PLACENAME": "Europe"}
{"PERSONID": 4150, "PLACENAME": "Provincetown, Mass."}
{"PERSONID": 4167, "PLACENAME": "New York, N.Y."}
{"PERSONID": 4170, "PLACENAME": "New York, N.Y."}
{"PERSONID": 4174, "PLACENAME": "Palm Springs, Calif."}
{"PERSONID": 4176, "PLACENAME": "New York, N.Y."}
{"PERSONID": 4178, "PLACENAME": "New York, N.Y."}
{"PERSONID": 4180, "PLACENAME": "Seattle, Wash."}
{"PERSONID": 4181, "PLACENAME": "Albany, N.Y."}
{"PERSONID": 4186, "PLACENAME": "New York, N.Y."}
{"PERSONID": 4188, "PLACENAME": "Coronado, Calif."}
{"PERSONID": 4191, "PLACENAME": "New York, N.Y."}
{"PERSONID": 4193, "PLACENAME": "New York, N.Y."}
{"PERSONID": 4195, "PLACENAME": "Middletown, Conn."}
{"PERSONID": 4204, "PLACENAME": "New York, N.Y."}
{"PERSONID": 4205, "PLACENAME": "New York, N.Y."}
{"PERSONID": 4209, "PLACENAME": "Detroit, Mich."}
{"PERSONID": 4210, "PLACENAME": "Detroit, Mich."}
{"PERSONID": 4212, "PLACENAME": "New York, N.Y."}
{"PERSONID": 4215, "PLACENAME": "Butte, Mont."}
{"PERSONID": 4216, "PLACENAME": "New York, N.Y."}
{"PERSONID": 4217, "PLACENAME": "New York, N.Y."}
{"PERSONID": 4219, "PLACENAME": "Boston, Mass."}
{"PERSONID": 4219, "PLACENAME": "New York, N.Y."}
{"PERSONID": 4220, "PLACENAME": "Los Angeles, Calif."}
{"PERSONID": 4223, "PLACENAME": "New York, N.Y."}
{"PERSONID": 4229, "PLACENAME": "New York, N.Y."}
{"PERSONID": 4237, "PLACENAME": "Martha's Vineyard, Mass."}
{"PERSONID": 4237, "PLACENAME": "New Britain, Conn."}
{"PERSONID": 4241, "PLACENAME": "Chicago, Ill."}
{"PERSONID": 4242, "PLACENAME": "New York, N.Y."}
{"PERSONID": 4245, "PLACENAME": "Santa Barbara, Calif."}
{"PERSONID": 4245, "PLACENAME": "Toledo, Ohio"}
{"PERSONID": 4246, "PLACENAME": "Mount Holly, N.J."}
{"PERSONID": 4246, "PLACENAME": "New York, N.Y."}
{"PERSONID": 4247, "PLACENAME": "New York, N.Y."}
{"PERSONID": 4248, "PLACENAME": "Detroit, Mich."}
{"PERSONID": 4249, "PLACENAME": "New York, N.Y."}
{"PERSONID": 4251, "PLACENAME": "Chatsworth, Calif."}
{"PERSONID": 4259, "PLACENAME": "Woodstock, N.Y."}
{"PERSONID": 4267, "PLACENAME": "Provincetown, Mass."}
{"PERSONID": 4270, "PLACENAME": "New York, N.Y."}
{"PERSONID": 4274, "PLACENAME": "Cleveland, Ohio"}
{"PERSONID": 4274, "PLACENAME": "Port Washington, N.Y."}
{"PERSONID": 4276, "PLACENAME": "New York, N.Y."}
{"PERSONID": 4277, "PLACENAME": "New York, N.Y."}
{"PERSONID": 4278, "PLACENAME": "New York, N.Y."}
{"PERSONID": 4282, "PLACENAME": "New York, N.Y."}
{"PERSONID": 4284, "PLACENAME": "New York, N.Y."}
{"PERSONID": 4286, "PLACENAME": "East Gloucester, Mass."}
{"PERSONID": 4286, "PLACENAME": "New York, N.Y."}
{"PERSONID": 4290, "PLACENAME": "Halifax, Vt."}
{"PERSONID": 4294, "PLACENAME": "Dorset, Vt."}
{"PERSONID": 4294, "PLACENAME": "France"}
{"PERSONID": 4295, "PLACENAME": "Ormond Beach, Fla."}
{"PERSONID": 4307, "PLACENAME": "Albuquerque, N.M."}
{"PERSONID": 4307, "PLACENAME": "Hollywood, Calif."}
{"PERSONID": 4307, "PLACENAME": "San Francisco, Calif."}
{"PERSONID": 4308, "PLACENAME": "Woodstock, N.Y."}
{"PERSONID": 4312, "PLACENAME": "New York, N.Y."}
{"PERSONID": 4321, "PLACENAME": "Pebble Beach, Calif."}
{"PERSONID": 4326, "PLACENAME": "Worcester, Mass."}
{"PERSONID": 4327, "PLACENAME": "New York, N.Y."}
{"PERSONID": 4333, "PLACENAME": "New York, N.Y."}
{"PERSONID": 4334, "PLACENAME": "New York, N.Y."}
{"PERSONID": 4335, "PLACENAME": "Provincetown, Mass."}
{"PERSONID": 4341, "PLACENAME": "New York, N.Y."}
{"PERSONID": 4345, "PLACENAME": "Austin, Tex."}
{"PERSONID": 4350, "PLACENAME": "New York, N.Y."}
{"PERSONID": 4351, "PLACENAME": "New York, N.Y."}
{"PERSONID": 4353, "PLACENAME": "New York, N.Y."}
{"PERSONID": 4353, "PLACENAME": "Venice, Italy"}
{"PERSONID": 4354, "PLACENAME": "New York, N.Y."}
{"PERSONID": 4364, "PLACENAME": "Philadelphia, Pa."}
{"PERSONID": 4370, "PLACENAME": "New York, N.Y."}
{"PERSONID": 4373, "PLACENAME": "New York, N.Y."}
{"PERSONID": 4376, "PLACENAME": "Provincetown, Mass."}
{"PERSONID": 4387, "PLACENAME": "New York, N.Y."}
{"PERSONID": 4387, "PLACENAME": "Watertown, Conn."}
{"PERSONID": 4388, "PLACENAME": "Boston, Mass."}
{"PERSONID": 4389, "PLACENAME": "New York, N.Y."}
{"PERSONID": 4391, "PLACENAME": "New York, N.Y."}
{"PERSONID": 4392, "PLACENAME": "Minn."}
{"PERSONID": 4392, "PLACENAME": "New York, N.Y."}
{"PERSONID": 4396, "PLACENAME": "New York, N.Y."}
{"PERSONID": 4403, "PLACENAME": "New York, N.Y."}
{"PERSONID": 4416, "PLACENAME": "New York, N.Y."}
{"PERSONID": 4416, "PLACENAME": "Washington, D.C."}
{"PERSONID": 4424, "PLACENAME": "New York, N.Y."}
{"PERSONID": 4425, "PLACENAME": "Croton-on-Hudson, N.Y."}
{"PERSONID": 4426, "PLACENAME": "Bennington, Vt."}
{"PERSONID": 4429, "PLACENAME": "Pomona, N.Y."}
{"PERSONID": 4430, "PLACENAME": "Conn."}
{"PERSONID": 4430, "PLACENAME": "New York, N.Y."}
{"PERSONID": 4440, "PLACENAME": "Liverpool, England"}
{"PERSONID": 4441, "PLACENAME": "Athens, Ga."}
{"PERSONID": 4447, "PLACENAME": "Carmel, N.Y."}
{"PERSONID": 4458, "PLACENAME": "New York, N.Y."}
{"PERSONID": 4462, "PLACENAME": "New York, N.Y."}
{"PERSONID": 4467, "PLACENAME": "Augusta, Ga."}
{"PERSONID": 4467, "PLACENAME": "England"}
{"PERSONID": 4467, "PLACENAME": "France"}
{"PERSONID": 4467, "PLACENAME": "New Hope, Pa."}
{"PERSONID": 4467, "PLACENAME": "New York, N.Y."}
{"PERSONID": 4469, "PLACENAME": "N.Y."}
{"PERSONID": 4484, "PLACENAME": "San Francisco, Calif."}
{"PERSONID": 4488, "PLACENAME": "San Francisco, Calif."}
{"PERSONID": 4491, "PLACENAME": "Cos Cob, Conn."}
{"PERSONID": 4491, "PLACENAME": "New York, N.Y."}
{"PERSONID": 4502, "PLACENAME": "San Francisco, Calif."}
{"PERSONID": 4505, "PLACENAME": "Syracuse, N.Y."}
{"PERSONID": 4506, "PLACENAME": "San Francisco, Calif."}
{"PERSONID": 4508, "PLACENAME": "New York, N.Y."}
{"PERSONID": 4512, "PLACENAME": "Chatham, Mass."}
{"PERSONID": 4523, "PLACENAME": "Houston, Tex."}
{"PERSONID": 4536, "PLACENAME": "Mich."}
{"PERSONID": 4536, "PLACENAME": "N.Y."}
{"PERSONID": 4538, "PLACENAME": "Detroit, Mich."}
{"PERSONID": 4540, "PLACENAME": "Santa Barbara, Calif."}
{"PERSONID": 4546, "PLACENAME": "New York, N.Y."}
{"PERSONID": 4547, "PLACENAME": "Santa Barbara, Calif."}
{"PERSONID": 4555, "PLACENAME": "San Francisco, Calif."}
{"PERSONID": 4559, "PLACENAME": "Essex, Conn."}
{"PERSONID": 4565, "PLACENAME": "Cambridge, Mass."}
{"PERSONID": 4565, "PLACENAME": "Dublin, N.H."}
{"PERSONID": 4565, "PLACENAME": "Florence, Italy"}
{"PERSONID": 4565, "PLACENAME": "Paris, France"}
{"PERSONID": 4567, "PLACENAME": "Deer Isle, Me."}
{"PERSONID": 4569, "PLACENAME": "Providence, R.I."}
{"PERSONID": 4576, "PLACENAME": "Rockport, Mass."}
{"PERSONID": 4579, "PLACENAME": "Beverly Hills, Calif."}
{"PERSONID": 4581, "PLACENAME": "Long Island, N.Y."}
{"PERSONID": 4582, "PLACENAME": "New York, N.Y."}
{"PERSONID": 4584, "PLACENAME": "Long Island, N.Y."}
{"PERSONID": 4585, "PLACENAME": "New York, N.Y."}
{"PERSONID": 4585, "PLACENAME": "Richmond, Mass."}
{"PERSONID": 4586, "PLACENAME": "Southbury, Conn."}
{"PERSONID": 4588, "PLACENAME": "Boston, Mass."}
{"PERSONID": 4589, "PLACENAME": "France"}
{"PERSONID": 4589, "PLACENAME": "New York, N.Y."}
{"PERSONID": 4590, "PLACENAME": "Montchanin, Del."}
{"PERSONID": 4596, "PLACENAME": "San Francisco, Calif."}
{"PERSONID": 4603, "PLACENAME": "Boston, Mass."}
{"PERSONID": 4612, "PLACENAME": "Westbrookfield, N.Y."}
{"PERSONID": 4615, "PLACENAME": "Chicago, Ill."}
{"PERSONID": 4620, "PLACENAME": "Oakland, Calif."}
{"PERSONID": 4620, "PLACENAME": "San Francisco, Calif."}
{"PERSONID": 4624, "PLACENAME": "New York, N.Y."}
{"PERSONID": 4626, "PLACENAME": "Boston, Mass."}
{"PERSONID": 4626, "PLACENAME": "Denver, Colo."}
{"PERSONID": 4626, "PLACENAME": "Portland, Me."}
{"PERSONID": 4626, "PLACENAME": "Washington, D.C."}
{"PERSONID": 4633, "PLACENAME": "Boston, Mass."}
{"PERSONID": 4634, "PLACENAME": "New York, N.Y."}
{"PERSONID": 4635, "PLACENAME": "Cambridge, Mass."}
{"PERSONID": 4635, "PLACENAME": "Houston, Tex."}
{"PERSONID": 4637, "PLACENAME": "New York, N.Y."}
{"PERSONID": 4637, "PLACENAME": "Tuscaloosa, Ala."}
{"PERSONID": 4640, "PLACENAME": "Rochester, N.Y"}
{"PERSONID": 4643, "PLACENAME": "Raleigh, N.C."}
{"PERSONID": 4644, "PLACENAME": "Los Angeles, Calif."}
{"PERSONID": 4654, "PLACENAME": "New York, N.Y."}
{"PERSONID": 4657, "PLACENAME": "San Francisco, Calif."}
{"PERSONID": 4664, "PLACENAME": "Provincetown, Mass."}
{"PERSONID": 4674, "PLACENAME": "Mass."}
{"PERSONID": 4677, "PLACENAME": "Washington, D.C."}
{"PERSONID": 4679, "PLACENAME": "San Francisco, Calif."}
{"PERSONID": 4680, "PLACENAME": "New York, N.Y."}
{"PERSONID": 4681, "PLACENAME": "Colorado Springs, Colo."}
{"PERSONID": 4681, "PLACENAME": "New York, N.Y."}
{"PERSONID": 4681, "PLACENAME": "Paris, France"}
{"PERSONID": 4684, "PLACENAME": "New York, N.Y."}
{"PERSONID": 4685, "PLACENAME": "Calif."}
{"PERSONID": 4685, "PLACENAME": "New York, N.Y."}
{"PERSONID": 4687, "PLACENAME": "Philadelphia, Pa."}
{"PERSONID": 4690, "PLACENAME": "New York, N.Y."}
{"PERSONID": 4691, "PLACENAME": "New York, N.Y."}
{"PERSONID": 4693, "PLACENAME": "New York, N.Y."}
{"PERSONID": 4699, "PLACENAME": "New York, N.Y."}
{"PERSONID": 4699, "PLACENAME": "Washington, D.C."}
{"PERSONID": 4702, "PLACENAME": "New York, N.Y."}
{"PERSONID": 4703, "PLACENAME": "Boston, Mass."}
{"PERSONID": 4719, "PLACENAME": "Boston, Mass."}
{"PERSONID": 4726, "PLACENAME": "Seattle, Wash."}
{"PERSONID": 4730, "PLACENAME": "Buffalo, N.Y."}
{"PERSONID": 4730, "PLACENAME": "Long Island, N.Y."}
{"PERSONID": 4735, "PLACENAME": "New York, N.Y."}
{"PERSONID": 4737, "PLACENAME": "Los Angeles, Calif."}
{"PERSONID": 4738, "PLACENAME": "New York, N.Y."}
{"PERSONID": 4745, "PLACENAME": "New York, N.Y."}
{"PERSONID": 4749, "PLACENAME": "Youngstown, Ohio"}
{"PERSONID": 4751, "PLACENAME": "New York, N.Y."}
{"PERSONID": 4751, "PLACENAME": "Paris, France"}
{"PERSONID": 4751, "PLACENAME": "St. Louis, Mo."}
{"PERSONID": 4751, "PLACENAME": "Zurich, Switzerland"}
{"PERSONID": 4752, "PLACENAME": "New York, N.Y."}
{"PERSONID": 4753, "PLACENAME": "Woodstock, N.Y."}
{"PERSONID": 4762, "PLACENAME": "New York, N.Y."}
{"PERSONID": 4765, "PLACENAME": "New York, N.Y."}
{"PERSONID": 4773, "PLACENAME": "New York, N.Y."}
{"PERSONID": 4779, "PLACENAME": "New York, N.Y."}
{"PERSONID": 4782, "PLACENAME": "New York, N.Y."}
{"PERSONID": 4783, "PLACENAME": "Calif."}
{"PERSONID": 4785, "PLACENAME": "Mass."}
{"PERSONID": 4785, "PLACENAME": "N.Y."}
{"PERSONID": 4793, "PLACENAME": "New York, N.Y."}
{"PERSONID": 4794, "PLACENAME": "Fla."}
{"PERSONID": 4798, "PLACENAME": "New York, N.Y."}
{"PERSONID": 4799, "PLACENAME": "Los Angeles, Calif."}
{"PERSONID": 4806, "PLACENAME": "Pittsburgh, Pa."}
{"PERSONID": 4806, "PLACENAME": "Sweden"}
{"PERSONID": 4808, "PLACENAME": "Bennington, Vt."}
{"PERSONID": 4810, "PLACENAME": "New York, N.Y."}
{"PERSONID": 4815, "PLACENAME": "Los Angeles, Calif."}
{"PERSONID": 4823, "PLACENAME": "Pa."}
{"PERSONID": 4824, "PLACENAME": "New York, N.Y."}
{"PERSONID": 4827, "PLACENAME": "New York, N.Y."}
{"PERSONID": 4836, "PLACENAME": "New York, N.Y."}
{"PERSONID": 4838, "PLACENAME": "Rye, N.Y."}
{"PERSONID": 4840, "PLACENAME": "Australia"}
{"PERSONID": 4840, "PLACENAME": "New York, N.Y."}
{"PERSONID": 4840, "PLACENAME": "Paris, France"}
{"PERSONID": 4846, "PLACENAME": "Ohio"}
{"PERSONID": 4848, "PLACENAME": "Waltham, Mass."}
{"PERSONID": 4851, "PLACENAME": "New York, N.Y."}
{"PERSONID": 4855, "PLACENAME": "New York, N.Y."}
{"PERSONID": 4858, "PLACENAME": "New York, N.Y."}
{"PERSONID": 4859, "PLACENAME": "New York, N.Y."}
{"PERSONID": 4861, "PLACENAME": "New York, N.Y."}
{"PERSONID": 4861, "PLACENAME": "Philadelphia, Pa."}
{"PERSONID": 4870, "PLACENAME": "New York, N.Y."}
{"PERSONID": 4871, "PLACENAME": "Mich."}
{"PERSONID": 4873, "PLACENAME": "Great Neck, N.Y."}
{"PERSONID": 4875, "PLACENAME": "New York, N.Y."}
{"PERSONID": 4887, "PLACENAME": "Chesnut Hill, Mass."}
{"PERSONID": 4887, "PLACENAME": "Weston, Conn."}
{"PERSONID": 4900, "PLACENAME": "New York, N.Y."}
{"PERSONID": 4906, "PLACENAME": "San Francisco, Calif."}
{"PERSONID": 4911, "PLACENAME": "New York, N.Y."}
{"PERSONID": 4927, "PLACENAME": "New Bedford, Mass."}
{"PERSONID": 4931, "PLACENAME": "Highland Park, Mich."}
{"PERSONID": 4933, "PLACENAME": "Asbury Park, N.J."}
{"PERSONID": 4933, "PLACENAME": "New York, N.Y."}
{"PERSONID": 4934, "PLACENAME": "Chile"}
{"PERSONID": 4934, "PLACENAME": "N.Y."}
{"PERSONID": 4934, "PLACENAME": "Paris, France"}
{"PERSONID": 4934, "PLACENAME": "Provincetown, Mass."}
{"PERSONID": 4934, "PLACENAME": "Taos, N.M."}
{"PERSONID": 4935, "PLACENAME": "Boston, Mass."}
{"PERSONID": 4935, "PLACENAME": "Dublin, N.H."}
{"PERSONID": 4936, "PLACENAME": "Woodstock, N.Y."}
{"PERSONID": 4946, "PLACENAME": "New York, N.Y."}
{"PERSONID": 4947, "PLACENAME": "New York, N.Y."}
{"PERSONID": 4952, "PLACENAME": "New York, N.Y."}
{"PERSONID": 4953, "PLACENAME": "Redding Ridge, Conn."}
{"PERSONID": 4955, "PLACENAME": "New York, N.Y."}
{"PERSONID": 4955, "PLACENAME": "Woodstock, N.Y."}
{"PERSONID": 4957, "PLACENAME": "N.H."}
{"PERSONID": 4958, "PLACENAME": "N.Y."}
{"PERSONID": 4959, "PLACENAME": "Calif."}
{"PERSONID": 4959, "PLACENAME": "New York, N.Y."}
{"PERSONID": 4960, "PLACENAME": "Bronx, N.Y."}
{"PERSONID": 4960, "PLACENAME": "Wyandanoh, N.Y."}
{"PERSONID": 4964, "PLACENAME": "Greenwich, England"}
{"PERSONID": 4964, "PLACENAME": "New York, N.Y."}
{"PERSONID": 4967, "PLACENAME": "Chatham, Mass."}
{"PERSONID": 4967, "PLACENAME": "Long Island, N.Y."}
{"PERSONID": 4971, "PLACENAME": "New York, N.Y."}
{"PERSONID": 4971, "PLACENAME": "Paris, France"}
{"PERSONID": 4987, "PLACENAME": "New York, N.Y."}
{"PERSONID": 4999, "PLACENAME": "Detroit, Mich."}
{"PERSONID": 5000, "PLACENAME": "Philadelphia, Pa."}
{"PERSONID": 5003, "PLACENAME": "San Francisco, Calif."}
{"PERSONID": 5009, "PLACENAME": "New York, N.Y."}
{"PERSONID": 5015, "PLACENAME": "New York, N.Y."}
{"PERSONID": 5016, "PLACENAME": "Chicago, Ill."}
{"PERSONID": 5021, "PLACENAME": "New York, N.Y."}
{"PERSONID": 5026, "PLACENAME": "Paris, France"}
{"PERSONID": 5027, "PLACENAME": "New York, N.Y."}
{"PERSONID": 5034, "PLACENAME": "Conn."}
{"PERSONID": 5034, "PLACENAME": "N.H."}
{"PERSONID": 5040, "PLACENAME": "New York, N.Y."}
{"PERSONID": 5042, "PLACENAME": "Ill."}
{"PERSONID": 5063, "PLACENAME": "Chicago, Ill."}
{"PERSONID": 5068, "PLACENAME": "Seattle, Wash."}
{"PERSONID": 5069, "PLACENAME": "Calif."}
{"PERSONID": 5073, "PLACENAME": "New York, N.Y."}
{"PERSONID": 5073, "PLACENAME": "Woodstock, N.Y."}
{"PERSONID": 5081, "PLACENAME": "Cleveland, Ohio"}
{"PERSONID": 5082, "PLACENAME": "N.Y."}
{"PERSONID": 5086, "PLACENAME": "New York, N.Y."}
{"PERSONID": 5089, "PLACENAME": "Sausalito, Calif."}
{"PERSONID": 5090, "PLACENAME": "Colo."}
{"PERSONID": 5092, "PLACENAME": "N.Y."}
{"PERSONID": 5094, "PLACENAME": "New York, N.Y."}
{"PERSONID": 5097, "PLACENAME": "Baltimore, Md."}
{"PERSONID": 5098, "PLACENAME": "New York, N.Y."}
{"PERSONID": 5103, "PLACENAME": "New York, N.Y."}
{"PERSONID": 5104, "PLACENAME": "Detroit, Mich."}
{"PERSONID": 5108, "PLACENAME": "Seattle, Wash."}
{"PERSONID": 5111, "PLACENAME": "Detroit, Mich."}
{"PERSONID": 5111, "PLACENAME": "New York, N.Y."}
{"PERSONID": 5121, "PLACENAME": "New York, N.Y."}
{"PERSONID": 5126, "PLACENAME": "Bearsville, N.Y."}
{"PERSONID": 5126, "PLACENAME": "New York, N.Y."}
{"PERSONID": 5129, "PLACENAME": "Washington, D.C."}
{"PERSONID": 5130, "PLACENAME": "Montclair, N.J."}
{"PERSONID": 5130, "PLACENAME": "New York, N.Y."}
{"PERSONID": 5133, "PLACENAME": "N.Y."}
{"PERSONID": 5135, "PLACENAME": "New York, N.Y."}
{"PERSONID": 5136, "PLACENAME": "Mont."}
{"PERSONID": 5139, "PLACENAME": "New York, N.Y."}
{"PERSONID": 5146, "PLACENAME": "Conn."}
{"PERSONID": 5149, "PLACENAME": "Boston, Mass."}
{"PERSONID": 5152, "PLACENAME": "New York, N.Y."}
{"PERSONID": 5165, "PLACENAME": "Detroit, Mich."}
{"PERSONID": 5165, "PLACENAME": "Netherlands"}
{"PERSONID": 5167, "PLACENAME": "Md."}
{"PERSONID": 5168, "PLACENAME": "New York, N.Y."}
{"PERSONID": 5168, "PLACENAME": "Portland, Or."}
{"PERSONID": 5169, "PLACENAME": "N.Y."}
{"PERSONID": 5172, "PLACENAME": "New York, N.Y."}
{"PERSONID": 5175, "PLACENAME": "N.Y."}
{"PERSONID": 5184, "PLACENAME": "Bethesda, Md."}
{"PERSONID": 5184, "PLACENAME": "Chatham, Mass."}
{"PERSONID": 5185, "PLACENAME": "New York, N.Y."}
{"PERSONID": 5191, "PLACENAME": "Philadelphia, Pa."}
{"PERSONID": 5195, "PLACENAME": "New York, N.Y."}
{"PERSONID": 5200, "PLACENAME": "New York, N.Y."}
{"PERSONID": 5201, "PLACENAME": "New York, N.Y."}
{"PERSONID": 5204, "PLACENAME": "New York, N.Y."}
{"PERSONID": 5206, "PLACENAME": "Ill."}
{"PERSONID": 5217, "PLACENAME": "New York, N.Y."}
{"PERSONID": 5218, "PLACENAME": "Calif."}
{"PERSONID": 5223, "PLACENAME": "New York, N.Y."}
{"PERSONID": 5229, "PLACENAME": "Venice, Calif."}
{"PERSONID": 5232, "PLACENAME": "Philadelphia, Pa."}
{"PERSONID": 5236, "PLACENAME": "Boston, Mass."}
{"PERSONID": 5237, "PLACENAME": "Philadelphia, Pa."}
{"PERSONID": 5243, "PLACENAME": "Chicago, Ill."}
{"PERSONID": 5246, "PLACENAME": "New York, N.Y."}
{"PERSONID": 5248, "PLACENAME": "Brooklyn, N.Y."}
{"PERSONID": 5248, "PLACENAME": "New York, N.Y."}
{"PERSONID": 5249, "PLACENAME": "New York, N.Y."}
{"PERSONID": 5249, "PLACENAME": "Old Lyme, Conn."}
{"PERSONID": 5259, "PLACENAME": "Boston, Mass."}
{"PERSONID": 5259, "PLACENAME": "Paris, France"}
{"PERSONID": 5259, "PLACENAME": "Rockport, Mass."}
{"PERSONID": 5259, "PLACENAME": "Winchester, Mass."}
{"PERSONID": 5260, "PLACENAME": "Gardner, Mass."}
{"PERSONID": 5261, "PLACENAME": "Calif."}
{"PERSONID": 5261, "PLACENAME": "Glen Ridge, N.J."}
{"PERSONID": 5262, "PLACENAME": "Sausalito, Calif."}
{"PERSONID": 5268, "PLACENAME": "N.J."}
{"PERSONID": 5269, "PLACENAME": "New York, N.Y."}
{"PERSONID": 5270, "PLACENAME": "Old Lyme, Conn."}
{"PERSONID": 5281, "PLACENAME": "New York, N.Y."}
{"PERSONID": 5283, "PLACENAME": "Falls Village, Conn."}
{"PERSONID": 5300, "PLACENAME": "Nyack, N.Y."}
{"PERSONID": 5303, "PLACENAME": "Woodstock, N.Y."}
{"PERSONID": 5305, "PLACENAME": "Boston, Mass."}
{"PERSONID": 5307, "PLACENAME": "Mass."}
{"PERSONID": 5314, "PLACENAME": "Baltimore, Md."}
{"PERSONID": 5315, "PLACENAME": "Cambridge, Md."}
{"PERSONID": 5315, "PLACENAME": "New York, N.Y."}
{"PERSONID": 5322, "PLACENAME": "New York, N.Y."}
{"PERSONID": 5322, "PLACENAME": "Washington, D.C."}
{"PERSONID": 5323, "PLACENAME": "Detroit, Mich."}
{"PERSONID": 5324, "PLACENAME": "New York, N.Y."}
{"PERSONID": 5329, "PLACENAME": "France"}
{"PERSONID": 5329, "PLACENAME": "Iowa"}
{"PERSONID": 5329, "PLACENAME": "New York, N.Y."}
{"PERSONID": 5336, "PLACENAME": "Calif."}
{"PERSONID": 5336, "PLACENAME": "N.Y."}
{"PERSONID": 5341, "PLACENAME": "Hollywood, Calif."}
{"PERSONID": 5341, "PLACENAME": "New York, N.Y."}
{"PERSONID": 5341, "PLACENAME": "Paris, France"}
{"PERSONID": 5341, "PLACENAME": "U.S."}
{"PERSONID": 5353, "PLACENAME": "Boston, Mass."}
{"PERSONID": 5355, "PLACENAME": "Irvington, N.Y."}
{"PERSONID": 5356, "PLACENAME": "New York, N.Y."}
{"PERSONID": 5360, "PLACENAME": "Calif."}
{"PERSONID": 5361, "PLACENAME": "New York, N.Y."}
{"PERSONID": 5361, "PLACENAME": "Philadelphia, Pa."}
{"PERSONID": 5363, "PLACENAME": "N.Y."}
{"PERSONID": 5370, "PLACENAME": "New York, N.Y."}
{"PERSONID": 5371, "PLACENAME": "Calif."}
{"PERSONID": 5372, "PLACENAME": "Baltimore, Md."}
{"PERSONID": 5373, "PLACENAME": "New York, N.Y."}
{"PERSONID": 5374, "PLACENAME": "London, Ohio"}
{"PERSONID": 5374, "PLACENAME": "Paris, France"}
{"PERSONID": 5376, "PLACENAME": "New York, N.Y."}
{"PERSONID": 5377, "PLACENAME": "Philadelphia, Pa."}
{"PERSONID": 5380, "PLACENAME": "San Francisco, Calif."}
{"PERSONID": 5381, "PLACENAME": "New York, N.Y."}
{"PERSONID": 5383, "PLACENAME": "New York, N.Y."}
{"PERSONID": 5384, "PLACENAME": "New York, N.Y."}
{"PERSONID": 5385, "PLACENAME": "Bloomfield Hills, Mich."}
{"PERSONID": 5385, "PLACENAME": "East Greenville, Pa."}
{"PERSONID": 5385, "PLACENAME": "New York, N.Y."}
{"PERSONID": 5386, "PLACENAME": "Bellport, N.Y."}
{"PERSONID": 5387, "PLACENAME": "Venice, Calif."}
{"PERSONID": 5390, "PLACENAME": "San Francisco, Calif."}
{"PERSONID": 5392, "PLACENAME": "Woodstock, N.Y."}
{"PERSONID": 5393, "PLACENAME": "Boston, Mass."}
{"PERSONID": 5393, "PLACENAME": "New York, N.Y."}
{"PERSONID": 5395, "PLACENAME": "Southbridge, Mass."}
{"PERSONID": 5396, "PLACENAME": "Oakland, Calif."}
{"PERSONID": 5398, "PLACENAME": "New York, N.Y."}
{"PERSONID": 5398, "PLACENAME": "Orange, Conn."}
{"PERSONID": 5399, "PLACENAME": "Mass."}
{"PERSONID": 5400, "PLACENAME": "Australia"}
{"PERSONID": 5401, "PLACENAME": "Fly Creek, N.Y."}
{"PERSONID": 5406, "PLACENAME": "San Francisco, Calif."}
{"PERSONID": 5407, "PLACENAME": "New York, N.Y."}
{"PERSONID": 5408, "PLACENAME": "Washington, D.C."}
{"PERSONID": 5413, "PLACENAME": "Darion, Conn."}
{"PERSONID": 5413, "PLACENAME": "New York, N.Y."}
{"PERSONID": 5416, "PLACENAME": "New York, N.Y."}
{"PERSONID": 5417, "PLACENAME": "Batavia, N.Y."}
{"PERSONID": 5422, "PLACENAME": "Roxbury, Mass."}
{"PERSONID": 5427, "PLACENAME": "Austria"}
{"PERSONID": 5427, "PLACENAME": "Germany"}
{"PERSONID": 5427, "PLACENAME": "New York, N.Y."}
{"PERSONID": 5429, "PLACENAME": "New York, N.Y."}
{"PERSONID": 5434, "PLACENAME": "New York, N.Y."}
{"PERSONID": 5446, "PLACENAME": "Santa Fe, N.M."}
{"PERSONID": 5448, "PLACENAME": "N.Y."}
{"PERSONID": 5450, "PLACENAME": "New York, N.Y."}
{"PERSONID": 5455, "PLACENAME": "New York, N.Y."}
{"PERSONID": 5458, "PLACENAME": "Fort Worth, Tex."}
{"PERSONID": 5460, "PLACENAME": "New York, N.Y."}
{"PERSONID": 5462, "PLACENAME": "New York, N.Y."}
{"PERSONID": 5463, "PLACENAME": "New Canaan, Conn."}
{"PERSONID": 5463, "PLACENAME": "Riversdale, Conn."}
{"PERSONID": 5464, "PLACENAME": "New York, N.Y."}
{"PERSONID": 5466, "PLACENAME": "New York, N.Y."}
{"PERSONID": 5469, "PLACENAME": "New York, N.Y."}
{"PERSONID": 5469, "PLACENAME": "Paris, France"}
{"PERSONID": 5472, "PLACENAME": "Calif."}
{"PERSONID": 5473, "PLACENAME": "New York, N.Y."}
{"PERSONID": 5474, "PLACENAME": "Detroit, Mich."}
{"PERSONID": 5485, "PLACENAME": "Iowa"}
{"PERSONID": 5488, "PLACENAME": "Calif."}
{"PERSONID": 5488, "PLACENAME": "Washington, D.C."}
{"PERSONID": 5490, "PLACENAME": "Boston, Mass."}
{"PERSONID": 5491, "PLACENAME": "Nashville, Tenn."}
{"PERSONID": 5492, "PLACENAME": "New York, N.Y."}
{"PERSONID": 5493, "PLACENAME": "New York, N.Y."}
{"PERSONID": 5494, "PLACENAME": "New York, N.Y."}
{"PERSONID": 5497, "PLACENAME": "New York, N.Y."}
{"PERSONID": 5498, "PLACENAME": "Wis."}
{"PERSONID": 5502, "PLACENAME": "Los Angeles, Calif."}
{"PERSONID": 5503, "PLACENAME": "Mass."}
{"PERSONID": 5506, "PLACENAME": "New York, N.Y."}
{"PERSONID": 5508, "PLACENAME": "N.Y."}
{"PERSONID": 5510, "PLACENAME": "Carmel, Calif."}
{"PERSONID": 5510, "PLACENAME": "New York, N.Y."}
{"PERSONID": 5528, "PLACENAME": "Rome, Italy"}
{"PERSONID": 5528, "PLACENAME": "Roxbury, Mass."}
{"PERSONID": 5531, "PLACENAME": "New York, N.Y."}
{"PERSONID": 5532, "PLACENAME": "New York, N.Y."}
{"PERSONID": 5534, "PLACENAME": "Cleveland Heights, Oh."}
{"PERSONID": 5534, "PLACENAME": "New York, N.Y."}
{"PERSONID": 5538, "PLACENAME": "Los Angeles, Calif."}
{"PERSONID": 5541, "PLACENAME": "Conn."}
{"PERSONID": 5543, "PLACENAME": "N.Y."}
{"PERSONID": 5544, "PLACENAME": "Conn."}
{"PERSONID": 5545, "PLACENAME": "Conn."}
{"PERSONID": 5545, "PLACENAME": "New York, N.Y."}
{"PERSONID": 5555, "PLACENAME": "Washington, D.C."}
{"PERSONID": 5556, "PLACENAME": "Woodstock, N.Y."}
{"PERSONID": 5557, "PLACENAME": "New York, N.Y."}
{"PERSONID": 5570, "PLACENAME": "N.Y."}
{"PERSONID": 5573, "PLACENAME": "New York, N.Y."}
{"PERSONID": 5579, "PLACENAME": "New York, N.Y."}
{"PERSONID": 5585, "PLACENAME": "Georgetown, Me."}
{"PERSONID": 5590, "PLACENAME": "France"}
{"PERSONID": 5590, "PLACENAME": "New York, N.Y."}
{"PERSONID": 5591, "PLACENAME": "New York, N.Y."}
{"PERSONID": 5591, "PLACENAME": "Provincetown, Mass."}
{"PERSONID": 5595, "PLACENAME": "New York, N.Y."}
{"PERSONID": 5599, "PLACENAME": "Berkeley, Calif."}
{"PERSONID": 5599, "PLACENAME": "New York, N.Y."}
{"PERSONID": 5600, "PLACENAME": "Austin, Tex."}
{"PERSONID": 5600, "PLACENAME": "Taos, N.M."}
{"PERSONID": 5607, "PLACENAME": "Mich."}
{"PERSONID": 5607, "PLACENAME": "Paris, France"}
{"PERSONID": 5609, "PLACENAME": "Washington, D.C."}
{"PERSONID": 5614, "PLACENAME": "Chicago, Ill."}
{"PERSONID": 5616, "PLACENAME": "Ipswich, Mass."}
{"PERSONID": 5618, "PLACENAME": "Boston, Mass."}
{"PERSONID": 5618, "PLACENAME": "Cincinnati, Ohio"}
{"PERSONID": 5618, "PLACENAME": "New York, N.Y."}
{"PERSONID": 5618, "PLACENAME": "Washington, D.C."}
{"PERSONID": 5619, "PLACENAME": "Cleveland, Ohio"}
{"PERSONID": 5620, "PLACENAME": "Detroit, Mich."}
{"PERSONID": 5622, "PLACENAME": "New York, N.Y."}
{"PERSONID": 5625, "PLACENAME": "New York, N.Y."}
{"PERSONID": 5626, "PLACENAME": "San Antonio, Tex."}
{"PERSONID": 5627, "PLACENAME": "Chicago, Ill."}
{"PERSONID": 5627, "PLACENAME": "New York, N.Y."}
{"PERSONID": 5630, "PLACENAME": "Europe"}
{"PERSONID": 5630, "PLACENAME": "Mass."}
{"PERSONID": 5632, "PLACENAME": "N.J."}
{"PERSONID": 5632, "PLACENAME": "Pa."}
{"PERSONID": 5633, "PLACENAME": "Pa."}
{"PERSONID": 5636, "PLACENAME": "Los Angeles, Calif."}
{"PERSONID": 5641, "PLACENAME": "N.Y."}
{"PERSONID": 5641, "PLACENAME": "Rome, Italy"}
{"PERSONID": 5644, "PLACENAME": "N.Y."}
{"PERSONID": 5647, "PLACENAME": "Valatie, N.Y."}
{"PERSONID": 5648, "PLACENAME": "Conn."}
{"PERSONID": 5648, "PLACENAME": "Taos, N.M."}
{"PERSONID": 5650, "PLACENAME": "Chicago, Ill."}
{"PERSONID": 5651, "PLACENAME": "Albuquerque, N.M."}
{"PERSONID": 5653, "PLACENAME": "New York, N.Y."}
{"PERSONID": 5654, "PLACENAME": "New York, N.Y."}
{"PERSONID": 5654, "PLACENAME": "Paris, France"}
{"PERSONID": 5662, "PLACENAME": "New York, N.Y."}
{"PERSONID": 5666, "PLACENAME": "New York, N.Y."}
{"PERSONID": 5671, "PLACENAME": "New York, N.Y."}
{"PERSONID": 5671, "PLACENAME": "Santa Fe, N.M."}
{"PERSONID": 5680, "PLACENAME": "Boston, Mass."}
{"PERSONID": 5680, "PLACENAME": "Newton, Mass."}
{"PERSONID": 5682, "PLACENAME": "New Rochelle, N.Y."}
{"PERSONID": 5683, "PLACENAME": "Washington, D.C."}
{"PERSONID": 5684, "PLACENAME": "New York, N.Y."}
{"PERSONID": 5687, "PLACENAME": "Hollywood, Calif."}
{"PERSONID": 5689, "PLACENAME": "Calif."}
{"PERSONID": 5689, "PLACENAME": "Hawaii"}
{"PERSONID": 5689, "PLACENAME": "Me."}
{"PERSONID": 5691, "PLACENAME": "New York, N.Y."}
{"PERSONID": 5692, "PLACENAME": "New York, N.Y."}
{"PERSONID": 5693, "PLACENAME": "New York, N.Y."}
{"PERSONID": 5696, "PLACENAME": "Natichitoches, La."}
{"PERSONID": 5700, "PLACENAME": "New York, N.Y."}
{"PERSONID": 5702, "PLACENAME": "New London, N.H."}
{"PERSONID": 5703, "PLACENAME": "New York, N.Y."}
{"PERSONID": 5705, "PLACENAME": "Provincetown, Mass."}
{"PERSONID": 5706, "PLACENAME": "Dana Point, Calif."}
{"PERSONID": 5707, "PLACENAME": "New York, N.Y."}
{"PERSONID": 5708, "PLACENAME": "Oakland, Calif."}
{"PERSONID": 5710, "PLACENAME": "New York, N.Y."}
{"PERSONID": 5719, "PLACENAME": "Guanajuato, Mexico"}
{"PERSONID": 5719, "PLACENAME": "Sarasota, Fla."}
{"PERSONID": 5720, "PLACENAME": "New York, N.Y."}
{"PERSONID": 5721, "PLACENAME": "Davis, Calif."}
{"PERSONID": 5726, "PLACENAME": "Cornwall, Conn."}
{"PERSONID": 5726, "PLACENAME": "New York, N.Y."}
{"PERSONID": 5733, "PLACENAME": "New York, N.Y."}
{"PERSONID": 5739, "PLACENAME": "Boston, Mass."}
{"PERSONID": 5741, "PLACENAME": "San Francisco, Calif."}
{"PERSONID": 5749, "PLACENAME": "Conn."}
{"PERSONID": 5749, "PLACENAME": "N.Y."}
{"PERSONID": 5751, "PLACENAME": "New York, N.Y."}
{"PERSONID": 5753, "PLACENAME": "Boston, Mass."}
{"PERSONID": 5753, "PLACENAME": "New York, N.Y."}
{"PERSONID": 5754, "PLACENAME": "Cincinnati, Ohio"}
{"PERSONID": 5754, "PLACENAME": "Paris, France"}
{"PERSONID": 5755, "PLACENAME": "Chicago, Ill."}
{"PERSONID": 5759, "PLACENAME": "Mass."}
{"PERSONID": 5759, "PLACENAME": "N.Y."}
{"PERSONID": 5763, "PLACENAME": "New York, N.Y."}
{"PERSONID": 5768, "PLACENAME": "Calif."}
{"PERSONID": 5773, "PLACENAME": "New York, N.Y."}
{"PERSONID": 5773, "PLACENAME": "Phoenix, Ariz."}
{"PERSONID": 5774, "PLACENAME": "East Hampton, N.Y."}
{"PERSONID": 5777, "PLACENAME": "New York, N.Y."}
{"PERSONID": 5777, "PLACENAME": "Old Lyme, Conn."}
{"PERSONID": 5778, "PLACENAME": "New York, N.Y."}
{"PERSONID": 5778, "PLACENAME": "Provincetown, Mass."}
{"PERSONID": 5779, "PLACENAME": "Bloomfield Hills, Mich."}
{"PERSONID": 5780, "PLACENAME": "Chicago, Ill."}
{"PERSONID": 5780, "PLACENAME": "Los Angeles, Calif."}
{"PERSONID": 5781, "PLACENAME": "Mexico"}
{"PERSONID": 5783, "PLACENAME": "New York, N.Y."}
{"PERSONID": 5784, "PLACENAME": "Detroit, Mich."}
{"PERSONID": 5786, "PLACENAME": "East Marion, N.Y."}
{"PERSONID": 5787, "PLACENAME": "New York, N.Y."}
{"PERSONID": 5796, "PLACENAME": "Mass."}
{"PERSONID": 5798, "PLACENAME": "New York, N.Y."}
{"PERSONID": 5798, "PLACENAME": "Washington, D.C."}
{"PERSONID": 5801, "PLACENAME": "Washington, D.C."}
{"PERSONID": 5804, "PLACENAME": "New York, N.Y."}
{"PERSONID": 5812, "PLACENAME": "New York, N.Y."}
{"PERSONID": 5814, "PLACENAME": "New York, N.Y."}
{"PERSONID": 5822, "PLACENAME": "New York, N.Y."}
{"PERSONID": 5823, "PLACENAME": "Mass."}
{"PERSONID": 5847, "PLACENAME": "Calif."}
{"PERSONID": 5853, "PLACENAME": "New York, N.Y."}
{"PERSONID": 5854, "PLACENAME": "New York, N.Y."}
{"PERSONID": 5854, "PLACENAME": "Pa."}
{"PERSONID": 5856, "PLACENAME": "Europe"}
{"PERSONID": 5856, "PLACENAME": "New York, N.Y."}
{"PERSONID": 5856, "PLACENAME": "Provincetown, Mass."}
{"PERSONID": 5858, "PLACENAME": "Pa."}
{"PERSONID": 5861, "PLACENAME": "Santa Fe, N.M."}
{"PERSONID": 5865, "PLACENAME": "San Francisco, Calif."}
{"PERSONID": 5868, "PLACENAME": "Amityville, N.Y."}
{"PERSONID": 5869, "PLACENAME": "Brooklyn, N.Y."}
{"PERSONID": 5873, "PLACENAME": "New York, N.Y."}
{"PERSONID": 5892, "PLACENAME": "New York, N.Y."}
{"PERSONID": 5894, "PLACENAME": "New York, N.Y."}
{"PERSONID": 5898, "PLACENAME": "N.Y."}
{"PERSONID": 5899, "PLACENAME": "New York, N.Y."}
{"PERSONID": 5901, "PLACENAME": "New York, N.Y."}
{"PERSONID": 5902, "PLACENAME": "Claremont, Calif."}
{"PERSONID": 5903, "PLACENAME": "Sag Harbor, N.Y."}
{"PERSONID": 5904, "PLACENAME": "New York, N.Y."}
{"PERSONID": 5906, "PLACENAME": "La."}
{"PERSONID": 5910, "PLACENAME": "Calif."}
{"PERSONID": 5915, "PLACENAME": "New York, N.Y."}
{"PERSONID": 5915, "PLACENAME": "Newtown, Conn."}
{"PERSONID": 5916, "PLACENAME": "Lyme, N.H."}
{"PERSONID": 5920, "PLACENAME": "Los Angeles, Calif."}
{"PERSONID": 5920, "PLACENAME": "New York, N.Y."}
{"PERSONID": 5920, "PLACENAME": "San Francisco, Calif."}
{"PERSONID": 5920, "PLACENAME": "Scotland"}
{"PERSONID": 5922, "PLACENAME": "Calif."}
{"PERSONID": 5922, "PLACENAME": "Mass."}
{"PERSONID": 5923, "PLACENAME": "Chicago, Ill."}
{"PERSONID": 5923, "PLACENAME": "New York, N.Y."}
{"PERSONID": 5927, "PLACENAME": "Lawrence, Kan."}
{"PERSONID": 5929, "PLACENAME": "Brest, France"}
{"PERSONID": 5929, "PLACENAME": "Santa Fe, N.M."}
{"PERSONID": 5930, "PLACENAME": "New York, N.Y."}
{"PERSONID": 5932, "PLACENAME": "Calif."}
{"PERSONID": 5935, "PLACENAME": "Monterey, Calif."}
{"PERSONID": 5935, "PLACENAME": "New York, N.Y."}
{"PERSONID": 5935, "PLACENAME": "Paris, France"}
{"PERSONID": 5936, "PLACENAME": "New York, N.Y."}
{"PERSONID": 5936, "PLACENAME": "Peconic, N.Y."}
{"PERSONID": 5938, "PLACENAME": "New York, N.Y."}
{"PERSONID": 5943, "PLACENAME": "New York, N.Y."}
{"PERSONID": 5944, "PLACENAME": "Iowa"}
{"PERSONID": 5944, "PLACENAME": "N.Y."}
{"PERSONID": 5954, "PLACENAME": "N.Y."}
{"PERSONID": 5954, "PLACENAME": "U.K."}
{"PERSONID": 5956, "PLACENAME": "Mass."}
{"PERSONID": 5959, "PLACENAME": "Los Angeles, Calif."}
{"PERSONID": 5963, "PLACENAME": "Conn."}
{"PERSONID": 5963, "PLACENAME": "Los Angeles, Calif."}
{"PERSONID": 5963, "PLACENAME": "N.Y."}
{"PERSONID": 5963, "PLACENAME": "Santa Monica, Calif."}
{"PERSONID": 5963, "PLACENAME": "Topeka, Kan."}
{"PERSONID": 5964, "PLACENAME": "Portland, Or."}
{"PERSONID": 5974, "PLACENAME": "New York, N.Y."}
{"PERSONID": 5975, "PLACENAME": "Washington, D.C."}
{"PERSONID": 5977, "PLACENAME": "Ohio"}
{"PERSONID": 5978, "PLACENAME": "Los Angeles, Calif."}
{"PERSONID": 5978, "PLACENAME": "New York, N.Y."}
{"PERSONID": 5979, "PLACENAME": "Philadelphia, Pa."}
{"PERSONID": 5981, "PLACENAME": "Bridgehampton, N.Y."}
{"PERSONID": 5982, "PLACENAME": "Calif."}
{"PERSONID": 5982, "PLACENAME": "Utah"}
{"PERSONID": 5986, "PLACENAME": "New York, N.Y."}
{"PERSONID": 5988, "PLACENAME": "Mich."}
{"PERSONID": 5988, "PLACENAME": "Woodstock, N.Y."}
{"PERSONID": 5990, "PLACENAME": "Washington, D.C."}
{"PERSONID": 5996, "PLACENAME": "Baltimore, Md."}
{"PERSONID": 5998, "PLACENAME": "Washington, D.C."}
{"PERSONID": 5999, "PLACENAME": "Santa Fe, N.M."}
{"PERSONID": 6008, "PLACENAME": "Detroit, Mich."}
{"PERSONID": 6008, "PLACENAME": "New York, N.Y."}
{"PERSONID": 6011, "PLACENAME": "Conn."}
{"PERSONID": 6011, "PLACENAME": "N.Y."}
{"PERSONID": 6013, "PLACENAME": "Los Angeles, Calif."}
{"PERSONID": 6016, "PLACENAME": "N.Y."}
{"PERSONID": 6020, "PLACENAME": "Cleveland, Ohio"}
{"PERSONID": 6025, "PLACENAME": "New York, N.Y."}
{"PERSONID": 6026, "PLACENAME": "Hartford, Conn."}
{"PERSONID": 6026, "PLACENAME": "New York, N.Y."}
{"PERSONID": 6026, "PLACENAME": "South Dartmouth, Mass."}
{"PERSONID": 6027, "PLACENAME": "Wash."}
{"PERSONID": 6030, "PLACENAME": "Calif."}
{"PERSONID": 6030, "PLACENAME": "Ill."}
{"PERSONID": 6034, "PLACENAME": "N.C."}
{"PERSONID": 6044, "PLACENAME": "New York, N.Y."}
{"PERSONID": 6050, "PLACENAME": "N.M."}
{"PERSONID": 6051, "PLACENAME": "New York, N.Y."}
{"PERSONID": 6058, "PLACENAME": "Paris, France"}
{"PERSONID": 6062, "PLACENAME": "New York, N.Y."}
{"PERSONID": 6063, "PLACENAME": "New York, N.Y."}
{"PERSONID": 6063, "PLACENAME": "Woodstock, N.Y."}
{"PERSONID": 6080, "PLACENAME": "New York, N.Y."}
{"PERSONID": 6081, "PLACENAME": "Paris, France"}
{"PERSONID": 6081, "PLACENAME": "Shady, N.Y."}
{"PERSONID": 6084, "PLACENAME": "New York, N.Y."}
{"PERSONID": 6087, "PLACENAME": "Cleveland, Ohio"}
{"PERSONID": 6097, "PLACENAME": "Seattle, Wash."}
{"PERSONID": 6098, "PLACENAME": "Minneapolis, Minn."}
{"PERSONID": 6108, "PLACENAME": "Washingtonville, N.Y."}
{"PERSONID": 6119, "PLACENAME": "Ill."}
{"PERSONID": 6119, "PLACENAME": "Iowa"}
{"PERSONID": 6121, "PLACENAME": "New York, N.Y."}
{"PERSONID": 6127, "PLACENAME": "Pa."}
{"PERSONID": 6128, "PLACENAME": "New York, N.Y."}
{"PERSONID": 6131, "PLACENAME": "Philadelphia, Pa."}
{"PERSONID": 6136, "PLACENAME": "Los Angeles, Calif."}
{"PERSONID": 6136, "PLACENAME": "New York, N.Y."}
{"PERSONID": 6137, "PLACENAME": "Cleveland, Ohio"}
{"PERSONID": 6137, "PLACENAME": "New York, N.Y."}
{"PERSONID": 6138, "PLACENAME": "Gloucester, Mass."}
{"PERSONID": 6139, "PLACENAME": "R.I."}
{"PERSONID": 6141, "PLACENAME": "New York, N.Y."}
{"PERSONID": 6142, "PLACENAME": "Los Angeles, Calif."}
{"PERSONID": 6144, "PLACENAME": "San Francisco, Calif."}
{"PERSONID": 6150, "PLACENAME": "Leonia, N.J."}
{"PERSONID": 6150, "PLACENAME": "New York, N.Y."}
{"PERSONID": 6173, "PLACENAME": "San Francisco, Calif."}
{"PERSONID": 6185, "PLACENAME": "New York, N.Y."}
{"PERSONID": 6191, "PLACENAME": "Calif."}
{"PERSONID": 6191, "PLACENAME": "Mass."}
{"PERSONID": 6193, "PLACENAME": "Greenwich, Conn."}
{"PERSONID": 6193, "PLACENAME": "New York, N.Y."}
{"PERSONID": 6198, "PLACENAME": "Provincetown, Mass."}
{"PERSONID": 6216, "PLACENAME": "Santa Fe, N.M."}
{"PERSONID": 6221, "PLACENAME": "Seattle, Wash."}
{"PERSONID": 6228, "PLACENAME": "Mystic, Conn."}
{"PERSONID": 6233, "PLACENAME": "New York, N.Y."}
{"PERSONID": 6240, "PLACENAME": "Tulsa, Okla."}
{"PERSONID": 6241, "PLACENAME": "New York, N.Y."}
{"PERSONID": 6241, "PLACENAME": "Philadelphia, Pa."}
{"PERSONID": 6247, "PLACENAME": "New York, N.Y."}
{"PERSONID": 6248, "PLACENAME": "New York, N.Y."}
{"PERSONID": 6248, "PLACENAME": "Providence, R.I."}
{"PERSONID": 6250, "PLACENAME": "St. James, N.Y."}
{"PERSONID": 6252, "PLACENAME": "Norwalk, Conn."}
{"PERSONID": 6255, "PLACENAME": "Los Angeles, Calif."}
{"PERSONID": 6257, "PLACENAME": "Paris, France"}
{"PERSONID": 6261, "PLACENAME": "Chicago, Ill."}
{"PERSONID": 6274, "PLACENAME": "N.Y."}
{"PERSONID": 6284, "PLACENAME": "Castine, Me."}
{"PERSONID": 6284, "PLACENAME": "New York, N.Y."}
{"PERSONID": 6288, "PLACENAME": "New York, N.Y."}
{"PERSONID": 6290, "PLACENAME": "Chicago, Ill."}
{"PERSONID": 6290, "PLACENAME": "Paris, France"}
{"PERSONID": 6292, "PLACENAME": "New York, N.Y."}
{"PERSONID": 6292, "PLACENAME": "Provincetown, Mass."}
{"PERSONID": 6299, "PLACENAME": "New Hope, Pa."}
{"PERSONID": 6307, "PLACENAME": "New York, N.Y."}
{"PERSONID": 6309, "PLACENAME": "Easton, Conn."}
{"PERSONID": 6309, "PLACENAME": "Philadelphia, Pa."}
{"PERSONID": 6317, "PLACENAME": "Kittery, Me."}
{"PERSONID": 6345, "PLACENAME": "Buffalo, N.Y."}
{"PERSONID": 6345, "PLACENAME": "New York, N.Y."}
{"PERSONID": 6347, "PLACENAME": "Brooklyn, N.Y."}
{"PERSONID": 6348, "PLACENAME": "New York, N.Y."}
{"PERSONID": 6349, "PLACENAME": "Albany, N.Y."}
{"PERSONID": 6349, "PLACENAME": "New York, N.Y."}
{"PERSONID": 6351, "PLACENAME": "Brooklyn, N.Y."}
{"PERSONID": 6352, "PLACENAME": "Buffalo, N.Y."}
{"PERSONID": 6371, "PLACENAME": "New York, N.Y."}
{"PERSONID": 6375, "PLACENAME": "Easton, Pa."}
{"PERSONID": 6376, "PLACENAME": "Glen Ridge, N.J."}
{"PERSONID": 6383, "PLACENAME": "New York, N.Y."}
{"PERSONID": 6384, "PLACENAME": "New York, N.Y."}
{"PERSONID": 6387, "PLACENAME": "New York, N.Y."}
{"PERSONID": 6389, "PLACENAME": "France"}
{"PERSONID": 6389, "PLACENAME": "Los Angeles, Calif."}
{"PERSONID": 6396, "PLACENAME": "Brooklyn, N.Y."}
{"PERSONID": 6396, "PLACENAME": "Ravenswood, Ill."}
{"PERSONID": 6398, "PLACENAME": "Columbia, Mo."}
{"PERSONID": 6403, "PLACENAME": "Atlanta, Ga."}
{"PERSONID": 6406, "PLACENAME": "New York, N.Y."}
{"PERSONID": 6406, "PLACENAME": "Philadelphia, Pa."}
{"PERSONID": 6409, "PLACENAME": "San Francisco, Calif."}
{"PERSONID": 6413, "PLACENAME": "Washington, D.C."}
{"PERSONID": 6418, "PLACENAME": "New Orleans, La."}
{"PERSONID": 6427, "PLACENAME": "Boston, Mass."}
{"PERSONID": 6427, "PLACENAME": "San Francisco, Calif."}
{"PERSONID": 6432, "PLACENAME": "Buffalo, N.Y."}
{"PERSONID": 6432, "PLACENAME": "Seattle, Wash."}
{"PERSONID": 6444, "PLACENAME": "Rome, Italy"}
{"PERSONID": 6452, "PLACENAME": "New York, N.Y."}
{"PERSONID": 6472, "PLACENAME": "N.Y."}
{"PERSONID": 6475, "PLACENAME": "San Francisco, Calif."}
{"PERSONID": 6475, "PLACENAME": "Tuscon, Ariz."}
{"PERSONID": 6477, "PLACENAME": "New York, N.Y."}
{"PERSONID": 6483, "PLACENAME": "New York, N.Y."}
{"PERSONID": 6488, "PLACENAME": "Milwaukee, Wis."}
{"PERSONID": 6490, "PLACENAME": "Mass."}
{"PERSONID": 6490, "PLACENAME": "New York, N.Y."}
{"PERSONID": 6492, "PLACENAME": "Santa Fe, N.M."}
{"PERSONID": 6492, "PLACENAME": "Washington, D.C."}
{"PERSONID": 6493, "PLACENAME": "France"}
{"PERSONID": 6493, "PLACENAME": "New York, N.Y."}
{"PERSONID": 6499, "PLACENAME": "New York, N.Y."}
{"PERSONID": 6503, "PLACENAME": "Los Angeles, Calif."}
{"PERSONID": 6511, "PLACENAME": "New York, N.Y."}
{"PERSONID": 6517, "PLACENAME": "Washington, D.C."}
{"PERSONID": 6521, "PLACENAME": "France"}
{"PERSONID": 6522, "PLACENAME": "New York, N.Y."}
{"PERSONID": 6523, "PLACENAME": "Carbondale, Ill."}
{"PERSONID": 6524, "PLACENAME": "Edmonds, Wash."}
{"PERSONID": 6527, "PLACENAME": "Bainbridge Island, Wash."}
{"PERSONID": 6528, "PLACENAME": "Seattle, Wash."}
{"PERSONID": 6529, "PLACENAME": "New York, N.Y."}
{"PERSONID": 6529, "PLACENAME": "Paris, France"}
{"PERSONID": 6530, "PLACENAME": "Springville, Calif."}
{"PERSONID": 6534, "PLACENAME": "Oakland, Calif."}
{"PERSONID": 6539, "PLACENAME": "Sacramento, Calif."}
{"PERSONID": 6540, "PLACENAME": "Sausalito, Calif."}
{"PERSONID": 6543, "PLACENAME": "New York, N.Y."}
{"PERSONID": 6545, "PLACENAME": "Venice, Calif."}
{"PERSONID": 6548, "PLACENAME": "Bigfork, Mont."}
{"PERSONID": 6551, "PLACENAME": "Deer Isle, Me."}
{"PERSONID": 6556, "PLACENAME": "Berkeley, Calif."}
{"PERSONID": 6558, "PLACENAME": "Los Angeles, Calif."}
{"PERSONID": 6562, "PLACENAME": "Md."}
{"PERSONID": 6562, "PLACENAME": "N.Y."}
{"PERSONID": 6562, "PLACENAME": "R.I."}
{"PERSONID": 6562, "PLACENAME": "Taos, N.M."}
{"PERSONID": 6562, "PLACENAME": "Wash."}
{"PERSONID": 6565, "PLACENAME": "Lowell, Mass."}
{"PERSONID": 6570, "PLACENAME": "Los Angeles, Calif."}
{"PERSONID": 6572, "PLACENAME": "N.Y."}
{"PERSONID": 6572, "PLACENAME": "New Orleans, La."}
{"PERSONID": 6574, "PLACENAME": "New York, N.Y."}
{"PERSONID": 6579, "PLACENAME": "Los Angeles, Calif."}
{"PERSONID": 6580, "PLACENAME": "Calif."}
{"PERSONID": 6583, "PLACENAME": "Pittsburgh, Pa."}
{"PERSONID": 6587, "PLACENAME": "Calif."}
{"PERSONID": 6589, "PLACENAME": "New York, N.Y."}
{"PERSONID": 6589, "PLACENAME": "Newport, R.I."}
{"PERSONID": 6594, "PLACENAME": "Santa Barbara, Calif."}
{"PERSONID": 6599, "PLACENAME": "Calif."}
{"PERSONID": 6600, "PLACENAME": "Castine, Me."}
{"PERSONID": 6604, "PLACENAME": "New York, N.Y."}
{"PERSONID": 6604, "PLACENAME": "Ogunquit, Me."}
{"PERSONID": 6608, "PLACENAME": "Mass."}
{"PERSONID": 6609, "PLACENAME": "New York, N.Y."}
{"PERSONID": 6614, "PLACENAME": "New York, N.Y."}
{"PERSONID": 6623, "PLACENAME": "Pittsburgh, Pa."}
{"PERSONID": 6623, "PLACENAME": "San Francisco, Calif."}
{"PERSONID": 6624, "PLACENAME": "Rockville, Md."}
{"PERSONID": 6628, "PLACENAME": "Calif."}
{"PERSONID": 6633, "PLACENAME": "New York, N.Y."}
{"PERSONID": 6636, "PLACENAME": "New York, N.Y."}
{"PERSONID": 6638, "PLACENAME": "Key West, Fla."}
{"PERSONID": 6638, "PLACENAME": "Woodstock, N.Y."}
{"PERSONID": 6639, "PLACENAME": "New York, N.Y."}
{"PERSONID": 6645, "PLACENAME": "Westport, Conn."}
{"PERSONID": 6659, "PLACENAME": "Bisbee, Ariz."}
{"PERSONID": 6659, "PLACENAME": "San Francisco, Calif."}
{"PERSONID": 6660, "PLACENAME": "Cornwall, Conn."}
{"PERSONID": 6660, "PLACENAME": "New York, N.Y."}
{"PERSONID": 6731, "PLACENAME": "Croton-on-Hudson, N.Y."}
{"PERSONID": 6757, "PLACENAME": "New York, N.Y."}
{"PERSONID": 6758, "PLACENAME": "New York, N.Y."}
{"PERSONID": 6759, "PLACENAME": "India"}
{"PERSONID": 6759, "PLACENAME": "London, England"}
{"PERSONID": 6766, "PLACENAME": "Napa, Calif."}
{"PERSONID": 6767, "PLACENAME": "Los Angeles, Calif."}
{"PERSONID": 6776, "PLACENAME": "New York, N.Y."}
{"PERSONID": 6778, "PLACENAME": "New York, N.Y."}
{"PERSONID": 6781, "PLACENAME": "Woodstock, N.Y."}
{"PERSONID": 6785, "PLACENAME": "New York, N.Y."}
{"PERSONID": 6785, "PLACENAME": "Poland"}
{"PERSONID": 6790, "PLACENAME": "Detroit, Mich."}
{"PERSONID": 6798, "PLACENAME": "Yonkers, N.Y."}
{"PERSONID": 6800, "PLACENAME": "Cambridge, Mass."}
{"PERSONID": 6800, "PLACENAME": "Montier, Switzerland"}
{"PERSONID": 6804, "PLACENAME": "New York, N.Y."}
{"PERSONID": 6818, "PLACENAME": "Madison, Wis."}
{"PERSONID": 6829, "PLACENAME": "Ithaca, N.Y."}
{"PERSONID": 6830, "PLACENAME": "Owego, N.Y."}
{"PERSONID": 6841, "PLACENAME": "France"}
{"PERSONID": 6842, "PLACENAME": "Paris, France"}
{"PERSONID": 6843, "PLACENAME": "France"}
{"PERSONID": 6844, "PLACENAME": "France"}
{"PERSONID": 6847, "PLACENAME": "France"}
{"PERSONID": 6848, "PLACENAME": "France"}
{"PERSONID": 6850, "PLACENAME": "France"}
{"PERSONID": 6853, "PLACENAME": "Paris, France"}
{"PERSONID": 6855, "PLACENAME": "Paris, France"}
{"PERSONID": 6870, "PLACENAME": "Paris, France"}
{"PERSONID": 6872, "PLACENAME": "Paris, France"}
{"PERSONID": 6876, "PLACENAME": "France"}
{"PERSONID": 6889, "PLACENAME": "Kensington, England"}
{"PERSONID": 6894, "PLACENAME": "New York, N.Y."}
{"PERSONID": 6894, "PLACENAME": "Washington, D.C."}
{"PERSONID": 6895, "PLACENAME": "Paris, France"}
{"PERSONID": 6897, "PLACENAME": "Boston, Mass."}
{"PERSONID": 6903, "PLACENAME": "Atlanta, Ga."}
{"PERSONID": 6909, "PLACENAME": "Quincy, Mass."}
{"PERSONID": 6912, "PLACENAME": "Milan, Italy"}
{"PERSONID": 6915, "PLACENAME": "New York, N.Y."}
{"PERSONID": 6916, "PLACENAME": "Cambridge, Mass."}
{"PERSONID": 6918, "PLACENAME": "New York, N.Y."}
{"PERSONID": 6918, "PLACENAME": "Philadelphia, Pa."}
{"PERSONID": 6918, "PLACENAME": "Vinalhaven, Me."}
{"PERSONID": 6921, "PLACENAME": "New York, N.Y."}
{"PERSONID": 6923, "PLACENAME": "India"}
{"PERSONID": 6923, "PLACENAME": "London, England"}
{"PERSONID": 6923, "PLACENAME": "New York, N.Y."}
{"PERSONID": 6925, "PLACENAME": "New York, N.Y."}
{"PERSONID": 6930, "PLACENAME": "New York, N.Y."}
{"PERSONID": 6931, "PLACENAME": "New York, N.Y."}
{"PERSONID": 6932, "PLACENAME": "U.S.S.R."}
{"PERSONID": 6933, "PLACENAME": "U.S.S.R."}
{"PERSONID": 6934, "PLACENAME": "U.S.S.R."}
{"PERSONID": 6935, "PLACENAME": "U.S.S.R."}
{"PERSONID": 6936, "PLACENAME": "U.S.S.R."}
{"PERSONID": 6939, "PLACENAME": "New York, N.Y."}
{"PERSONID": 6942, "PLACENAME": "Germany"}
{"PERSONID": 6942, "PLACENAME": "Paris, France"}
{"PERSONID": 6943, "PLACENAME": "Rome, Italy"}
{"PERSONID": 6947, "PLACENAME": "New York, N.Y."}
{"PERSONID": 6950, "PLACENAME": "Summit, N.J."}
{"PERSONID": 6954, "PLACENAME": "Paris, France"}
{"PERSONID": 6955, "PLACENAME": "New York, N.Y."}
{"PERSONID": 6959, "PLACENAME": "New York, N.Y."}
{"PERSONID": 6961, "PLACENAME": "New York, N.Y."}
{"PERSONID": 6962, "PLACENAME": "Chicago, Ill."}
{"PERSONID": 6964, "PLACENAME": "France"}
{"PERSONID": 6966, "PLACENAME": "Bloomfield Hills, Mich."}
{"PERSONID": 6969, "PLACENAME": "New York, N.Y."}
{"PERSONID": 6971, "PLACENAME": "New York, N.Y."}
{"PERSONID": 6976, "PLACENAME": "Calif."}
{"PERSONID": 6977, "PLACENAME": "Calif."}
{"PERSONID": 6984, "PLACENAME": "England"}
{"PERSONID": 6984, "PLACENAME": "Hollywood, Calif."}
{"PERSONID": 6993, "PLACENAME": "New York, N.Y."}
{"PERSONID": 7000, "PLACENAME": "New York, N.Y."}
{"PERSONID": 7002, "PLACENAME": "New York, N.Y."}
{"PERSONID": 7009, "PLACENAME": "New York, N.Y."}
{"PERSONID": 7010, "PLACENAME": "Dayton, Ohio"}
{"PERSONID": 7010, "PLACENAME": "Los Angeles, Calif."}
{"PERSONID": 7011, "PLACENAME": "Los Angeles, Calif."}
{"PERSONID": 7011, "PLACENAME": "New York, N.Y."}
{"PERSONID": 7012, "PLACENAME": "New York, N.Y."}
{"PERSONID": 7013, "PLACENAME": "Belen, N.M."}
{"PERSONID": 7014, "PLACENAME": "Corona Del Mar, Calif."}
{"PERSONID": 7017, "PLACENAME": "San Francisco, Calif."}
{"PERSONID": 7019, "PLACENAME": "Calif."}
{"PERSONID": 7020, "PLACENAME": "Chickasha, Okla."}
{"PERSONID": 7021, "PLACENAME": "Oakland, Calif."}
{"PERSONID": 7025, "PLACENAME": "Hoquiam, Wash."}
{"PERSONID": 7025, "PLACENAME": "Oakland, Calif."}
{"PERSONID": 7028, "PLACENAME": "San Francisco, Calif."}
{"PERSONID": 7033, "PLACENAME": "Washington, D.C."}
{"PERSONID": 7040, "PLACENAME": "New York, N.Y."}
{"PERSONID": 7047, "PLACENAME": "New York, N.Y."}
{"PERSONID": 7062, "PLACENAME": "New York, N.Y."}
{"PERSONID": 7071, "PLACENAME": "Greenville, N.C."}
{"PERSONID": 7074, "PLACENAME": "Calif."}
{"PERSONID": 7074, "PLACENAME": "Chicago, Ill."}
{"PERSONID": 7079, "PLACENAME": "England"}
{"PERSONID": 7079, "PLACENAME": "New York, N.Y."}
{"PERSONID": 7084, "PLACENAME": "New York, N.Y."}
{"PERSONID": 7088, "PLACENAME": "New York, N.Y."}
{"PERSONID": 7093, "PLACENAME": "New York, N.Y."}
{"PERSONID": 7093, "PLACENAME": "Paris, France"}
{"PERSONID": 7094, "PLACENAME": "England"}
{"PERSONID": 7095, "PLACENAME": "Rome, Italy"}
{"PERSONID": 7099, "PLACENAME": "Philadelphia, Pa."}
{"PERSONID": 7108, "PLACENAME": "Nova Scotia, Canada"}
{"PERSONID": 7109, "PLACENAME": "San Diego, Calif."}
{"PERSONID": 7111, "PLACENAME": "New York, N.Y."}
{"PERSONID": 7114, "PLACENAME": "New York, N.Y."}
{"PERSONID": 7116, "PLACENAME": "Long Beach, Calif."}
{"PERSONID": 7119, "PLACENAME": "New York, N.Y."}
{"PERSONID": 7129, "PLACENAME": "Wellfleet, Mass."}
{"PERSONID": 7132, "PLACENAME": "Washington, D.C."}
{"PERSONID": 7136, "PLACENAME": "New York, N.Y."}
{"PERSONID": 7140, "PLACENAME": "New York, N.Y."}
{"PERSONID": 7145, "PLACENAME": "Denver, Colo."}
{"PERSONID": 7145, "PLACENAME": "New York, N.Y."}
{"PERSONID": 7151, "PLACENAME": "Boston, Mass."}
{"PERSONID": 7153, "PLACENAME": "Boston, Mass."}
{"PERSONID": 7164, "PLACENAME": "Boulder, Co."}
{"PERSONID": 7164, "PLACENAME": "Chicago, Ill."}
{"PERSONID": 7164, "PLACENAME": "Madison, Wis."}
{"PERSONID": 7164, "PLACENAME": "New York, N.Y."}
{"PERSONID": 7169, "PLACENAME": "England"}
{"PERSONID": 7169, "PLACENAME": "France"}
{"PERSONID": 7169, "PLACENAME": "Philadelphia, Pa."}
{"PERSONID": 7174, "PLACENAME": "Mexico"}
{"PERSONID": 7179, "PLACENAME": "Paris, France"}
{"PERSONID": 7183, "PLACENAME": "Sun Prairie, Wis."}
{"PERSONID": 7184, "PLACENAME": "Bakersville, N.C."}
{"PERSONID": 7188, "PLACENAME": "Rockport, Mass."}
{"PERSONID": 7191, "PLACENAME": "Philadelphia, Pa."}
{"PERSONID": 7192, "PLACENAME": "Puerto Rico"}
{"PERSONID": 7196, "PLACENAME": "New York, N.Y."}
{"PERSONID": 7197, "PLACENAME": "New York, N.Y."}
{"PERSONID": 7198, "PLACENAME": "New York, N.Y."}
{"PERSONID": 7199, "PLACENAME": "New York, N.Y."}
{"PERSONID": 7200, "PLACENAME": "New York, N.Y."}
{"PERSONID": 7201, "PLACENAME": "Athens, Ohio"}
{"PERSONID": 7202, "PLACENAME": "Ottawa, Canada"}
{"PERSONID": 7219, "PLACENAME": "Detroit, Mich."}
{"PERSONID": 7219, "PLACENAME": "Rochester, N.Y"}
{"PERSONID": 7223, "PLACENAME": "Newark, N.J."}
{"PERSONID": 7224, "PLACENAME": "Boston, Mass."}
{"PERSONID": 7235, "PLACENAME": "New York, N.Y."}
{"PERSONID": 7236, "PLACENAME": "New York, N.Y."}
{"PERSONID": 7238, "PLACENAME": "New York, N.Y."}
{"PERSONID": 7239, "PLACENAME": "Long Island, N.Y."}
{"PERSONID": 7240, "PLACENAME": "Albany, N.Y."}
{"PERSONID": 7241, "PLACENAME": "Albany, N.Y."}
{"PERSONID": 7242, "PLACENAME": "Albany, N.Y."}
{"PERSONID": 7243, "PLACENAME": "Albany, N.Y."}
{"PERSONID": 7244, "PLACENAME": "Albany, N.Y."}
{"PERSONID": 7245, "PLACENAME": "Albany, N.Y."}
{"PERSONID": 7251, "PLACENAME": "Houston, Tex."}
{"PERSONID": 7256, "PLACENAME": "Boston, Mass."}
{"PERSONID": 7256, "PLACENAME": "Lithuania"}
{"PERSONID": 7256, "PLACENAME": "Settignano, Italy"}
{"PERSONID": 7257, "PLACENAME": "Chicago, Ill."}
{"PERSONID": 7257, "PLACENAME": "New York, N.Y."}
{"PERSONID": 7259, "PLACENAME": "Chicago, Ill."}
{"PERSONID": 7267, "PLACENAME": "Chicago, Ill."}
{"PERSONID": 7277, "PLACENAME": "Brookline, Mass."}
{"PERSONID": 7277, "PLACENAME": "Intervale, New Hampshire, United States"}
{"PERSONID": 7283, "PLACENAME": "Portsmouth, N.H."}
{"PERSONID": 7285, "PLACENAME": "Calif."}
{"PERSONID": 7287, "PLACENAME": "San Antonio, Tex."}
{"PERSONID": 7292, "PLACENAME": "Germany"}
{"PERSONID": 7294, "PLACENAME": "Brooklyn, N.Y."}
{"PERSONID": 7294, "PLACENAME": "Litchfield, Conn."}
{"PERSONID": 7297, "PLACENAME": "New York, N.Y."}
{"PERSONID": 7298, "PLACENAME": "U.K."}
{"PERSONID": 7307, "PLACENAME": "Boston, Mass."}
{"PERSONID": 7307, "PLACENAME": "Europe"}
{"PERSONID": 7307, "PLACENAME": "Paris, France"}
{"PERSONID": 7310, "PLACENAME": "Washington, D.C."}
{"PERSONID": 7318, "PLACENAME": "N.J."}
{"PERSONID": 7318, "PLACENAME": "New York, N.Y."}
{"PERSONID": 7328, "PLACENAME": "San Francisco, Calif."}
{"PERSONID": 7332, "PLACENAME": "Munich, Germany"}
{"PERSONID": 7332, "PLACENAME": "New York, N.Y."}
{"PERSONID": 7339, "PLACENAME": "New York, N.Y."}
{"PERSONID": 7339, "PLACENAME": "Paterson, N.J."}
{"PERSONID": 7341, "PLACENAME": "London, England"}
{"PERSONID": 7351, "PLACENAME": "Washington, D.C."}
{"PERSONID": 7352, "PLACENAME": "Washington, D.C."}
{"PERSONID": 7353, "PLACENAME": "New York, N.Y."}
{"PERSONID": 7381, "PLACENAME": "New York, N.Y."}
{"PERSONID": 7385, "PLACENAME": "New York, N.Y."}
{"PERSONID": 7385, "PLACENAME": "Woodstock, N.Y."}
{"PERSONID": 7386, "PLACENAME": "New York, N.Y."}
{"PERSONID": 7387, "PLACENAME": "New Orleans, La."}
{"PERSONID": 7387, "PLACENAME": "New York, N.Y."}
{"PERSONID": 7388, "PLACENAME": "Geneva, N.Y."}
{"PERSONID": 7394, "PLACENAME": "N.Y."}
{"PERSONID": 7395, "PLACENAME": "Boston, Mass."}
{"PERSONID": 7396, "PLACENAME": "Chicago, Ill."}
{"PERSONID": 7396, "PLACENAME": "New York, N.Y."}
{"PERSONID": 7409, "PLACENAME": "Los Angeles, Calif."}
{"PERSONID": 7410, "PLACENAME": "Oakland, Calif."}
{"PERSONID": 7413, "PLACENAME": "San Francisco, Calif."}
{"PERSONID": 7415, "PLACENAME": "N.Y."}
{"PERSONID": 7422, "PLACENAME": "Beaufort, S.C."}
{"PERSONID": 7422, "PLACENAME": "Bluffton, S.C."}
{"PERSONID": 7422, "PLACENAME": "Leicester, N.C."}
{"PERSONID": 7422, "PLACENAME": "Vt."}
{"PERSONID": 7422, "PLACENAME": "Woodstock, N.Y."}
{"PERSONID": 7425, "PLACENAME": "New York, N.Y."}
{"PERSONID": 7433, "PLACENAME": "Mt. Vernon, VA"}
{"PERSONID": 7445, "PLACENAME": "New York, N.Y."}
{"PERSONID": 7453, "PLACENAME": "Woodstock, N.Y."}
{"PERSONID": 7457, "PLACENAME": "Berkeley, Calif."}
{"PERSONID": 7459, "PLACENAME": "Boston, Mass."}
{"PERSONID": 7460, "PLACENAME": "Provincetown, Mass."}
{"PERSONID": 7461, "PLACENAME": "New York, N.Y."}
{"PERSONID": 7461, "PLACENAME": "Paris, France"}
{"PERSONID": 7463, "PLACENAME": "Paris, France"}
{"PERSONID": 7467, "PLACENAME": "Berkeley, Calif."}
{"PERSONID": 7467, "PLACENAME": "Munich, Germany"}
{"PERSONID": 7468, "PLACENAME": "Woodbury, Conn."}
{"PERSONID": 7475, "PLACENAME": "Orl\u00e9ans, France"}
{"PERSONID": 7479, "PLACENAME": "Europe"}
{"PERSONID": 7481, "PLACENAME": "France"}
{"PERSONID": 7483, "PLACENAME": "New Paltz, N.Y."}
{"PERSONID": 7483, "PLACENAME": "Philadelphia, Pa."}
{"PERSONID": 7509, "PLACENAME": "Hastings-on-Hudson, N.Y."}
{"PERSONID": 7521, "PLACENAME": "Philadelphia, Pa."}
{"PERSONID": 7526, "PLACENAME": "Calif."}
{"PERSONID": 7545, "PLACENAME": "Oakland, Calif."}
{"PERSONID": 7555, "PLACENAME": "Or."}
{"PERSONID": 7597, "PLACENAME": "Island Heights, N.J."}
{"PERSONID": 7600, "PLACENAME": "New York, N.Y."}
{"PERSONID": 7602, "PLACENAME": "Kensington, N.H."}
{"PERSONID": 7611, "PLACENAME": "New Haven, Conn."}
{"PERSONID": 7623, "PLACENAME": "Austria"}
{"PERSONID": 7623, "PLACENAME": "Germany"}
{"PERSONID": 7625, "PLACENAME": "France"}
{"PERSONID": 7626, "PLACENAME": "France"}
{"PERSONID": 7631, "PLACENAME": "Holland"}
{"PERSONID": 7632, "PLACENAME": "Spain"}
{"PERSONID": 7637, "PLACENAME": "France"}
{"PERSONID": 7640, "PLACENAME": "France"}
{"PERSONID": 7643, "PLACENAME": "Paris, France"}
{"PERSONID": 7648, "PLACENAME": "Aix-en-Provence, France"}
{"PERSONID": 7651, "PLACENAME": "Dearborn, Mich."}
{"PERSONID": 7651, "PLACENAME": "New York, N.Y."}
{"PERSONID": 7655, "PLACENAME": "New York, N.Y."}
{"PERSONID": 7664, "PLACENAME": "Boston, Mass."}
{"PERSONID": 7672, "PLACENAME": "France"}
{"PERSONID": 7674, "PLACENAME": "Paris, France"}
{"PERSONID": 7679, "PLACENAME": "Philadelphia, Pa."}
{"PERSONID": 7683, "PLACENAME": "Philadelphia, Pa."}
{"PERSONID": 7707, "PLACENAME": "England"}
{"PERSONID": 7707, "PLACENAME": "Philadelphia, Pa."}
{"PERSONID": 7740, "PLACENAME": "Mass."}
{"PERSONID": 7758, "PLACENAME": "New York, N.Y."}
{"PERSONID": 7763, "PLACENAME": "New York, N.Y."}
{"PERSONID": 7766, "PLACENAME": "Chicago, Ill."}
{"PERSONID": 7767, "PLACENAME": "Los Angeles, Calif."}
{"PERSONID": 7768, "PLACENAME": "Los Angeles, Calif."}
{"PERSONID": 7769, "PLACENAME": "Calif."}
{"PERSONID": 7769, "PLACENAME": "Rochester, N.Y"}
{"PERSONID": 7770, "PLACENAME": "Newburyport, Mass."}
{"PERSONID": 7777, "PLACENAME": "Pleasant Valley, N.Y."}
{"PERSONID": 7792, "PLACENAME": "Wis."}
{"PERSONID": 7829, "PLACENAME": "Calif."}
{"PERSONID": 7829, "PLACENAME": "N.Y."}
{"PERSONID": 7842, "PLACENAME": "Istanbul, Turkey"}
{"PERSONID": 7855, "PLACENAME": "New York, N.Y."}
{"PERSONID": 7856, "PLACENAME": "New York, N.Y."}
{"PERSONID": 7859, "PLACENAME": "Washington, D.C."}
{"PERSONID": 7861, "PLACENAME": "New York, N.Y."}
{"PERSONID": 7862, "PLACENAME": "Greenwich, Conn."}
{"PERSONID": 7864, "PLACENAME": "Tesuque, N.M."}
{"PERSONID": 7866, "PLACENAME": "Delaplane, Va."}
{"PERSONID": 7867, "PLACENAME": "Neb."}
{"PERSONID": 7868, "PLACENAME": "Va."}
{"PERSONID": 7869, "PLACENAME": "Ariz."}
{"PERSONID": 7870, "PLACENAME": "N.C."}
{"PERSONID": 7873, "PLACENAME": "Ariz."}
{"PERSONID": 7879, "PLACENAME": "La."}
{"PERSONID": 7882, "PLACENAME": "Calif."}
{"PERSONID": 7883, "PLACENAME": "La."}
{"PERSONID": 7884, "PLACENAME": "Ala."}
{"PERSONID": 7885, "PLACENAME": "Montgomery, Ala."}
{"PERSONID": 7888, "PLACENAME": "Miss."}
{"PERSONID": 7889, "PLACENAME": "Ariz."}
{"PERSONID": 7890, "PLACENAME": "Ariz."}
{"PERSONID": 7892, "PLACENAME": "New York, N.Y."}
{"PERSONID": 7894, "PLACENAME": "Ill."}
{"PERSONID": 7899, "PLACENAME": "New York, N.Y."}
{"PERSONID": 7900, "PLACENAME": "New York, N.Y."}
{"PERSONID": 7904, "PLACENAME": "Washington, D.C."}
{"PERSONID": 7907, "PLACENAME": "Washington, D.C."}
{"PERSONID": 7908, "PLACENAME": "Washington, D.C."}
{"PERSONID": 7909, "PLACENAME": "Washington, D.C."}
{"PERSONID": 7911, "PLACENAME": "Washington, D.C."}
{"PERSONID": 7912, "PLACENAME": "Washington, D.C."}
{"PERSONID": 7913, "PLACENAME": "Washington, D.C."}
{"PERSONID": 7914, "PLACENAME": "Washington, D.C."}
{"PERSONID": 7915, "PLACENAME": "Washington, D.C."}
{"PERSONID": 7916, "PLACENAME": "Washington, D.C."}
{"PERSONID": 7935, "PLACENAME": "Rome, Italy"}
{"PERSONID": 7935, "PLACENAME": "Spain"}
{"PERSONID": 7937, "PLACENAME": "New York, N.Y."}
{"PERSONID": 7941, "PLACENAME": "New York, N.Y."}
{"PERSONID": 7942, "PLACENAME": "New York, N.Y."}
{"PERSONID": 7945, "PLACENAME": "New York, N.Y."}
{"PERSONID": 7945, "PLACENAME": "Santa Rosa, California"}
{"PERSONID": 7961, "PLACENAME": "Calif."}
{"PERSONID": 7972, "PLACENAME": "New York, N.Y."}
{"PERSONID": 7973, "PLACENAME": "New York, N.Y."}
{"PERSONID": 7995, "PLACENAME": "France"}
{"PERSONID": 7996, "PLACENAME": "Paris, France"}
{"PERSONID": 7996, "PLACENAME": "U.S."}
{"PERSONID": 7997, "PLACENAME": "New York, N.Y."}
{"PERSONID": 7999, "PLACENAME": "Long Island, N.Y."}
{"PERSONID": 8002, "PLACENAME": "New York, N.Y."}
{"PERSONID": 8004, "PLACENAME": "New York, N.Y."}
{"PERSONID": 8005, "PLACENAME": "Portugal"}
{"PERSONID": 8006, "PLACENAME": "Cedar Rapids, Ia."}
{"PERSONID": 8007, "PLACENAME": "Or."}
{"PERSONID": 8008, "PLACENAME": "Iowa"}
{"PERSONID": 8010, "PLACENAME": "Conn."}
{"PERSONID": 8010, "PLACENAME": "New York, N.Y."}
{"PERSONID": 8011, "PLACENAME": "Calif."}
{"PERSONID": 8012, "PLACENAME": "Los Angeles, Calif."}
{"PERSONID": 8013, "PLACENAME": "Los Angeles, Calif."}
{"PERSONID": 8015, "PLACENAME": "Stone City, Iowa"}
{"PERSONID": 8016, "PLACENAME": "New York, N.Y."}
{"PERSONID": 8019, "PLACENAME": "Omaha, Neb."}
{"PERSONID": 8019, "PLACENAME": "Philadelphia, Pa."}
{"PERSONID": 8020, "PLACENAME": "Chicago, Ill."}
{"PERSONID": 8030, "PLACENAME": "San Francisco, Calif."}
{"PERSONID": 8032, "PLACENAME": "Huntington, N.Y."}
{"PERSONID": 8035, "PLACENAME": "Calif."}
{"PERSONID": 8035, "PLACENAME": "New York, N.Y."}
{"PERSONID": 8050, "PLACENAME": "Chicago, Ill."}
{"PERSONID": 8064, "PLACENAME": "Los Angeles, Calif."}
{"PERSONID": 8088, "PLACENAME": "Diana, Tex."}
{"PERSONID": 8088, "PLACENAME": "Los Angeles, Calif."}
{"PERSONID": 8103, "PLACENAME": "Tiburon, Calif."}
{"PERSONID": 8133, "PLACENAME": "Santa Fe, N.M."}
{"PERSONID": 8146, "PLACENAME": "Santa Fe, N.M."}
{"PERSONID": 8161, "PLACENAME": "Pittsburgh, Pa."}
{"PERSONID": 8162, "PLACENAME": "Berlin, Germany"}
{"PERSONID": 8165, "PLACENAME": "New York, N.Y."}
{"PERSONID": 8168, "PLACENAME": "N.J."}
{"PERSONID": 8172, "PLACENAME": "Pa."}
{"PERSONID": 8174, "PLACENAME": "New York, N.Y."}
{"PERSONID": 8174, "PLACENAME": "Paris, France"}
{"PERSONID": 8175, "PLACENAME": "Darnestown, Md."}
{"PERSONID": 8184, "PLACENAME": "Calif."}
{"PERSONID": 8186, "PLACENAME": "Calif."}
{"PERSONID": 8186, "PLACENAME": "Colchester, Vt."}
{"PERSONID": 8188, "PLACENAME": "Calif."}
{"PERSONID": 8189, "PLACENAME": "Va."}
{"PERSONID": 8190, "PLACENAME": "Oyster Bay, N.Y."}
{"PERSONID": 8191, "PLACENAME": "Oyster Bay, N.Y."}
{"PERSONID": 8191, "PLACENAME": "Rome, Italy"}
{"PERSONID": 8196, "PLACENAME": "Los Angeles, Calif."}
{"PERSONID": 8196, "PLACENAME": "New Orleans, La."}
{"PERSONID": 8199, "PLACENAME": "Me."}
{"PERSONID": 8203, "PLACENAME": "New York, N.Y."}
{"PERSONID": 8206, "PLACENAME": "Conn."}
{"PERSONID": 8206, "PLACENAME": "Me."}
{"PERSONID": 8206, "PLACENAME": "Ohio"}
{"PERSONID": 8211, "PLACENAME": "Detroit, Mich."}
{"PERSONID": 8234, "PLACENAME": "New York, N.Y."}
{"PERSONID": 8252, "PLACENAME": "Boston, Mass."}
{"PERSONID": 8252, "PLACENAME": "Mexico"}
{"PERSONID": 8255, "PLACENAME": "Paris, France"}
{"PERSONID": 8271, "PLACENAME": "New York, N.Y."}
{"PERSONID": 8271, "PLACENAME": "Provincetown, Mass."}
{"PERSONID": 8274, "PLACENAME": "Santa Fe, N.M."}
{"PERSONID": 8279, "PLACENAME": "Detroit, Mich."}
{"PERSONID": 8279, "PLACENAME": "Paris, France"}
{"PERSONID": 8279, "PLACENAME": "Rome, Italy"}
{"PERSONID": 8282, "PLACENAME": "Oneonta, N.Y."}
{"PERSONID": 8301, "PLACENAME": "N.Y."}
{"PERSONID": 8302, "PLACENAME": "Calif."}
{"PERSONID": 8308, "PLACENAME": "Calif."}
{"PERSONID": 8308, "PLACENAME": "New York, N.Y."}
{"PERSONID": 8312, "PLACENAME": "Nev."}
{"PERSONID": 8321, "PLACENAME": "Vt."}
{"PERSONID": 8331, "PLACENAME": "Greenwich Village, N.Y."}
{"PERSONID": 8331, "PLACENAME": "Taos, N.M."}
{"PERSONID": 8333, "PLACENAME": "New York, N.Y."}
{"PERSONID": 8334, "PLACENAME": "Taos, N.M."}
{"PERSONID": 8336, "PLACENAME": "Los Angeles, Calif."}
{"PERSONID": 8336, "PLACENAME": "New York, N.Y."}
{"PERSONID": 8338, "PLACENAME": "New York, N.Y."}
{"PERSONID": 8342, "PLACENAME": "New York, N.Y."}
{"PERSONID": 8360, "PLACENAME": "New York, N.Y."}
{"PERSONID": 8361, "PLACENAME": "Del."}
{"PERSONID": 8362, "PLACENAME": "Indianapolis, Ind."}
{"PERSONID": 8376, "PLACENAME": "Cleveland, Ohio"}
{"PERSONID": 8382, "PLACENAME": "Berlin, Germany"}
{"PERSONID": 8382, "PLACENAME": "New York, N.Y."}
{"PERSONID": 8383, "PLACENAME": "New York, N.Y."}
{"PERSONID": 8384, "PLACENAME": "New York, N.Y."}
{"PERSONID": 8385, "PLACENAME": "New York, N.Y."}
{"PERSONID": 8386, "PLACENAME": "New York, N.Y."}
{"PERSONID": 8387, "PLACENAME": "Florence, Italy"}
{"PERSONID": 8388, "PLACENAME": "East Hampton, N.Y."}
{"PERSONID": 8394, "PLACENAME": "New York, N.Y."}
{"PERSONID": 8397, "PLACENAME": "Ohio"}
{"PERSONID": 8397, "PLACENAME": "Washington, D.C."}
{"PERSONID": 8406, "PLACENAME": "Richmond, Va."}
{"PERSONID": 8407, "PLACENAME": "Richmond, Va."}
{"PERSONID": 8432, "PLACENAME": "Moose, Wyo."}
{"PERSONID": 8433, "PLACENAME": "Los Angeles, Calif."}
{"PERSONID": 8437, "PLACENAME": "Mexico City, Mexico"}
{"PERSONID": 8438, "PLACENAME": "Los Angeles, Calif."}
{"PERSONID": 8439, "PLACENAME": "Mexico"}
{"PERSONID": 8444, "PLACENAME": "Sag Harbor, N.Y."}
{"PERSONID": 8445, "PLACENAME": "New York, N.Y."}
{"PERSONID": 8449, "PLACENAME": "Boston, Mass."}
{"PERSONID": 8450, "PLACENAME": "London, England"}
{"PERSONID": 8451, "PLACENAME": "Paris, France"}
{"PERSONID": 8456, "PLACENAME": "Ohio"}
{"PERSONID": 8458, "PLACENAME": "Calif."}
{"PERSONID": 8458, "PLACENAME": "Charlottesville, Va."}
{"PERSONID": 8458, "PLACENAME": "N.Y."}
{"PERSONID": 8459, "PLACENAME": "New York, N.Y."}
{"PERSONID": 8461, "PLACENAME": "Harwinton, Conn."}
{"PERSONID": 8468, "PLACENAME": "Iowa"}
{"PERSONID": 8470, "PLACENAME": "New York, N.Y."}
{"PERSONID": 8475, "PLACENAME": "New York, N.Y."}
{"PERSONID": 8479, "PLACENAME": "Paris, France"}
{"PERSONID": 8480, "PLACENAME": "France"}
{"PERSONID": 8482, "PLACENAME": "Germany"}
{"PERSONID": 8486, "PLACENAME": "New York, N.Y."}
{"PERSONID": 8487, "PLACENAME": "Montana"}
{"PERSONID": 8488, "PLACENAME": "Woodstock, N.Y."}
{"PERSONID": 8491, "PLACENAME": "San Francisco, Calif."}
{"PERSONID": 8492, "PLACENAME": "Woodstock, N.Y."}
{"PERSONID": 8493, "PLACENAME": "Iowa"}
{"PERSONID": 8494, "PLACENAME": "New York, N.Y."}
{"PERSONID": 8494, "PLACENAME": "Woodstock, N.Y."}
{"PERSONID": 8497, "PLACENAME": "Calif."}
{"PERSONID": 8499, "PLACENAME": "New York, N.Y."}
{"PERSONID": 8500, "PLACENAME": "England"}
{"PERSONID": 8502, "PLACENAME": "Brantwood, England"}
{"PERSONID": 8509, "PLACENAME": "England"}
{"PERSONID": 8510, "PLACENAME": "Lenox, Mass."}
{"PERSONID": 8510, "PLACENAME": "Paris, France"}
{"PERSONID": 8511, "PLACENAME": "Paris, France"}
{"PERSONID": 8512, "PLACENAME": "France"}
{"PERSONID": 8513, "PLACENAME": "France"}
{"PERSONID": 8515, "PLACENAME": "France"}
{"PERSONID": 8517, "PLACENAME": "Pa."}
{"PERSONID": 8518, "PLACENAME": "New York, N.Y."}
{"PERSONID": 8519, "PLACENAME": "New York, N.Y."}
{"PERSONID": 8520, "PLACENAME": "Mumbai, India"}
{"PERSONID": 8526, "PLACENAME": "R.I."}
{"PERSONID": 8529, "PLACENAME": "U.S."}
{"PERSONID": 8533, "PLACENAME": "Philadelphia, Pa."}
{"PERSONID": 8534, "PLACENAME": "New York, N.Y."}
{"PERSONID": 8536, "PLACENAME": "New York, N.Y."}
{"PERSONID": 8538, "PLACENAME": "Italy"}
{"PERSONID": 8540, "PLACENAME": "London, England"}
{"PERSONID": 8540, "PLACENAME": "Vt."}
{"PERSONID": 8548, "PLACENAME": "Ohio"}
{"PERSONID": 8555, "PLACENAME": "Alfred, N.Y."}
{"PERSONID": 8558, "PLACENAME": "Washington, D.C."}
{"PERSONID": 8561, "PLACENAME": "Annandale, N.J."}
{"PERSONID": 8561, "PLACENAME": "Maplewood, N.J."}
{"PERSONID": 8561, "PLACENAME": "Newark, N.J."}
{"PERSONID": 8566, "PLACENAME": "New York, N.Y."}
{"PERSONID": 8567, "PLACENAME": "Sarasota, Fla."}
{"PERSONID": 8568, "PLACENAME": "Washington, D.C."}
{"PERSONID": 8571, "PLACENAME": "Mass."}
{"PERSONID": 8600, "PLACENAME": "Ames, Iowa"}
{"PERSONID": 8602, "PLACENAME": "Berkeley, Calif."}
{"PERSONID": 8603, "PLACENAME": "Berkeley, Calif."}
{"PERSONID": 8605, "PLACENAME": "New York, N.Y."}
{"PERSONID": 8606, "PLACENAME": "Washington, D.C."}
{"PERSONID": 8613, "PLACENAME": "Libre, Colo."}
{"PERSONID": 8613, "PLACENAME": "Malibu, Calif."}
{"PERSONID": 8613, "PLACENAME": "New York, N.Y."}
{"PERSONID": 8615, "PLACENAME": "N.Y."}
{"PERSONID": 8616, "PLACENAME": "Boston, Mass."}
{"PERSONID": 8625, "PLACENAME": "Mass."}
{"PERSONID": 8626, "PLACENAME": "Mass."}
{"PERSONID": 8627, "PLACENAME": "New York, N.Y."}
{"PERSONID": 8630, "PLACENAME": "New York, N.Y."}
{"PERSONID": 8635, "PLACENAME": "Miami, Fla."}
{"PERSONID": 8640, "PLACENAME": "New York, N.Y."}
{"PERSONID": 8641, "PLACENAME": "Hoosick, N.Y."}
{"PERSONID": 8642, "PLACENAME": "Boston, Mass."}
{"PERSONID": 8644, "PLACENAME": "Washington, D.C."}
{"PERSONID": 8645, "PLACENAME": "New York, N.Y."}
{"PERSONID": 8647, "PLACENAME": "Middletown, N.J."}
{"PERSONID": 8648, "PLACENAME": "Norwalk, Conn."}
{"PERSONID": 8656, "PLACENAME": "New York, N.Y."}
{"PERSONID": 8674, "PLACENAME": "New York, N.Y."}
{"PERSONID": 8677, "PLACENAME": "New York, N.Y."}
{"PERSONID": 8678, "PLACENAME": "Monhegan Island, Me."}
{"PERSONID": 8680, "PLACENAME": "New York, N.Y."}
{"PERSONID": 8681, "PLACENAME": "New York, N.Y."}
{"PERSONID": 8682, "PLACENAME": "New York, N.Y."}
{"PERSONID": 8684, "PLACENAME": "Havana, Cuba"}
{"PERSONID": 8685, "PLACENAME": "New York, N.Y."}
{"PERSONID": 8686, "PLACENAME": "Nashville, Tenn."}
{"PERSONID": 8695, "PLACENAME": "England"}
{"PERSONID": 8706, "PLACENAME": "San Francisco, Calif."}
{"PERSONID": 8709, "PLACENAME": "New York, N.Y."}
{"PERSONID": 8714, "PLACENAME": "New York, N.Y."}
{"PERSONID": 8717, "PLACENAME": "Woodstock, N.Y."}
{"PERSONID": 8719, "PLACENAME": "Oakland, Calif."}
{"PERSONID": 8720, "PLACENAME": "Cleveland, Ohio"}
{"PERSONID": 8741, "PLACENAME": "Italy"}
{"PERSONID": 8741, "PLACENAME": "Ohio"}
{"PERSONID": 8743, "PLACENAME": "Germany"}
{"PERSONID": 8744, "PLACENAME": "New York, N.Y."}
{"PERSONID": 8745, "PLACENAME": "New York, N.Y."}
{"PERSONID": 8746, "PLACENAME": "Washington, D.C."}
{"PERSONID": 8751, "PLACENAME": "Vienna, Austria"}
{"PERSONID": 8752, "PLACENAME": "New York, N.Y."}
{"PERSONID": 8753, "PLACENAME": "Pittsburgh, Pa."}
{"PERSONID": 8760, "PLACENAME": "New York, N.Y."}
{"PERSONID": 8774, "PLACENAME": "England"}
{"PERSONID": 8779, "PLACENAME": "Italy"}
{"PERSONID": 8788, "PLACENAME": "France"}
{"PERSONID": 8789, "PLACENAME": "N.Y."}
{"PERSONID": 8795, "PLACENAME": "Clarksdale, Ariz."}
{"PERSONID": 8799, "PLACENAME": "Los Angeles, Calif."}
{"PERSONID": 8799, "PLACENAME": "New York, N.Y."}
{"PERSONID": 8810, "PLACENAME": "Los Angeles, Calif."}
{"PERSONID": 8817, "PLACENAME": "Philadelphia, Pa."}
{"PERSONID": 8818, "PLACENAME": "Detroit, Mich."}
{"PERSONID": 8819, "PLACENAME": "Detroit, Mich."}
{"PERSONID": 8820, "PLACENAME": "England"}
{"PERSONID": 8821, "PLACENAME": "Detroit, Mich."}
{"PERSONID": 8822, "PLACENAME": "Detroit, Mich."}
{"PERSONID": 8823, "PLACENAME": "England"}
{"PERSONID": 8825, "PLACENAME": "Detroit, Mich."}
{"PERSONID": 8826, "PLACENAME": "Detroit, Mich."}
{"PERSONID": 8826, "PLACENAME": "Washington, D.C."}
{"PERSONID": 8827, "PLACENAME": "Detroit, Mich."}
{"PERSONID": 8828, "PLACENAME": "Detroit, Mich."}
{"PERSONID": 8829, "PLACENAME": "Detroit, Mich."}
{"PERSONID": 8837, "PLACENAME": "New York, N.Y."}
{"PERSONID": 8839, "PLACENAME": "Charlottesville, Va."}
{"PERSONID": 8845, "PLACENAME": "Santa Fe, N.M."}
{"PERSONID": 8851, "PLACENAME": "Shelburne Falls, Massachusetts"}
{"PERSONID": 8863, "PLACENAME": "Carbondale, Ill."}
{"PERSONID": 8871, "PLACENAME": "Steeds, North Carolina, United States"}
{"PERSONID": 8889, "PLACENAME": "Pittsburgh, Pa."}
{"PERSONID": 8895, "PLACENAME": "Austria"}
{"PERSONID": 8897, "PLACENAME": "Cambridge, Mass."}
{"PERSONID": 8899, "PLACENAME": "Cambridge, Mass."}
{"PERSONID": 8906, "PLACENAME": "Bloomfield Hills, Mich."}
{"PERSONID": 8931, "PLACENAME": "Swarthmore, Pa."}
{"PERSONID": 8936, "PLACENAME": "Hawaii"}
{"PERSONID": 8945, "PLACENAME": "New York, N.Y."}
{"PERSONID": 8948, "PLACENAME": "Miss."}
{"PERSONID": 8950, "PLACENAME": "Germany"}
{"PERSONID": 8952, "PLACENAME": "Los Angeles, Calif."}
{"PERSONID": 8953, "PLACENAME": "New York, N.Y."}
{"PERSONID": 8956, "PLACENAME": "Great Neck, N.Y."}
{"PERSONID": 8966, "PLACENAME": "New York, N.Y."}
{"PERSONID": 8967, "PLACENAME": "New York, N.Y."}
{"PERSONID": 8967, "PLACENAME": "Newport, R.I."}
{"PERSONID": 8968, "PLACENAME": "Conn."}
{"PERSONID": 8968, "PLACENAME": "Mass."}
{"PERSONID": 8969, "PLACENAME": "Miss."}
{"PERSONID": 8972, "PLACENAME": "New York, N.Y."}
{"PERSONID": 8974, "PLACENAME": "New York, N.Y."}
{"PERSONID": 8975, "PLACENAME": "New York, N.Y."}
{"PERSONID": 8993, "PLACENAME": "Washington, D.C."}
{"PERSONID": 8995, "PLACENAME": "N.Y."}
{"PERSONID": 8996, "PLACENAME": "San Francisco, Calif."}
{"PERSONID": 8998, "PLACENAME": "Vienna, Austria"}
{"PERSONID": 9003, "PLACENAME": "New York, N.Y."}
{"PERSONID": 9005, "PLACENAME": "New York, N.Y."}
{"PERSONID": 9026, "PLACENAME": "N.Y."}
{"PERSONID": 9027, "PLACENAME": "Paris, France"}
{"PERSONID": 9028, "PLACENAME": "Munich, Germany"}
{"PERSONID": 9029, "PLACENAME": "Boston, Mass."}
{"PERSONID": 9030, "PLACENAME": "Boston, Mass."}
{"PERSONID": 9032, "PLACENAME": "Conn."}
{"PERSONID": 9034, "PLACENAME": "New York, N.Y."}
{"PERSONID": 9037, "PLACENAME": "New York, N.Y."}
{"PERSONID": 9038, "PLACENAME": "Los Angeles, Calif."}
{"PERSONID": 9039, "PLACENAME": "New York, N.Y."}
{"PERSONID": 9040, "PLACENAME": "Mass."}
{"PERSONID": 9042, "PLACENAME": "Washington, D.C."}
{"PERSONID": 9044, "PLACENAME": "Bennington, Vt."}
{"PERSONID": 9044, "PLACENAME": "Mexico"}
{"PERSONID": 9044, "PLACENAME": "N.Y."}
{"PERSONID": 9046, "PLACENAME": "New York, N.Y."}
{"PERSONID": 9050, "PLACENAME": "Or."}
{"PERSONID": 9053, "PLACENAME": "New York, N.Y."}
{"PERSONID": 9054, "PLACENAME": "Mexico"}
{"PERSONID": 9081, "PLACENAME": "New York, N.Y."}
{"PERSONID": 9083, "PLACENAME": "Boston, Mass."}
{"PERSONID": 9084, "PLACENAME": "Boston, Mass."}
{"PERSONID": 9096, "PLACENAME": "R.I."}
{"PERSONID": 9112, "PLACENAME": "Sioux City, Ia."}
{"PERSONID": 9113, "PLACENAME": "New York, N.Y."}
{"PERSONID": 9119, "PLACENAME": "New York, N.Y."}
{"PERSONID": 9120, "PLACENAME": "New York, N.Y."}
{"PERSONID": 9121, "PLACENAME": "New York, N.Y."}
{"PERSONID": 9132, "PLACENAME": "France"}
{"PERSONID": 9133, "PLACENAME": "France"}
{"PERSONID": 9135, "PLACENAME": "New York, N.Y."}
{"PERSONID": 9138, "PLACENAME": "Germany"}
{"PERSONID": 9139, "PLACENAME": "Berlin, Germany"}
{"PERSONID": 9141, "PLACENAME": "New York, N.Y."}
{"PERSONID": 9141, "PLACENAME": "Paris, France"}
{"PERSONID": 9147, "PLACENAME": "New York, N.Y."}
{"PERSONID": 9148, "PLACENAME": "Seattle, Wash."}
{"PERSONID": 9164, "PLACENAME": "New York, N.Y."}
{"PERSONID": 9167, "PLACENAME": "Calif."}
{"PERSONID": 9188, "PLACENAME": "Albuquerque, N.M."}
{"PERSONID": 9188, "PLACENAME": "Kalamazoo, Mich."}
{"PERSONID": 9188, "PLACENAME": "New York, N.Y."}
{"PERSONID": 9192, "PLACENAME": "Calif."}
{"PERSONID": 9209, "PLACENAME": "Princeton, N.J."}
{"PERSONID": 9212, "PLACENAME": "Provincetown, Mass."}
{"PERSONID": 9220, "PLACENAME": "Providence, R.I."}
{"PERSONID": 9246, "PLACENAME": "San Francisco, Calif."}
{"PERSONID": 9248, "PLACENAME": "New York, N.Y."}
{"PERSONID": 9259, "PLACENAME": "New York, N.Y."}
{"PERSONID": 9263, "PLACENAME": "New York, N.Y."}
{"PERSONID": 9264, "PLACENAME": "Hollywood, Calif."}
{"PERSONID": 9267, "PLACENAME": "Calif."}
{"PERSONID": 9268, "PLACENAME": "Philadelphia, Pa."}
{"PERSONID": 9275, "PLACENAME": "Washington, D.C."}
{"PERSONID": 9284, "PLACENAME": "New York, N.Y."}
{"PERSONID": 9300, "PLACENAME": "Chicago, Ill."}
{"PERSONID": 9313, "PLACENAME": "Florence, Italy"}
{"PERSONID": 9338, "PLACENAME": "New York, N.Y."}
{"PERSONID": 9389, "PLACENAME": "New York, N.Y."}
{"PERSONID": 9397, "PLACENAME": "Chicago, Ill."}
{"PERSONID": 9405, "PLACENAME": "San Marcos, Calif."}
{"PERSONID": 9416, "PLACENAME": "New York, N.Y."}
{"PERSONID": 9418, "PLACENAME": "New York, N.Y."}
{"PERSONID": 9419, "PLACENAME": "New York, N.Y."}
{"PERSONID": 9430, "PLACENAME": "Centerpoint, N.Y."}
{"PERSONID": 9430, "PLACENAME": "Geneva, N.Y."}
{"PERSONID": 9441, "PLACENAME": "New York, N.Y."}
{"PERSONID": 9442, "PLACENAME": "U.S."}
{"PERSONID": 9446, "PLACENAME": "New York, N.Y."}
{"PERSONID": 9454, "PLACENAME": "New York, N.Y."}
{"PERSONID": 9473, "PLACENAME": "Staunton, Va."}
{"PERSONID": 9478, "PLACENAME": "Catskill, N.Y."}
{"PERSONID": 9479, "PLACENAME": "New York, N.Y."}
{"PERSONID": 9486, "PLACENAME": "Chicago, Ill."}
{"PERSONID": 9495, "PLACENAME": "San Patricio, N.M."}
{"PERSONID": 9503, "PLACENAME": "New York, N.Y."}
{"PERSONID": 9508, "PLACENAME": "Boston, Mass."}
{"PERSONID": 9514, "PLACENAME": "Los Angeles, Calif."}
{"PERSONID": 9518, "PLACENAME": "New York, N.Y."}
{"PERSONID": 9529, "PLACENAME": "New York, N.Y."}
{"PERSONID": 9550, "PLACENAME": "New York, N.Y."}
{"PERSONID": 9556, "PLACENAME": "Pasadena, Calif."}
{"PERSONID": 9558, "PLACENAME": "Austin, Tex."}
{"PERSONID": 9561, "PLACENAME": "Paris, France"}
{"PERSONID": 9561, "PLACENAME": "Sag Harbor, N.Y."}
{"PERSONID": 9567, "PLACENAME": "New York, N.Y."}
{"PERSONID": 9568, "PLACENAME": "Guerneville, Calif."}
{"PERSONID": 9578, "PLACENAME": "Boston, Mass."}
{"PERSONID": 9578, "PLACENAME": "White Mountains, N.H."}
{"PERSONID": 9584, "PLACENAME": "San Francisco, Calif."}
{"PERSONID": 9585, "PLACENAME": "Paterson, N.J."}
{"PERSONID": 9586, "PLACENAME": "South Orange, N.J."}
{"PERSONID": 9589, "PLACENAME": "New York, N.Y."}
{"PERSONID": 9598, "PLACENAME": "Ont."}
{"PERSONID": 9601, "PLACENAME": "New York, N.Y."}
{"PERSONID": 9645, "PLACENAME": "Boston, Mass."}
{"PERSONID": 9645, "PLACENAME": "New York, N.Y."}
{"PERSONID": 9645, "PLACENAME": "Rockport, Mass."}
{"PERSONID": 9669, "PLACENAME": "Minneapolis, Minn."}
{"PERSONID": 10434, "PLACENAME": "New York, N.Y."}
{"PERSONID": 10436, "PLACENAME": "New York, N.Y."}
{"PERSONID": 10453, "PLACENAME": "Los Angeles, Calif."}
{"PERSONID": 10455, "PLACENAME": "New York, N.Y."}
{"PERSONID": 10456, "PLACENAME": "Skowegan, Me."}
{"PERSONID": 10466, "PLACENAME": "New York, N.Y."}
{"PERSONID": 10468, "PLACENAME": "Penland, N.C."}
{"PERSONID": 10474, "PLACENAME": "Chicago, Ill."}
{"PERSONID": 10478, "PLACENAME": "N.Y."}
{"PERSONID": 10482, "PLACENAME": "Amsterdam, Netherlands"}
{"PERSONID": 10485, "PLACENAME": "Mass."}
{"PERSONID": 10486, "PLACENAME": "New York, N.Y."}
{"PERSONID": 10489, "PLACENAME": "Omaha, Neb."}
{"PERSONID": 10499, "PLACENAME": "New York, N.Y."}
{"PERSONID": 10500, "PLACENAME": "New York, N.Y."}
{"PERSONID": 10509, "PLACENAME": "Hartford, Conn."}
{"PERSONID": 10509, "PLACENAME": "New York, N.Y."}
{"PERSONID": 10515, "PLACENAME": "Me."}
{"PERSONID": 10526, "PLACENAME": "Los Angeles, Calif."}
{"PERSONID": 10526, "PLACENAME": "Seattle, Wash."}
{"PERSONID": 10526, "PLACENAME": "Spokane, Wash."}
{"PERSONID": 10531, "PLACENAME": "Hastings-on-Hudson, N.Y."}
{"PERSONID": 10533, "PLACENAME": "Baltimore, Md."}
{"PERSONID": 10534, "PLACENAME": "Detroit, Mich."}
{"PERSONID": 10538, "PLACENAME": "New York, N.Y."}
{"PERSONID": 10556, "PLACENAME": "San Francisco, Calif."}
{"PERSONID": 10560, "PLACENAME": "New York, N.Y."}
{"PERSONID": 10568, "PLACENAME": "Milan, Italy"}
{"PERSONID": 10568, "PLACENAME": "New York, N.Y."}
{"PERSONID": 10568, "PLACENAME": "Paris, France"}
{"PERSONID": 10568, "PLACENAME": "Rome, Italy"}
{"PERSONID": 10570, "PLACENAME": "New York, N.Y."}
{"PERSONID": 10573, "PLACENAME": "Brooklyn, N.Y."}
{"PERSONID": 10574, "PLACENAME": "New York, N.Y."}
{"PERSONID": 10584, "PLACENAME": "Germany"}
{"PERSONID": 10591, "PLACENAME": "Germany"}
{"PERSONID": 10595, "PLACENAME": "New York, N.Y."}
{"PERSONID": 10596, "PLACENAME": "New York, N.Y."}
{"PERSONID": 10598, "PLACENAME": "Negev, Israel"}
{"PERSONID": 10603, "PLACENAME": "New York, N.Y."}
{"PERSONID": 10620, "PLACENAME": "New York, N.Y."}
{"PERSONID": 10630, "PLACENAME": "Galisteo, N.M."}
{"PERSONID": 10633, "PLACENAME": "Los Angeles, Calif."}
{"PERSONID": 10648, "PLACENAME": "Fla."}
{"PERSONID": 10648, "PLACENAME": "Monterey, Calif."}
{"PERSONID": 10648, "PLACENAME": "Woodstock, N.Y."}
{"PERSONID": 10649, "PLACENAME": "Woodstock, N.Y."}
{"PERSONID": 10651, "PLACENAME": "Shady, N.Y."}
{"PERSONID": 10657, "PLACENAME": "Chadron, Neb."}
{"PERSONID": 10658, "PLACENAME": "Binghamton, N.Y."}
{"PERSONID": 10664, "PLACENAME": "Woodstock, N.Y."}
{"PERSONID": 10667, "PLACENAME": "New York, N.Y."}
{"PERSONID": 10670, "PLACENAME": "New York, N.Y."}
{"PERSONID": 10679, "PLACENAME": "New York, N.Y."}
{"PERSONID": 10681, "PLACENAME": "Hollywood, Calif."}
{"PERSONID": 10707, "PLACENAME": "New York, N.Y."}
{"PERSONID": 10715, "PLACENAME": "Ill."}
{"PERSONID": 10860, "PLACENAME": "San Francisco, Calif."}
{"PERSONID": 10918, "PLACENAME": "Cleveland, Ohio"}
{"PERSONID": 10919, "PLACENAME": "Birmingham, Ala."}
{"PERSONID": 10921, "PLACENAME": "Chicago, Ill."}
{"PERSONID": 10928, "PLACENAME": "Provincetown, Mass."}
{"PERSONID": 10931, "PLACENAME": "New York, N.Y."}
{"PERSONID": 10933, "PLACENAME": "New York, N.Y."}
{"PERSONID": 10976, "PLACENAME": "New York, N.Y."}
{"PERSONID": 10980, "PLACENAME": "New York, N.Y."}
{"PERSONID": 10982, "PLACENAME": "Penland, N.C."}
{"PERSONID": 10989, "PLACENAME": "New York, N.Y."}
{"PERSONID": 10998, "PLACENAME": "Murray Hill, N.J."}
{"PERSONID": 11002, "PLACENAME": "Los Angeles, Calif."}
{"PERSONID": 11013, "PLACENAME": "Athens, Greece"}
{"PERSONID": 11015, "PLACENAME": "Los Angeles, Calif."}
{"PERSONID": 11020, "PLACENAME": "Chicago, Ill."}
{"PERSONID": 11027, "PLACENAME": "Switzerland"}
{"PERSONID": 11028, "PLACENAME": "Sydney, Australia"}
{"PERSONID": 11032, "PLACENAME": "Sunnyside, N.Y."}
{"PERSONID": 11034, "PLACENAME": "Barre, Vt."}
{"PERSONID": 11035, "PLACENAME": "New Paltz, N.Y."}
{"PERSONID": 11037, "PLACENAME": "New York, N.Y."}
{"PERSONID": 11038, "PLACENAME": "New York, N.Y."}
{"PERSONID": 11045, "PLACENAME": "New York, N.Y."}
{"PERSONID": 11054, "PLACENAME": "New York, N.Y."}
{"PERSONID": 11070, "PLACENAME": "New York, N.Y."}
{"PERSONID": 11074, "PLACENAME": "Paris, France"}
{"PERSONID": 11101, "PLACENAME": "New York, N.Y."}
{"PERSONID": 11120, "PLACENAME": "New York, N.Y."}
{"PERSONID": 11121, "PLACENAME": "Los Angeles, Calif."}
{"PERSONID": 11127, "PLACENAME": "New York, N.Y."}
{"PERSONID": 11129, "PLACENAME": "New York, N.Y."}
{"PERSONID": 11131, "PLACENAME": "Southampton, N.Y."}
{"PERSONID": 11132, "PLACENAME": "San Juan, Puerto Rico"}
{"PERSONID": 11139, "PLACENAME": "New York, N.Y."}
{"PERSONID": 11145, "PLACENAME": "Palm Beach, Fla."}
{"PERSONID": 11147, "PLACENAME": "New York, N.Y."}
{"PERSONID": 11161, "PLACENAME": "Fredericksburg, Va."}
{"PERSONID": 11178, "PLACENAME": "San Rafael, Calif."}
{"PERSONID": 11302, "PLACENAME": "Munich, Germany"}
{"PERSONID": 11448, "PLACENAME": "Ohio"}
{"PERSONID": 11463, "PLACENAME": "New York, N.Y."}
{"PERSONID": 11466, "PLACENAME": "Calif."}
{"PERSONID": 11581, "PLACENAME": "New York, N.Y."}
{"PERSONID": 11591, "PLACENAME": "Chicago, Ill."}
{"PERSONID": 11699, "PLACENAME": "New York, N.Y."}
{"PERSONID": 11767, "PLACENAME": "Lawrence, Kan."}
{"PERSONID": 11793, "PLACENAME": "New York, N.Y."}
{"PERSONID": 11793, "PLACENAME": "Norwalk, Conn."}
{"PERSONID": 11889, "PLACENAME": "Chicago, Ill."}
{"PERSONID": 11930, "PLACENAME": "New York, N.Y."}
{"PERSONID": 11930, "PLACENAME": "Watertown, Conn."}
{"PERSONID": 11999, "PLACENAME": "Berlin, Germany"}
{"PERSONID": 11999, "PLACENAME": "Paris, France"}
{"PERSONID": 12372, "PLACENAME": "New York, N.Y."}
{"PERSONID": 12372, "PLACENAME": "San Francisco, Calif."}
{"PERSONID": 12499, "PLACENAME": "New York, N.Y."}
{"PERSONID": 12499, "PLACENAME": "Paris, France"}
{"PERSONID": 12546, "PLACENAME": "New York, N.Y."}
{"PERSONID": 12592, "PLACENAME": "Blacksburg, Va."}
{"PERSONID": 12592, "PLACENAME": "London, England"}
{"PERSONID": 12592, "PLACENAME": "New York, N.Y."}
{"PERSONID": 12639, "PLACENAME": "Paris, France"}
{"PERSONID": 12714, "PLACENAME": "Montreal, Canada"}
{"PERSONID": 12743, "PLACENAME": "New York, N.Y."}
{"PERSONID": 12903, "PLACENAME": "Paris, France"}
{"PERSONID": 13117, "PLACENAME": "San Francisco, Calif."}
{"PERSONID": 13168, "PLACENAME": "Albuquerque, N.M."}
{"PERSONID": 13172, "PLACENAME": "Pittsburgh, Pa."}
{"PERSONID": 13424, "PLACENAME": "New York, N.Y."}
{"PERSONID": 13469, "PLACENAME": "New York, N.Y."}
{"PERSONID": 13566, "PLACENAME": "Aix-en-Provence, France"}
{"PERSONID": 13566, "PLACENAME": "New Preston, Conn."}
{"PERSONID": 13648, "PLACENAME": "Gainesville, Fla."}
{"PERSONID": 13648, "PLACENAME": "Los Angeles, Calif."}
{"PERSONID": 13648, "PLACENAME": "New York, N.Y."}
{"PERSONID": 13739, "PLACENAME": "New York, N.Y."}
{"PERSONID": 13799, "PLACENAME": "Lyme, N.H."}
{"PERSONID": 13799, "PLACENAME": "New York, N.Y."}
{"PERSONID": 13886, "PLACENAME": "Cleveland, Ohio"}
{"PERSONID": 14067, "PLACENAME": "San Francisco, Calif."}
{"PERSONID": 14087, "PLACENAME": "New York, N.Y."}
{"PERSONID": 14177, "PLACENAME": "New York, N.Y."}
{"PERSONID": 14227, "PLACENAME": "Paris, France"}
{"PERSONID": 14241, "PLACENAME": "Marseille, France"}
{"PERSONID": 14243, "PLACENAME": "New York, N.Y."}
{"PERSONID": 14395, "PLACENAME": "Auburn, N.Y."}
{"PERSONID": 14395, "PLACENAME": "Washington, D.C."}
{"PERSONID": 14470, "PLACENAME": "New Hope, Pa."}
{"PERSONID": 14470, "PLACENAME": "New York, N.Y."}
{"PERSONID": 14471, "PLACENAME": "New York, N.Y."}
{"PERSONID": 14483, "PLACENAME": "New York, N.Y."}
{"PERSONID": 14483, "PLACENAME": "Paris, France"}
{"PERSONID": 14846, "PLACENAME": "England"}
{"PERSONID": 14846, "PLACENAME": "Mass."}
{"PERSONID": 14846, "PLACENAME": "New York, N.Y."}
{"PERSONID": 15008, "PLACENAME": "Chicago, Ill."}
{"PERSONID": 15030, "PLACENAME": "Boston, Mass."}
{"PERSONID": 15030, "PLACENAME": "Munich, Germany"}
{"PERSONID": 15124, "PLACENAME": "New York, N.Y."}
{"PERSONID": 15205, "PLACENAME": "New York, N.Y."}
{"PERSONID": 15237, "PLACENAME": "Valatie, N.Y."}
{"PERSONID": 15239, "PLACENAME": "New York, N.Y."}
{"PERSONID": 15250, "PLACENAME": "Laramie, Wyo."}
{"PERSONID": 15253, "PLACENAME": "Chicago, Ill."}
{"PERSONID": 15261, "PLACENAME": "Washington, D.C."}
{"PERSONID": 15280, "PLACENAME": "New York, N.Y."}
{"PERSONID": 15284, "PLACENAME": "Landover, Md."}
{"PERSONID": 15300, "PLACENAME": "Fruitland, N.M."}
{"PERSONID": 15313, "PLACENAME": "Calif."}
{"PERSONID": 15315, "PLACENAME": "New York, N.Y."}
{"PERSONID": 15318, "PLACENAME": "France"}
{"PERSONID": 15320, "PLACENAME": "London, England"}
{"PERSONID": 15322, "PLACENAME": "Los Angeles, Calif."}
{"PERSONID": 15323, "PLACENAME": "Los Angeles, Calif."}
{"PERSONID": 15327, "PLACENAME": "Boston, Mass."}
{"PERSONID": 15328, "PLACENAME": "Boston, Mass."}
{"PERSONID": 15330, "PLACENAME": "New Haven, Conn."}
{"PERSONID": 15331, "PLACENAME": "New York, N.Y."}
{"PERSONID": 15332, "PLACENAME": "New York, N.Y."}
{"PERSONID": 15333, "PLACENAME": "New York, N.Y."}
{"PERSONID": 15348, "PLACENAME": "San Francisco, Calif."}
{"PERSONID": 15353, "PLACENAME": "Philadelphia, Pa."}
{"PERSONID": 15356, "PLACENAME": "New York, N.Y."}
{"PERSONID": 15370, "PLACENAME": "Paris, France"}
{"PERSONID": 15372, "PLACENAME": "New York, N.Y."}
{"PERSONID": 15388, "PLACENAME": "New York, N.Y."}
{"PERSONID": 15399, "PLACENAME": "New York, N.Y."}
{"PERSONID": 15407, "PLACENAME": "France"}
{"PERSONID": 15407, "PLACENAME": "New York, N.Y."}
{"PERSONID": 15422, "PLACENAME": "Hunstville, Ala."}
{"PERSONID": 15430, "PLACENAME": "Cincinnati, Ohio"}
{"PERSONID": 15430, "PLACENAME": "New York, N.Y."}
{"PERSONID": 15436, "PLACENAME": "Calif."}
{"PERSONID": 15438, "PLACENAME": "Va."}
{"PERSONID": 15440, "PLACENAME": "White Plains, N.Y."}
{"PERSONID": 15442, "PLACENAME": "New York, N.Y."}
{"PERSONID": 15444, "PLACENAME": "Kingston, N.Y."}
{"PERSONID": 15447, "PLACENAME": "Reading, Pa."}
{"PERSONID": 15449, "PLACENAME": "New York, N.Y."}
{"PERSONID": 15450, "PLACENAME": "New York, N.Y."}
{"PERSONID": 15454, "PLACENAME": "New York, N.Y."}
{"PERSONID": 15455, "PLACENAME": "Huntington, N.Y."}
{"PERSONID": 15469, "PLACENAME": "Rochester, N.Y"}
{"PERSONID": 15473, "PLACENAME": "New York, N.Y."}
{"PERSONID": 15473, "PLACENAME": "Nova Scotia, Canada"}
{"PERSONID": 15474, "PLACENAME": "New York, N.Y."}
{"PERSONID": 15500, "PLACENAME": "New York, N.Y."}
{"PERSONID": 15501, "PLACENAME": "New York, N.Y."}
{"PERSONID": 15503, "PLACENAME": "Harlem, N.Y."}
{"PERSONID": 15505, "PLACENAME": "Harlem, N.Y."}
{"PERSONID": 15512, "PLACENAME": "San Diego, Calif."}
{"PERSONID": 15536, "PLACENAME": "San Francisco, Calif."}
{"PERSONID": 15553, "PLACENAME": "Germany"}
{"PERSONID": 15553, "PLACENAME": "New York, N.Y."}
{"PERSONID": 15563, "PLACENAME": "Calif."}
{"PERSONID": 15580, "PLACENAME": "New York, N.Y."}
{"PERSONID": 15584, "PLACENAME": "Washington, D.C."}
{"PERSONID": 15586, "PLACENAME": "New York, N.Y."}
{"PERSONID": 15604, "PLACENAME": "New York, N.Y."}
{"PERSONID": 15630, "PLACENAME": "Silver Spring, Md."}
{"PERSONID": 15635, "PLACENAME": "New York, N.Y."}
{"PERSONID": 15656, "PLACENAME": "N.J."}
{"PERSONID": 15669, "PLACENAME": "New York, N.Y."}
{"PERSONID": 15700, "PLACENAME": "Birmingham, Mich."}
{"PERSONID": 15701, "PLACENAME": "New York, N.Y."}
{"PERSONID": 15703, "PLACENAME": "New York, N.Y."}
{"PERSONID": 15709, "PLACENAME": "New York, N.Y."}
{"PERSONID": 15709, "PLACENAME": "San Francisco, Calif."}
{"PERSONID": 15717, "PLACENAME": "New York, N.Y."}
{"PERSONID": 15718, "PLACENAME": "New York, N.Y."}
{"PERSONID": 15719, "PLACENAME": "San Francisco, Calif."}
{"PERSONID": 15720, "PLACENAME": "New York, N.Y."}
{"PERSONID": 15728, "PLACENAME": "Los Angeles, Calif."}
{"PERSONID": 15749, "PLACENAME": "Tex."}
{"PERSONID": 15759, "PLACENAME": "Colorado Springs, Colo."}
{"PERSONID": 15786, "PLACENAME": "Calif."}
{"PERSONID": 15808, "PLACENAME": "Woodstock, N.Y."}
{"PERSONID": 15809, "PLACENAME": "New York, N.Y."}
{"PERSONID": 15809, "PLACENAME": "Woodstock, N.Y."}
{"PERSONID": 15817, "PLACENAME": "San Francisco, Calif."}
{"PERSONID": 15831, "PLACENAME": "San Francisco, Calif."}
{"PERSONID": 15838, "PLACENAME": "San Francisco, Calif."}
{"PERSONID": 15839, "PLACENAME": "New York, N.Y."}
{"PERSONID": 15844, "PLACENAME": "New York, N.Y."}
{"PERSONID": 15860, "PLACENAME": "Washington, D.C."}
{"PERSONID": 15866, "PLACENAME": "New York, N.Y."}
{"PERSONID": 15879, "PLACENAME": "New York, N.Y."}
{"PERSONID": 15894, "PLACENAME": "Pa."}
{"PERSONID": 15895, "PLACENAME": "Germany"}
{"PERSONID": 15905, "PLACENAME": "Boston, Mass."}
{"PERSONID": 15906, "PLACENAME": "Santa Fe, N.M."}
{"PERSONID": 15909, "PLACENAME": "Palo Alto, Calif."}
{"PERSONID": 15910, "PLACENAME": "San Francisco, Calif."}
{"PERSONID": 15921, "PLACENAME": "San Francisco, Calif."}
{"PERSONID": 15924, "PLACENAME": "Chicago, Ill."}
{"PERSONID": 15925, "PLACENAME": "Chicago, Ill."}
{"PERSONID": 15934, "PLACENAME": "Mich."}
{"PERSONID": 15937, "PLACENAME": "Syracuse, N.Y."}
{"PERSONID": 15938, "PLACENAME": "New York, N.Y."}
{"PERSONID": 15939, "PLACENAME": "New York, N.Y."}
{"PERSONID": 15948, "PLACENAME": "Paris, France"}
{"PERSONID": 15957, "PLACENAME": "Amsterdam, Netherlands"}
{"PERSONID": 15969, "PLACENAME": "Carterville, Ill."}
{"PERSONID": 15989, "PLACENAME": "Paris, France"}
{"PERSONID": 16024, "PLACENAME": "Dallas, Tex."}
{"PERSONID": 16029, "PLACENAME": "Los Angeles, Calif."}
{"PERSONID": 16030, "PLACENAME": "Santa Barbara, Calif."}
{"PERSONID": 16032, "PLACENAME": "Los Angeles, Calif."}
{"PERSONID": 16033, "PLACENAME": "Toronto, Canada"}
{"PERSONID": 16034, "PLACENAME": "Los Angeles, Calif."}
{"PERSONID": 16035, "PLACENAME": "Los Angeles, Calif."}
{"PERSONID": 16041, "PLACENAME": "Mexico City, Mexico"}
{"PERSONID": 16042, "PLACENAME": "Los Angeles, Calif."}
{"PERSONID": 16043, "PLACENAME": "Los Angeles, Calif."}
{"PERSONID": 16045, "PLACENAME": "New York, N.Y."}
{"PERSONID": 16047, "PLACENAME": "New York, N.Y."}
{"PERSONID": 16051, "PLACENAME": "New York, N.Y."}
{"PERSONID": 16055, "PLACENAME": "New York, N.Y."}
{"PERSONID": 16058, "PLACENAME": "Canada"}
{"PERSONID": 16140, "PLACENAME": "Keene, N.H."}
{"PERSONID": 16141, "PLACENAME": "Keene, N.H."}
{"PERSONID": 16145, "PLACENAME": "Brattleboro, Vt."}
{"PERSONID": 16164, "PLACENAME": "Munich, Germany"}
{"PERSONID": 16165, "PLACENAME": "New York, N.Y."}
{"PERSONID": 16168, "PLACENAME": "New York, N.Y."}
{"PERSONID": 16169, "PLACENAME": "New York, N.Y."}
{"PERSONID": 16201, "PLACENAME": "Benicia, Calif."}
{"PERSONID": 16201, "PLACENAME": "Madison, Wis."}
{"PERSONID": 16201, "PLACENAME": "Mexico"}
{"PERSONID": 16221, "PLACENAME": "New York, N.Y."}
{"PERSONID": 16236, "PLACENAME": "New York, N.Y."}
{"PERSONID": 16237, "PLACENAME": "New York, N.Y."}
{"PERSONID": 16239, "PLACENAME": "Princeton, N.J."}
{"PERSONID": 16268, "PLACENAME": "Wis."}
{"PERSONID": 16313, "PLACENAME": "New York, N.Y."}
{"PERSONID": 16317, "PLACENAME": "Jenkintown, Pa."}
{"PERSONID": 16361, "PLACENAME": "Chicago, Ill."}
{"PERSONID": 16361, "PLACENAME": "Detroit, Mich."}
{"PERSONID": 16361, "PLACENAME": "Miami, Fla."}
{"PERSONID": 16361, "PLACENAME": "Minneapolis, Minn."}
{"PERSONID": 16376, "PLACENAME": "Wilmington, Del."}
{"PERSONID": 16398, "PLACENAME": "New York, N.Y."}
{"PERSONID": 16406, "PLACENAME": "New York, N.Y."}
{"PERSONID": 16412, "PLACENAME": "New York, N.Y."}
{"PERSONID": 16413, "PLACENAME": "Brooklyn, N.Y."}
{"PERSONID": 16414, "PLACENAME": "Baltimore, Md."}
{"PERSONID": 16425, "PLACENAME": "Boston, Mass."}
{"PERSONID": 16425, "PLACENAME": "France"}
{"PERSONID": 16438, "PLACENAME": "Detroit, Mich."}
{"PERSONID": 16440, "PLACENAME": "Philadelphia, Pa."}
{"PERSONID": 16448, "PLACENAME": "Los Angeles, Calif."}
{"PERSONID": 16451, "PLACENAME": "Boston, Mass."}
{"PERSONID": 16451, "PLACENAME": "New York, N.Y."}
{"PERSONID": 16512, "PLACENAME": "Chicago, Ill."}
{"PERSONID": 16530, "PLACENAME": "San Francisco, Calif."}
{"PERSONID": 16534, "PLACENAME": "Los Angeles, Calif."}
{"PERSONID": 16534, "PLACENAME": "Paris, France"}
{"PERSONID": 16535, "PLACENAME": "Berkeley, Calif."}
{"PERSONID": 16557, "PLACENAME": "Paris, France"}
{"PERSONID": 16561, "PLACENAME": "Uruguay"}
{"PERSONID": 16576, "PLACENAME": "France"}
{"PERSONID": 16607, "PLACENAME": "Chicago, Ill."}
{"PERSONID": 16612, "PLACENAME": "Boston, Mass."}
{"PERSONID": 16637, "PLACENAME": "Columbus, Ohio"}
{"PERSONID": 16642, "PLACENAME": "Berlin, Germany"}
{"PERSONID": 16650, "PLACENAME": "San Francisco, Calif."}
{"PERSONID": 16669, "PLACENAME": "Charlottesville, Va."}
{"PERSONID": 16669, "PLACENAME": "Los Angeles, Calif."}
{"PERSONID": 16677, "PLACENAME": "New York, N.Y."}
{"PERSONID": 16682, "PLACENAME": "Great Neck, N.Y."}
{"PERSONID": 16686, "PLACENAME": "New York, N.Y."}
{"PERSONID": 16690, "PLACENAME": "Evanston, Ill."}
{"PERSONID": 16700, "PLACENAME": "San Francisco, Calif."}
{"PERSONID": 16702, "PLACENAME": "Santa Monica, Calif."}
{"PERSONID": 16703, "PLACENAME": "France"}
{"PERSONID": 16705, "PLACENAME": "New York, N.Y."}
{"PERSONID": 16706, "PLACENAME": "Mass."}
{"PERSONID": 16707, "PLACENAME": "Los Angeles, Calif."}
{"PERSONID": 16708, "PLACENAME": "Calif."}
{"PERSONID": 16711, "PLACENAME": "Cleveland, Ohio"}
{"PERSONID": 16715, "PLACENAME": "Germany"}
{"PERSONID": 16717, "PLACENAME": "New York, N.Y."}
{"PERSONID": 16758, "PLACENAME": "Germany"}
{"PERSONID": 16776, "PLACENAME": "Kyoto, Japan"}
{"PERSONID": 16781, "PLACENAME": "New York, N.Y."}
{"PERSONID": 16790, "PLACENAME": "Washington, D.C."}
{"PERSONID": 16794, "PLACENAME": "Washington, D.C."}
{"PERSONID": 16810, "PLACENAME": "Oakland, Calif."}
{"PERSONID": 16812, "PLACENAME": "New York, N.Y."}
{"PERSONID": 16813, "PLACENAME": "New York, N.Y."}
{"PERSONID": 16815, "PLACENAME": "Los Angeles, Calif."}
{"PERSONID": 16816, "PLACENAME": "Fla."}
{"PERSONID": 16817, "PLACENAME": "Miami, Fla."}
{"PERSONID": 16821, "PLACENAME": "Berkeley, Calif."}
{"PERSONID": 16868, "PLACENAME": "Brookline, Mass."}
{"PERSONID": 16898, "PLACENAME": "Boston, Mass."}
{"PERSONID": 16901, "PLACENAME": "Minneapolis, Minn."}
{"PERSONID": 16944, "PLACENAME": "New York, N.Y."}
{"PERSONID": 16962, "PLACENAME": "New York, N.Y."}
{"PERSONID": 16970, "PLACENAME": "Houston, Tex."}
{"PERSONID": 16971, "PLACENAME": "New York, N.Y."}
{"PERSONID": 16981, "PLACENAME": "San Francisco, Calif."}
{"PERSONID": 16982, "PLACENAME": "New York, N.Y."}
{"PERSONID": 16984, "PLACENAME": "New York, N.Y."}
{"PERSONID": 16992, "PLACENAME": "New York, N.Y."}
{"PERSONID": 16993, "PLACENAME": "Sagaponack, N.Y."}
{"PERSONID": 16995, "PLACENAME": "N.Y."}
{"PERSONID": 17005, "PLACENAME": "Dubuque, Iowa"}
{"PERSONID": 17024, "PLACENAME": "New York, N.Y."}
{"PERSONID": 17037, "PLACENAME": "San Francisco, Calif."}
{"PERSONID": 17043, "PLACENAME": "New York, N.Y."}
{"PERSONID": 17044, "PLACENAME": "Athens, Ga."}
{"PERSONID": 17044, "PLACENAME": "Kyoto, Japan"}
{"PERSONID": 17051, "PLACENAME": "New York, N.Y."}
{"PERSONID": 17054, "PLACENAME": "Los Angeles, Calif."}
{"PERSONID": 17057, "PLACENAME": "England"}
{"PERSONID": 17062, "PLACENAME": "Atherton, California"}
{"PERSONID": 17069, "PLACENAME": "N.J."}
{"PERSONID": 17072, "PLACENAME": "Storrs, Conn."}
{"PERSONID": 17074, "PLACENAME": "Ft. Worth, Tex"}
{"PERSONID": 17091, "PLACENAME": "New York, N.Y."}
{"PERSONID": 17098, "PLACENAME": "New York, N.Y."}
{"PERSONID": 17101, "PLACENAME": "Mo."}
{"PERSONID": 17105, "PLACENAME": "Chicago, Ill."}
{"PERSONID": 17122, "PLACENAME": "N.Y."}
{"PERSONID": 17126, "PLACENAME": "France"}
{"PERSONID": 17143, "PLACENAME": "New York, N.Y."}
{"PERSONID": 17145, "PLACENAME": "New York, N.Y."}
{"PERSONID": 17146, "PLACENAME": "Dublin, N.H."}
{"PERSONID": 17156, "PLACENAME": "Baltimore, Md."}
{"PERSONID": 17158, "PLACENAME": "Huntington Beach, Calif."}
{"PERSONID": 17168, "PLACENAME": "Paris, France"}
{"PERSONID": 17175, "PLACENAME": "Nice, France"}
{"PERSONID": 17176, "PLACENAME": "Jackson Hole, Wyo."}
{"PERSONID": 17180, "PLACENAME": "Washington, D.C."}
{"PERSONID": 17196, "PLACENAME": "Boston, Mass."}
{"PERSONID": 17199, "PLACENAME": "San Francisco, Calif."}
{"PERSONID": 17234, "PLACENAME": "Boca Raton, Florida, U.S."}
{"PERSONID": 17234, "PLACENAME": "Great Neck, N.Y."}
{"PERSONID": 17251, "PLACENAME": "Beverly Hills, Calif."}
{"PERSONID": 17252, "PLACENAME": "New York, N.Y."}
{"PERSONID": 17260, "PLACENAME": "New York, N.Y."}
{"PERSONID": 17260, "PLACENAME": "Wichita, Kan."}
{"PERSONID": 17278, "PLACENAME": "Baltimore, Md."}
{"PERSONID": 17290, "PLACENAME": "New York, N.Y."}
{"PERSONID": 17299, "PLACENAME": "Miami, Fla."}
{"PERSONID": 17299, "PLACENAME": "New York, N.Y."}
{"PERSONID": 17303, "PLACENAME": "Belgium"}
{"PERSONID": 17315, "PLACENAME": "Germany"}
{"PERSONID": 17385, "PLACENAME": "Wis."}
{"PERSONID": 17419, "PLACENAME": "New York, N.Y."}
{"PERSONID": 17423, "PLACENAME": "San Francisco, Calif."}
{"PERSONID": 17430, "PLACENAME": "Washington, D.C."}
{"PERSONID": 17434, "PLACENAME": "Madrid, Spain"}
{"PERSONID": 17434, "PLACENAME": "New York, N.Y."}
{"PERSONID": 17445, "PLACENAME": "New York, N.Y."}
{"PERSONID": 17450, "PLACENAME": "Me."}
{"PERSONID": 17476, "PLACENAME": "Denmark"}
{"PERSONID": 17484, "PLACENAME": "Boston, Mass."}
{"PERSONID": 17487, "PLACENAME": "Los Angeles, Calif."}
{"PERSONID": 17491, "PLACENAME": "Milwaukee, Wis."}
{"PERSONID": 17491, "PLACENAME": "New York, N.Y."}
{"PERSONID": 17494, "PLACENAME": "New York, N.Y."}
{"PERSONID": 17502, "PLACENAME": "Orange Co., Calif."}
{"PERSONID": 17513, "PLACENAME": "New York, N.Y."}
{"PERSONID": 17520, "PLACENAME": "Cincinnati, Ohio"}
{"PERSONID": 17535, "PLACENAME": "Grass Valley, Calif."}
{"PERSONID": 17555, "PLACENAME": "New York, N.Y."}
{"PERSONID": 17558, "PLACENAME": "Berkeley, Calif."}
{"PERSONID": 17559, "PLACENAME": "Portland, Or."}
{"PERSONID": 17567, "PLACENAME": "New York, N.Y."}
{"PERSONID": 17575, "PLACENAME": "Islamorada, Florida"}
{"PERSONID": 17575, "PLACENAME": "Meredith, New Hampshire"}
{"PERSONID": 17595, "PLACENAME": "New York, N.Y."}
{"PERSONID": 17598, "PLACENAME": "Santa Monica, Calif."}
{"PERSONID": 17603, "PLACENAME": "Jersey City, N.J."}
{"PERSONID": 17608, "PLACENAME": "Malmo, Sweden"}
{"PERSONID": 17616, "PLACENAME": "New York, N.Y."}
{"PERSONID": 18625, "PLACENAME": "New York, N.Y."}
{"PERSONID": 18628, "PLACENAME": "New City, New York"}
{"PERSONID": 18636, "PLACENAME": "New York, N.Y."}
{"PERSONID": 18643, "PLACENAME": "Providence, R.I."}
{"PERSONID": 18643, "PLACENAME": "Santa Fe, N.M."}
{"PERSONID": 18655, "PLACENAME": "Paris, France"}
{"PERSONID": 18657, "PLACENAME": "Paris, France"}
{"PERSONID": 18694, "PLACENAME": "Cambria, California"}
{"PERSONID": 18698, "PLACENAME": "New York, N.Y."}
{"PERSONID": 18699, "PLACENAME": "New York, N.Y."}
{"PERSONID": 18700, "PLACENAME": "Greensboro, N.C."}
{"PERSONID": 18700, "PLACENAME": "New York, N.Y."}
{"PERSONID": 18710, "PLACENAME": "Washington, D.C."}
{"PERSONID": 18713, "PLACENAME": "New York, N.Y."}
{"PERSONID": 18719, "PLACENAME": "Los Angeles, Calif."}
{"PERSONID": 18722, "PLACENAME": "Paris, France"}
{"PERSONID": 18732, "PLACENAME": "Ithaca, N.Y."}
{"PERSONID": 18755, "PLACENAME": "New York, N.Y."}
{"PERSONID": 18766, "PLACENAME": "New York, N.Y."}
{"PERSONID": 18766, "PLACENAME": "Washington, D.C."}
{"PERSONID": 18767, "PLACENAME": "West Dedham, Massachusetts"}
{"PERSONID": 18767, "PLACENAME": "Westwood, Mass."}
{"PERSONID": 18770, "PLACENAME": "Houston, Tex."}
{"PERSONID": 18789, "PLACENAME": "Chappequa, N.Y."}
{"PERSONID": 18821, "PLACENAME": "Los Angeles, Calif."}
{"PERSONID": 18822, "PLACENAME": "Chicago, Ill."}
{"PERSONID": 18822, "PLACENAME": "Washington, D.C."}
{"PERSONID": 18831, "PLACENAME": "Newark, N.J."}
{"PERSONID": 18832, "PLACENAME": "Chicago, Ill."}
{"PERSONID": 18842, "PLACENAME": "Chicago, Ill."}
{"PERSONID": 18843, "PLACENAME": "Chicago, Ill."}
{"PERSONID": 18846, "PLACENAME": "New York, N.Y."}
{"PERSONID": 18849, "PLACENAME": "Cincinnati, Ohio"}
{"PERSONID": 18854, "PLACENAME": "New York, N.Y."}
{"PERSONID": 18873, "PLACENAME": "San Francisco, Calif."}
{"PERSONID": 18881, "PLACENAME": "Chicago, Ill."}
{"PERSONID": 18882, "PLACENAME": "New York, N.Y."}
{"PERSONID": 18953, "PLACENAME": "Washington, D.C."}
{"PERSONID": 18956, "PLACENAME": "Washington, D.C."}
{"PERSONID": 19980, "PLACENAME": "Bronx, N.Y."}
{"PERSONID": 20442, "PLACENAME": "Poughkeepsie, N.Y."}
{"PERSONID": 26951, "PLACENAME": "Ga."}
{"PERSONID": 26951, "PLACENAME": "Tenn."}
{"PERSONID": 27010, "PLACENAME": "Detroit, Mich."}
{"PERSONID": 27010, "PLACENAME": "Haddonfield, N.J."}
{"PERSONID": 27010, "PLACENAME": "Philadelphia, Pa."}
{"PERSONID": 28048, "PLACENAME": "San Antonio, Tex."}
{"PERSONID": 28953, "PLACENAME": "New York, N.Y."}
{"PERSONID": 28999, "PLACENAME": "Washington, D.C."}
{"PERSONID": 29001, "PLACENAME": "Washington, D.C."}
{"PERSONID": 29035, "PLACENAME": "Washington, D.C."}
{"PERSONID": 29992, "PLACENAME": "Los Angeles, Calif."}
{"PERSONID": 29992, "PLACENAME": "New York, N.Y."}
{"PERSONID": 30090, "PLACENAME": "New York, N.Y."}
{"PERSONID": 30190, "PLACENAME": "Switzerland"}
{"PERSONID": 30306, "PLACENAME": "Florence, Italy"}
